route_number,name,street,latitude,longitude
41,5-та Міська лікарня,вул. Генерала Чупринки 64,49.830717,24.008742
3А,Автобусний завод,вул. Стрийська 45,49.808405,24.019256
3А,Автобусний завод,вул. Стрийська 104,49.807828,24.018968
9,Автобусний завод,вул. Стрийська 104,49.807828,24.018968
11,Автобусний завод,вул. Стрийська 104,49.807828,24.018968
13,Автобусний завод,вул. Стрийська 45,49.808405,24.019256
13,Автобусний завод,вул. Володимира Великого 2,49.808354,24.017027
16,Автобусний завод,вул. Стрийська 45,49.808405,24.019256
16,Автобусний завод,вул. Володимира Великого 2,49.808354,24.017027
18,Автобусний завод,вул. Стрийська 45,49.808405,24.019256
18,Автобусний завод,вул. Володимира Великого 2,49.808354,24.017027
27,Автобусний завод,вул. Стрийська 45,49.808405,24.019256
27,Автобусний завод,вул. Стрийська 104,49.807828,24.018968
44,Автобусний завод,вул. Стрийська 45,49.807828,24.018968
44,Автобусний завод,вул. Володимира Великого 2,49.808354,24.017027
3А,Автовокзал,вул. Стрийська 109,49.787400,24.017045
10,Автовокзал,вул. Стрийська 109,49.787400,24.017045
25,Автовокзал,вул. Стрийська 109,49.787400,24.017045
40,Автовокзал,вул. Стрийська 109,49.787400,24.017045
19,Авторинок,вул. Богданівська 11,49.854808,24.076078
19,Авторинок,вул. Богданівська 42,49.854768,24.076228
39,Авторинок,вул. Богданівська 11,49.854808,24.076078
1А,Автостанція № 2,вул. В. Липинського 60,49.865133,24.050981
1А,Автостанція № 2,вул. В. Липинського (навпроти № 60) ,49.864908,24.051676
9,Автостанція № 2,вул. Б. Хмельницького 225,49.864066,24.052390
12,Автостанція № 2,вул. В. Липинського 60,49.865133,24.050981
12,Автостанція № 2,вул. В. Липинського (навпроти № 60) ,49.864908,24.051676
19,Автостанція № 2,вул. Б. Хмельницького 225,49.864066,24.052390
20,Автостанція № 2,вул. Б. Хмельницького 225,49.864066,24.052390
25,Автостанція № 2,вул. Б. Хмельницького 225,49.864066,24.052390
25,Автостанція № 2,вул. В. Липинського 60,49.865133,24.050981
25,Автостанція № 2,вул. В. Липинського (навпроти № 60) ,49.864908,24.051676
34,Автостанція № 2,вул. В. Липинського 60,49.865133,24.050981
35,Автостанція № 2,вул. Б. Хмельницького 225,49.864066,24.052390
35,Автостанція № 2,вул. В. Липинського 60,49.865133,24.050981
35,Автостанція № 2,вул. В. Липинського (навпроти № 60) ,49.864908,24.051676
39,Автостанція № 2,вул. В. Липинського 60,49.865133,24.050981
39,Автостанція № 2,вул. В. Липинського (навпроти № 60) ,49.864908,24.051676
53,Автостанція № 2,вул. В. Липинського 60,49.865133,24.050981
53,Автостанція № 2,вул. В. Липинського (навпроти № 60) ,49.864908,24.051676
19,Автостанція № 5,вул. Зелена 214,49.807522,24.061431
23,Автостанція № 5,вул. Зелена 214,49.807522,24.061431
37,Автостанція № 5,вул. Зелена 214,49.807522,24.061431
40,Автостанція № 5,вул. Зелена 214,49.807522,24.061431
46,Автостанція № 5,вул. Зелена 214,49.807522,24.061431
47А,Автостанція № 5,вул. Зелена 214,49.807522,24.061431
5А,Автостанція № 6,вул. Личаківська 152,49.835892,24.070690
5А,Автостанція № 6,вул. Личаківська 195,49.835892,24.070690
18,Автостанція № 6,вул. Личаківська 195,49.835892,24.070690
19,Автостанція № 6,"вул. Глинянський Тракт (вул. Личаківська, 193) ",49.836130,24.070417
23,Автостанція № 6,"вул. Глинянський Тракт (вул. Личаківська, 193) ",49.836130,24.070417
27,Автостанція № 6,"вул. Глинянський Тракт (вул. Личаківська, 193) ",49.836130,24.070417
29,Автостанція № 6,"вул. Глинянський Тракт (вул. Личаківська, 193) ",49.836130,24.070417
36,Автостанція № 6,вул. Личаківська 152,49.835892,24.070690
36,Автостанція № 6,вул. Личаківська 195,49.835892,24.070690
39,Автостанція № 6,"вул. Глинянський Тракт (вул. Личаківська, 193) ",49.836130,24.070417
40,Автостанція № 6,вул. Личаківська 152,49.835892,24.070690
48,"Аеропорт - Термінал ""А""",вул. Любінська 168,49.813791,23.960373
4А,Академія мистецтв,вул. Снопківська  47,49.824888,24.037441
4А,Академія мистецтв,вул. Снопківська (навпроти № 47) ,49.825056,24.037309
26,Академія мистецтв,вул. Снопківська  47,49.824888,24.037441
26,Академія мистецтв,вул. Снопківська (навпроти № 47) ,49.825056,24.037309
30,Академія мистецтв,вул. Снопківська  47,49.824888,24.037441
30,Академія мистецтв,вул. Снопківська (навпроти № 47) ,49.825056,24.037309
53,Академія мистецтв,вул. Снопківська  47,49.824888,24.037441
53,Академія мистецтв,вул. Снопківська (навпроти № 47) ,49.825056,24.037309
38,Аквапарк,вул. Княгині Ольги 71,49.806565,23.998996
38,Аквапарк,вул. Княгині Ольги 108,49.807340,23.998756
41,Аквапарк,вул. Княгині Ольги 71,49.806565,23.998996
41,Аквапарк,вул. Княгині Ольги 108,49.807340,23.998756
44,Аквапарк,вул. Княгині Ольги 108,49.807340,23.998756
45,Аквапарк,вул. Княгині Ольги 71,49.806565,23.998996
45,Аквапарк,вул. Княгині Ольги 108,49.807340,23.998756
51,Аквапарк,вул. Княгині Ольги 71,49.806565,23.998996
51,Аквапарк,вул. Княгині Ольги 108,49.807340,23.998756
3А,Атовокзал,вул. Стрийська 302,49.787766,24.014629
10,Атовокзал,вул. Стрийська 302,49.787766,24.014629
25,Атовокзал,вул. Стрийська 302,49.787766,24.014629
40,Атовокзал,вул. Стрийська 302,49.787766,24.014629
7,Бізнес-центр,вул. Наукова 7А,49.803462,24.001031
10,Бізнес-центр,вул. Наукова 7А,49.803462,24.001031
14,Бізнес-центр,вул. Наукова 7А,49.803462,24.001031
23,Бізнес-центр,вул. Наукова 7А,49.803462,24.001031
25,Бізнес-центр,вул. Наукова 7А,49.803462,24.001031
27,Бізнес-центр,вул. Наукова 7А,49.803462,24.001031
32,Бізнес-центр,вул. Наукова 7А,49.803462,24.001031
38,Бізнес-центр,вул. Наукова 7А,49.803462,24.001031
41,Бізнес-центр,вул. Наукова 7А,49.803462,24.001031
34,Білогорща,вул. Білогорща 71,49.845867,23.929245
8,Брюховицьке кладовище,вул. Львівська ?,49.897438,23.964184
8,Брюховицьке кладовище,вул. Львівська ?,49.897438,23.964184
22,Брюховицьке кладовище,вул. Львівська ?,49.897438,23.964184
22,Брюховицьке кладовище,вул. Львівська ?,49.897438,23.964184
8,Брюховичі,вул. В. Івасюка 69,49.904834,23.926838
22,Брюховичі (вулиця Незалежності України),вул. Незалежності України 27,49.897438,23.964184
22,Брюховичі (вулиця Під Осовою),вул. Під Осовою 2,49.922242,23.982420
22,Брюховичі (вулиця Січових Стрільців),вул. Січових Стрільців ,49.917302,23.968231
22,Брюховичі (вулиця Січових Стрільців),вул. Січових Стрільців ,49.917338,23.968352
22,Брюховичі (вулиця Смолиста),вул. Незалежності України 45,49.895068,23.946059
22,Брюховичі (вулиця Смолиста),вул. Смолиста (перехрестя з вул. Соснова) ,49.894852,23.946463
1А,БТІ,вул. В. Липинського 54,49.864904,24.041423
1А,БТІ,вул. В. Липинського (навпроти № 54) ,49.864925,24.040768
12,БТІ,вул. В. Липинського 54,49.864904,24.041423
12,БТІ,вул. В. Липинського (навпроти № 54) ,49.864925,24.040768
25,БТІ,вул. В. Липинського 54,49.864904,24.041423
25,БТІ,вул. В. Липинського (навпроти № 54) ,49.864925,24.040768
34,БТІ,вул. В. Липинського 54,49.864904,24.041423
35,БТІ,вул. В. Липинського 54,49.864904,24.041423
35,БТІ,вул. В. Липинського (навпроти № 54) ,49.864925,24.040768
53,БТІ,вул. В. Липинського 54,49.864904,24.041423
53,БТІ,вул. В. Липинського (навпроти № 54) ,49.864925,24.040768
5А,Винники,вул. Галицька 21,49.816834,24.137023
5А,Винники,вул. Галицька (навпроти № 21) ,49.816803,24.137205
36,Винники,вул. Галицька 21,49.816834,24.137023
36,Винники,вул. Т. Шевченка (перехрестя з вул. Галицька) ,49.816476,24.135776
40,Винники,вул. Галицька 21,49.816834,24.137023
40,Винники,вул. Галицька (навпроти № 21) ,49.816803,24.137205
5А,Винники (вулиця Галицька),вул. Галицька 42,49.817297,24.144106
5А,Винники (вулиця Галицька),вул. Галицька 57В,49.817385,24.144091
36,Винники (вулиця Галицька),вул. Галицька 57В,49.817385,24.144091
40,Винники (вулиця Галицька),вул. Галицька 42,49.817297,24.144106
40,Винники (вулиця Галицька),вул. Галицька 57В,49.817385,24.144091
36,Винники (вулиця Забава),вул. Забава 1А,49.802288,24.135285
36,Винники (вулиця Забава),вул. Забава 8А,49.802347,24.135055
36,Винники (вулиця Івана Франка),вул. І. Франка 81,49.808880,24.138298
36,Винники (вулиця Івана Франка),вул. І. Франка 74А,49.808869,24.138119
40,Винники (вулиця Кільцева),вул. Кільцева ,49.822383,24.147024
36,Винники (вулиця Козацька),вул. Забава 21,49.802515,24.129712
36,Винники (вулиця Козацька),вул. Забава 46,49.802763,24.129261
36,Винники (вулиця М. Ломоносова),вул. Б. Хмельницького (перехрестя з вул. М. Ломоносова) ,49.809309,24.120402
5А,Винники (Кільцева дорога),вул. Галицька 109,49.817831,24.157602
5А,Винниківське озеро,вул. Личаківська (перехрестя з вул. Б. Хмельницького) ,49.820415,24.112738
5А,Винниківське озеро,вул. Личаківська (перехрестя з вул. Б. Хмельницького) ,49.820654,24.112528
36,Винниківське озеро,вул. Личаківська (перехрестя з вул. Б. Хмельницького) ,49.820415,24.112738
36,Винниківське озеро,вул. Личаківська (перехрестя з вул. Б. Хмельницького) ,49.820654,24.112528
40,Винниківське озеро,вул. Личаківська (перехрестя з вул. Б. Хмельницького) ,49.820415,24.112738
40,Винниківське озеро,вул. Личаківська (перехрестя з вул. Б. Хмельницького) ,49.820654,24.112528
13,Вулиця А. Кос-Анатольського,вул. І. Кавалерідзе 15,49.791335,24.067334
13,Вулиця А. Кос-Анатольського,вул. І. Кавалерідзе 16,49.791000,24.067545
14,Вулиця А. Кос-Анатольського,вул. І. Кавалерідзе 15,49.791335,24.067334
14,Вулиця А. Кос-Анатольського,вул. І. Кавалерідзе 16,49.791000,24.067545
26,Вулиця А. Кос-Анатольського,вул. І. Кавалерідзе 15,49.791335,24.067334
26,Вулиця А. Кос-Анатольського,вул. І. Кавалерідзе 16,49.791000,24.067545
35,Вулиця А. Кос-Анатольського,вул. І. Кавалерідзе 15,49.791335,24.067334
35,Вулиця А. Кос-Анатольського,вул. І. Кавалерідзе 16,49.791000,24.067545
46,Вулиця А. Кос-Анатольського,вул. І. Кавалерідзе 15,49.791335,24.067334
46,Вулиця А. Кос-Анатольського,вул. І. Кавалерідзе 16,49.791000,24.067545
47А,Вулиця А. Кос-Анатольського,вул. І. Кавалерідзе 15,49.791335,24.067334
26,Вулиця А. Лінкольна,вул. А. Лінкольна 4А,49.864593,24.028388
26,Вулиця А. Лінкольна,вул. А. Лінкольна (навпроти № 4А) ,49.864607,24.028285
39,Вулиця А. Лінкольна,вул. А. Лінкольна 45,49.866673,24.041566
39,Вулиця А. Лінкольна,вул. А. Лінкольна 4А,49.864593,24.028388
39,Вулиця А. Лінкольна,вул. А. Лінкольна (навпроти № 45) ,49.866577,24.041742
39,Вулиця А. Лінкольна,вул. А. Лінкольна (навпроти № 4А) ,49.864607,24.028285
5А,Вулиця А. Чехова - Академія ветеринарної медицини,вул. Личаківська 28,49.840073,24.042666
5А,Вулиця А. Чехова - Академія ветеринарної медицини,вул. Личаківська 35,49.840224,24.043079
15,Вулиця А. Чехова - Академія ветеринарної медицини,вул. Личаківська 35,49.840224,24.043079
18,Вулиця А. Чехова - Академія ветеринарної медицини,вул. Личаківська 28,49.840073,24.042666
18,Вулиця А. Чехова - Академія ветеринарної медицини,вул. Личаківська 35,49.840224,24.043079
24,Вулиця А. Чехова - Академія ветеринарної медицини,вул. Личаківська 28,49.840073,24.042666
29,Вулиця А. Чехова - Академія ветеринарної медицини,вул. Личаківська 28,49.840073,24.042666
29,Вулиця А. Чехова - Академія ветеринарної медицини,вул. Личаківська 35,49.840224,24.043079
36,Вулиця А. Чехова - Академія ветеринарної медицини,вул. Личаківська 28,49.840073,24.042666
36,Вулиця А. Чехова - Академія ветеринарної медицини,вул. Личаківська 35,49.840224,24.043079
39,Вулиця А. Чехова - Академія ветеринарної медицини,вул. Личаківська 28,49.840073,24.042666
39,Вулиця А. Чехова - Академія ветеринарної медицини,вул. Личаківська 35,49.840224,24.043079
47А,Вулиця А. Чехова - Академія ветеринарної медицини,вул. Личаківська 28,49.840073,24.042666
47А,Вулиця А. Чехова - Академія ветеринарної медицини,вул. Личаківська 35,49.840224,24.043079
50,Вулиця А. Чехова - Академія ветеринарної медицини,вул. Личаківська 28,49.840073,24.042666
50,Вулиця А. Чехова - Академія ветеринарної медицини,вул. Личаківська 35,49.840224,24.043079
27,Вулиця Авіаційна,вул. Авіаційна ,49.824880,23.939472
7,Вулиця Академіка Підстригача,вул. Наукова 3,49.802302,24.013298
7,Вулиця Академіка Підстригача,"вул. Наукова (вул. Стрийська, 148А) ",49.802387,24.014313
10,Вулиця Академіка Підстригача,вул. Наукова 3,49.802302,24.013298
10,Вулиця Академіка Підстригача,"вул. Наукова (вул. Стрийська, 148А) ",49.802387,24.014313
14,Вулиця Академіка Підстригача,вул. Наукова 3,49.802302,24.013298
14,Вулиця Академіка Підстригача,"вул. Наукова (вул. Стрийська, 148А) ",49.802387,24.014313
23,Вулиця Академіка Підстригача,вул. Наукова 3,49.802302,24.013298
23,Вулиця Академіка Підстригача,"вул. Наукова (вул. Стрийська, 148А) ",49.802387,24.014313
25,Вулиця Академіка Підстригача,вул. Наукова 3,49.802302,24.013298
25,Вулиця Академіка Підстригача,"вул. Наукова (вул. Стрийська, 148А) ",49.802387,24.014313
27,Вулиця Академіка Підстригача,вул. Наукова 3,49.802302,24.013298
27,Вулиця Академіка Підстригача,"вул. Наукова (вул. Стрийська, 148А) ",49.802387,24.014313
32,Вулиця Академіка Підстригача,вул. Наукова 3,49.802302,24.013298
32,Вулиця Академіка Підстригача,"вул. Наукова (вул. Стрийська, 148А) ",49.802387,24.014313
38,Вулиця Академіка Підстригача,вул. Наукова 3,49.802302,24.013298
38,Вулиця Академіка Підстригача,"вул. Наукова (вул. Стрийська, 148А) ",49.802387,24.014313
41,Вулиця Академіка Підстригача,вул. Наукова 3,49.802302,24.013298
41,Вулиця Академіка Підстригача,"вул. Наукова (вул. Стрийська, 148А) ",49.802387,24.014313
21,Вулиця Академіка Сахарова,вул. М. Коперника 41,,
24,Вулиця Академіка Сахарова,вул. І. Нечуя-Левицького 8,,
30,Вулиця Академіка Сахарова,вул. І. Нечуя-Левицького 8,,
42,Вулиця Академіка Сахарова,"вул. Академіка А. Сахарова (вул. Стрийська, 76В) ",,
42,Вулиця Академіка Сахарова,вул. І. Нечуя-Левицького 8,,
42,Вулиця Академіка Сахарова,вул. М. Коперника 41,,
43,Вулиця Академіка Сахарова,вул. М. Коперника 41,,
45,Вулиця Академіка Сахарова,вул. М. Коперника 41,,
48,Вулиця Академіка Сахарова,вул. М. Коперника 41,,
2А,Вулиця Андрія Мельника,вул. В. Антоновича 47,,
7,Вулиця Андрія Мельника,вул. В. Антоновича 47,,
33,Вулиця Андрія Мельника,вул. В. Антоновича 47,,
38,Вулиця Андрія Мельника,вул. В. Антоновича 47,,
8,Вулиця Арктична,вул. В. Івасюка 6,,
8,Вулиця Арктична,вул. В. Івасюка 19,,
1А,Вулиця Б. Грінченка,вул. Б. Хмельницького 212,,
7,Вулиця Б. Грінченка,вул. Б. Грінченка 6,,
9,Вулиця Б. Грінченка,вул. Б. Хмельницького 212,,
12,Вулиця Б. Грінченка,вул. Б. Грінченка 6,,
12,Вулиця Б. Грінченка,вул. Б. Хмельницького 212,,
19,Вулиця Б. Грінченка,вул. Б. Грінченка 6,,
19,Вулиця Б. Грінченка,вул. Б. Хмельницького 212,,
31,Вулиця Б. Грінченка,вул. Б. Грінченка 6,,
34,Вулиця Б. Грінченка,вул. Б. Грінченка 6,,
34,Вулиця Б. Грінченка,вул. Б. Хмельницького 212,,
39,Вулиця Б. Грінченка,вул. Б. Грінченка 6,,
39,Вулиця Б. Грінченка,вул. Б. Хмельницького 212,,
41,Вулиця Б. Грінченка,вул. Б. Грінченка 6,,
51,Вулиця Б. Грінченка,вул. Б. Грінченка 6,,
53,Вулиця Б. Грінченка,вул. Б. Хмельницького 212,,
26,Вулиця Б.-І. Антонича,вул. Б.-І. Антонича 12,,
34,Вулиця Білогорща,вул. Білогорща 25,,
34,Вулиця Білогорща,вул. Білогорща 118,,
5А,Вулиця Богдана Котика,вул. Личаківська 112,,
5А,Вулиця Богдана Котика,вул. Личаківська 149,,
15,Вулиця Богдана Котика,вул. Личаківська 149,,
18,Вулиця Богдана Котика,вул. Личаківська 112,,
18,Вулиця Богдана Котика,вул. Личаківська 149,,
24,Вулиця Богдана Котика,вул. Личаківська 112,,
29,Вулиця Богдана Котика,вул. Личаківська 112,,
29,Вулиця Богдана Котика,вул. Личаківська 149,,
36,Вулиця Богдана Котика,вул. Личаківська 112,,
36,Вулиця Богдана Котика,вул. Личаківська 149,,
39,Вулиця Богдана Котика,вул. Личаківська 112,,
39,Вулиця Богдана Котика,вул. Личаківська 149,,
47А,Вулиця Богдана Котика,вул. Личаківська 112,,
47А,Вулиця Богдана Котика,вул. Личаківська 149,,
50,Вулиця Богдана Котика,вул. Личаківська 112,,
50,Вулиця Богдана Котика,вул. Личаківська 149,,
9,Вулиця Богдана Хмельницького,вул. Б. Хмельницького 289,,
19,Вулиця Богданівська,вул. Богданівська 2,,
19,Вулиця Богданівська,вул. Глинянський Тракт (навпроти № 70) ,,
23,Вулиця Богданівська,вул. Глинянський Тракт 74,,
23,Вулиця Богданівська,вул. Глинянський Тракт (навпроти № 70) ,,
29,Вулиця Богданівська,вул. Глинянський Тракт 74,,
29,Вулиця Богданівська,вул. Глинянський Тракт (навпроти № 70) ,,
6А,Вулиця Брюховицька,вул. Т. Шевченка 171,,
6А,Вулиця Брюховицька,вул. Т. Шевченка 230,,
11,Вулиця Брюховицька,вул. Т. Шевченка 171,,
11,Вулиця Брюховицька,вул. Т. Шевченка 230,,
12,Вулиця Брюховицька,вул. Т. Шевченка 171,,
12,Вулиця Брюховицька,вул. Т. Шевченка 230,,
30,Вулиця Брюховицька,вул. Т. Шевченка 171,,
30,Вулиця Брюховицька,вул. Т. Шевченка 230,,
49,Вулиця Брюховицька,вул. Т. Шевченка 171,,
49,Вулиця Брюховицька,вул. Т. Шевченка 230,,
50,Вулиця Брюховицька,вул. Т. Шевченка 171,,
50,Вулиця Брюховицька,вул. Т. Шевченка 230,,
19,Вулиця Бузкова,вул. Зелена 147,,
19,Вулиця Бузкова,вул. Зелена 186,,
23,Вулиця Бузкова,вул. Зелена 147,,
23,Вулиця Бузкова,вул. Зелена 186,,
27,Вулиця Бузкова,вул. Зелена 147,,
27,Вулиця Бузкова,вул. Зелена 186,,
37,Вулиця Бузкова,вул. Зелена 147,,
37,Вулиця Бузкова,вул. Зелена 186,,
40,Вулиця Бузкова,вул. Зелена 147,,
40,Вулиця Бузкова,вул. Зелена 186,,
46,Вулиця Бузкова,вул. Зелена 147,,
46,Вулиця Бузкова,вул. Зелена 186,,
47А,Вулиця Бузкова,вул. Зелена 147,,
47А,Вулиця Бузкова,вул. Зелена 186,,
2А,Вулиця В. Антоновича,"вул. В. Антоновича (вул. Кульпарківська, 73) ",,
7,Вулиця В. Антоновича,"вул. В. Антоновича (вул. Кульпарківська, 73) ",,
33,Вулиця В. Антоновича,"вул. В. Антоновича (вул. Кульпарківська, 73) ",,
38,Вулиця В. Антоновича,"вул. В. Антоновича (вул. Кульпарківська, 73) ",,
6А,Вулиця В. Єрошенка,вул. Т. Шевченка 77,,
6А,Вулиця В. Єрошенка,вул. Т. Шевченка 114,,
17,Вулиця В. Єрошенка,вул. Т. Шевченка 77,,
17,Вулиця В. Єрошенка,вул. Т. Шевченка 114,,
30,Вулиця В. Єрошенка,вул. Т. Шевченка 77,,
30,Вулиця В. Єрошенка,вул. Т. Шевченка 114,,
49,Вулиця В. Єрошенка,вул. Т. Шевченка 77,,
49,Вулиця В. Єрошенка,вул. Т. Шевченка 114,,
8,Вулиця В. Івасюка,вул. В. Івасюка 4,,
8,Вулиця В. Івасюка,вул. В. Івасюка 1Б,,
2А,Вулиця В. Караджича,вул. Любінська 91,,
2А,Вулиця В. Караджича,вул. Любінська 102,,
16,Вулиця В. Караджича,вул. Любінська 91,,
16,Вулиця В. Караджича,вул. Любінська 102,,
25,Вулиця В. Караджича,вул. Любінська 91,,
25,Вулиця В. Караджича,вул. Любінська 102,,
12,Вулиця В. Липинського,вул. Варшавська 1,,
12,Вулиця В. Липинського,вул. Варшавська 2,,
28,Вулиця В. Липинського,вул. Варшавська 2,,
1А,Вулиця В. Липинського - І. Миколайчука,вул. В. Липинського (перехрестя з вул. І. Миколайчука) ,,
12,Вулиця В. Липинського - І. Миколайчука,вул. В. Липинського (перехрестя з вул. І. Миколайчука) ,,
25,Вулиця В. Липинського - І. Миколайчука,вул. В. Липинського (перехрестя з вул. І. Миколайчука) ,,
35,Вулиця В. Липинського - І. Миколайчука,вул. В. Липинського (перехрестя з вул. І. Миколайчука) ,,
53,Вулиця В. Липинського - І. Миколайчука,вул. В. Липинського (перехрестя з вул. І. Миколайчука) ,,
19,Вулиця В. Навроцького,вул. Зелена 149,,
19,Вулиця В. Навроцького,вул. Зелена 200,,
23,Вулиця В. Навроцького,вул. Зелена 149,,
23,Вулиця В. Навроцького,вул. Зелена 200,,
27,Вулиця В. Навроцького,вул. Зелена 149,,
27,Вулиця В. Навроцького,вул. Зелена 200,,
37,Вулиця В. Навроцького,вул. Зелена 149,,
37,Вулиця В. Навроцького,вул. Зелена 200,,
40,Вулиця В. Навроцького,вул. Зелена 149,,
40,Вулиця В. Навроцького,вул. Зелена 200,,
46,Вулиця В. Навроцького,вул. Зелена 149,,
46,Вулиця В. Навроцького,вул. Зелена 200,,
47А,Вулиця В. Навроцького,вул. Зелена 149,,
47А,Вулиця В. Навроцького,вул. Зелена 200,,
7,Вулиця В. Чукаріна,"вул. Хуторівка (вул. В. Чукаріна, 28) ",,
7,Вулиця В. Чукаріна,"вул. Хуторівка (навпроти вул. В. Чукаріна, 30) ",,
11,Вулиця В. Чукаріна,"вул. Хуторівка (вул. В. Чукаріна, 28) ",,
11,Вулиця В. Чукаріна,"вул. Хуторівка (навпроти вул. В. Чукаріна, 30) ",,
14,Вулиця В. Чукаріна,"вул. Хуторівка (вул. В. Чукаріна, 28) ",,
14,Вулиця В. Чукаріна,"вул. Хуторівка (навпроти вул. В. Чукаріна, 30) ",,
23,Вулиця В. Чукаріна,"вул. Хуторівка (вул. В. Чукаріна, 28) ",,
23,Вулиця В. Чукаріна,"вул. Хуторівка (навпроти вул. В. Чукаріна, 30) ",,
32,Вулиця В. Чукаріна,"вул. Хуторівка (вул. В. Чукаріна, 28) ",,
32,Вулиця В. Чукаріна,"вул. Хуторівка (навпроти вул. В. Чукаріна, 30) ",,
38,Вулиця В. Чукаріна,"вул. Хуторівка (вул. В. Чукаріна, 28) ",,
38,Вулиця В. Чукаріна,"вул. Хуторівка (навпроти вул. В. Чукаріна, 30) ",,
40,Вулиця В. Чукаріна,"вул. Хуторівка (вул. В. Чукаріна, 28) ",,
40,Вулиця В. Чукаріна,"вул. Хуторівка (навпроти вул. В. Чукаріна, 30) ",,
41,Вулиця В. Чукаріна,"вул. Хуторівка (вул. В. Чукаріна, 28) ",,
41,Вулиця В. Чукаріна,"вул. Хуторівка (навпроти вул. В. Чукаріна, 30) ",,
12,Вулиця В. Щурата,вул. В. Щурата 12,,
17,Вулиця В. Щурата,вул. В. Щурата 12,,
19,Вулиця В. Щурата,вул. В. Щурата 12,,
26,Вулиця В. Щурата,вул. В. Щурата 12,,
7,Вулиця Варшавська,просп. В. Чорновола 103,,
7,Вулиця Варшавська,просп. В. Чорновола (напроти № 101) ,,
8,Вулиця Варшавська,просп. В. Чорновола 103,,
8,Вулиця Варшавська,просп. В. Чорновола (напроти № 101) ,,
17,Вулиця Варшавська,просп. В. Чорновола 103,,
17,Вулиця Варшавська,просп. В. Чорновола (напроти № 101) ,,
22,Вулиця Варшавська,просп. В. Чорновола 103,,
22,Вулиця Варшавська,просп. В. Чорновола (напроти № 101) ,,
28,Вулиця Варшавська,просп. В. Чорновола 103,,
31,Вулиця Варшавська,просп. В. Чорновола 103,,
31,Вулиця Варшавська,просп. В. Чорновола (напроти № 101) ,,
34,Вулиця Варшавська,просп. В. Чорновола 103,,
37,Вулиця Варшавська,просп. В. Чорновола 103,,
37,Вулиця Варшавська,просп. В. Чорновола (напроти № 101) ,,
37,Вулиця Варшавська,вул. Під Голоском (навпроти № 3) ,,
41,Вулиця Варшавська,просп. В. Чорновола 103,,
41,Вулиця Варшавська,просп. В. Чорновола (напроти № 101) ,,
46,Вулиця Варшавська,просп. В. Чорновола 103,,
46,Вулиця Варшавська,просп. В. Чорновола (напроти № 101) ,,
50,Вулиця Варшавська,просп. В. Чорновола 103,,
50,Вулиця Варшавська,просп. В. Чорновола (напроти № 101) ,,
51,Вулиця Варшавська,просп. В. Чорновола 103,,
51,Вулиця Варшавська,просп. В. Чорновола (напроти № 101) ,,
12,Вулиця Варшавська - П. Панча,вул. Варшавська 83,,
12,Вулиця Варшавська-Панча,"вул. Варшавська (вул. П. Панча, 26) ",,
28,Вулиця Варшавська-Панча,"вул. Варшавська (вул. П. Панча, 26) ",,
7,Вулиця Василя Симоненка,вул. Наукова 53,,
7,Вулиця Василя Симоненка,вул. Наукова 112,,
9,Вулиця Василя Симоненка,вул. Володимира Великого 50,,
9,Вулиця Василя Симоненка,вул. Володимира Великого 111,,
10,Вулиця Василя Симоненка,вул. Наукова 53,,
10,Вулиця Василя Симоненка,вул. Наукова 112,,
11,Вулиця Василя Симоненка,вул. Володимира Великого 50,,
11,Вулиця Василя Симоненка,вул. Володимира Великого 111,,
13,Вулиця Василя Симоненка,вул. Володимира Великого 50,,
13,Вулиця Василя Симоненка,вул. Володимира Великого 111,,
14,Вулиця Василя Симоненка,вул. Наукова 53,,
14,Вулиця Василя Симоненка,вул. Наукова 112,,
16,Вулиця Василя Симоненка,вул. Володимира Великого 50,,
16,Вулиця Василя Симоненка,вул. Володимира Великого 111,,
18,Вулиця Василя Симоненка,вул. Володимира Великого 50,,
18,Вулиця Василя Симоненка,вул. Володимира Великого 111,,
21,Вулиця Василя Симоненка,вул. Володимира Великого 50,,
21,Вулиця Василя Симоненка,вул. Володимира Великого 111,,
23,Вулиця Василя Симоненка,вул. Наукова 53,,
23,Вулиця Василя Симоненка,вул. Наукова 112,,
25,Вулиця Василя Симоненка,вул. Наукова 53,,
25,Вулиця Василя Симоненка,вул. Наукова 112,,
27,Вулиця Василя Симоненка,вул. Наукова 53,,
27,Вулиця Василя Симоненка,вул. Наукова 112,,
32,Вулиця Василя Симоненка,вул. Наукова 53,,
32,Вулиця Василя Симоненка,вул. Наукова 112,,
38,Вулиця Василя Симоненка,вул. Володимира Великого 50,,
38,Вулиця Василя Симоненка,вул. Володимира Великого 111,,
44,Вулиця Василя Симоненка,вул. Володимира Великого 111,,
44,Вулиця Василя Симоненка,вул. Наукова 112,,
45,Вулиця Василя Симоненка,вул. Наукова 51,,
48,Вулиця Василя Симоненка,вул. Володимира Великого 50,,
48,Вулиця Василя Симоненка,вул. Володимира Великого 111,,
51,Вулиця Василя Симоненка,вул. Володимира Великого 50,,
51,Вулиця Василя Симоненка,вул. Володимира Великого 111,,
51,Вулиця Василя Симоненка,вул. Наукова 53,,
51,Вулиця Василя Симоненка,вул. Наукова 112,,
6А,Вулиця Винниця,вул. Т. Шевченка (навпроти № 154Б) ,,
6А,Вулиця Винниця,вул. Т. Шевченка 154Б,,
11,Вулиця Винниця,вул. Т. Шевченка (навпроти № 154Б) ,,
11,Вулиця Винниця,вул. Т. Шевченка 154Б,,
12,Вулиця Винниця,вул. Т. Шевченка (навпроти № 154Б) ,,
12,Вулиця Винниця,вул. Т. Шевченка 154Б,,
30,Вулиця Винниця,вул. Т. Шевченка (навпроти № 154Б) ,,
30,Вулиця Винниця,вул. Т. Шевченка 154Б,,
49,Вулиця Винниця,вул. Т. Шевченка (навпроти № 154Б) ,,
49,Вулиця Винниця,вул. Т. Шевченка 154Б,,
50,Вулиця Винниця,вул. Т. Шевченка (навпроти № 154Б) ,,
50,Вулиця Винниця,вул. Т. Шевченка 154Б,,
9,Вулиця Височана,вул. Б. Хмельницького 158,,
9,Вулиця Височана,вул. Б. Хмельницького 201,,
19,Вулиця Височана,вул. Б. Хмельницького 158,,
19,Вулиця Височана,вул. Б. Хмельницького 201,,
20,Вулиця Височана,вул. Б. Хмельницького 158,,
20,Вулиця Височана,вул. Б. Хмельницького 201,,
25,Вулиця Височана,вул. Б. Хмельницького 158,,
25,Вулиця Височана,вул. Б. Хмельницького 201,,
35,Вулиця Височана,вул. Б. Хмельницького 158,,
35,Вулиця Височана,вул. Б. Хмельницького 201,,
28,Вулиця Вівсяна,вул. Городоцька 210,,
28,Вулиця Вівсяна,вул. Городоцька 273,,
28,Вулиця Вільхова,вул. Городоцька 222,,
28,Вулиця Вільхова,вул. Городоцька 293,,
15,Вулиця Водогінна,вул. Зелена 118,,
24,Вулиця Водогінна,вул. Зелена 87,,
37,Вулиця Водогінна,вул. Зелена 118,,
37,Вулиця Водогінна,вул. Зелена 87,,
43,Вулиця Водогінна,вул. Зелена 118,,
43,Вулиця Водогінна,вул. Зелена 87,,
44,Вулиця Водогінна,вул. Зелена 118,,
44,Вулиця Водогінна,вул. Зелена 87,,
46,Вулиця Водогінна,вул. Зелена 118,,
46,Вулиця Водогінна,вул. Зелена 87,,
9,Вулиця Володимира Великого,вул. Володимира Великого 22,,
9,Вулиця Володимира Великого,вул. Володимира Великого 35,,
11,Вулиця Володимира Великого,вул. Володимира Великого 22,,
11,Вулиця Володимира Великого,вул. Володимира Великого 35,,
13,Вулиця Володимира Великого,вул. Володимира Великого 22,,
13,Вулиця Володимира Великого,вул. Володимира Великого 35,,
16,Вулиця Володимира Великого,вул. Володимира Великого 22,,
16,Вулиця Володимира Великого,вул. Володимира Великого 35,,
18,Вулиця Володимира Великого,вул. Володимира Великого 22,,
18,Вулиця Володимира Великого,вул. Володимира Великого 35,,
28,Вулиця Володимира Великого,вул. Володимира Великого 3Б,,
44,Вулиця Володимира Великого,вул. Володимира Великого 22,,
44,Вулиця Володимира Великого,вул. Володимира Великого 35,,
3А,Вулиця Володимира Шухевича,вул. І. Франка 7,,
4А,Вулиця Володимира Шухевича,вул. І. Франка 7,,
18,Вулиця Володимира Шухевича,вул. І. Франка 7,,
18,Вулиця Володимира Шухевича,вул. І. Франка 8,,
26,Вулиця Володимира Шухевича,вул. І. Франка 7,,
26,Вулиця Володимира Шухевича,вул. І. Франка 8,,
30,Вулиця Володимира Шухевича,вул. І. Франка 7,,
30,Вулиця Володимира Шухевича,вул. І. Франка 8,,
35,Вулиця Володимира Шухевича,вул. І. Франка 7,,
35,Вулиця Володимира Шухевича,вул. І. Франка 8,,
37,Вулиця Володимира Шухевича,вул. І. Франка 7,,
37,Вулиця Володимира Шухевича,вул. І. Франка 8,,
46,Вулиця Володимира Шухевича,вул. І. Франка 7,,
46,Вулиця Володимира Шухевича,вул. І. Франка 8,,
53,Вулиця Володимира Шухевича,вул. І. Франка 7,,
38,Вулиця Вулецька,вул. Зелена 327,,
9,Вулиця Гайдамацька,вул. Б. Хмельницького 48,,
9,Вулиця Гайдамацька,вул. Гайдамацька 2А,,
9,Вулиця Гайдамацька,вул. Замарстинівська  39,,
20,Вулиця Гайдамацька,вул. Б. Хмельницького 48,,
20,Вулиця Гайдамацька,вул. Гайдамацька 2А,,
20,Вулиця Гайдамацька,вул. Замарстинівська  39,,
7,Вулиця Гетьмана Мазепи,вул. Гетьмана Мазепи ?,,
7,Вулиця Гетьмана Мазепи,вул. Гетьмана Мазепи ?,,
17,Вулиця Гетьмана Мазепи,вул. Гетьмана Мазепи ?,,
17,Вулиця Гетьмана Мазепи,вул. Гетьмана Мазепи ?,,
31,Вулиця Гетьмана Мазепи,вул. Гетьмана Мазепи ?,,
31,Вулиця Гетьмана Мазепи,вул. Гетьмана Мазепи ?,,
34,Вулиця Гетьмана Мазепи,вул. Гетьмана Мазепи ?,,
41,Вулиця Гетьмана Мазепи,вул. Гетьмана Мазепи ?,,
41,Вулиця Гетьмана Мазепи,вул. Гетьмана Мазепи ?,,
46,Вулиця Гетьмана Мазепи,вул. Гетьмана Мазепи ?,,
46,Вулиця Гетьмана Мазепи,вул. Гетьмана Мазепи ?,,
51,Вулиця Гетьмана Мазепи,вул. Гетьмана Мазепи ?,,
51,Вулиця Гетьмана Мазепи,вул. Гетьмана Мазепи ?,,
23,Вулиця Глинянський Тракт,вул. Глинянський Тракт 161,,
23,Вулиця Глинянський Тракт,вул. Глинянський Тракт (навпроти № 161) ,,
29,Вулиця Глинянський Тракт,вул. Глинянський Тракт 161,,
29,Вулиця Глинянський Тракт,вул. Глинянський Тракт (навпроти № 161) ,,
37,Вулиця Гната Хоткевича,вул. Г. Хоткевича 62,,
37,Вулиця Гната Хоткевича,вул. Г. Хоткевича 68,,
7,Вулиця Гринченка,"вул. Б. Грінченка (вул. Творча, 48) ",,
12,Вулиця Гринченка,"вул. Б. Грінченка (вул. Творча, 48) ",,
19,Вулиця Гринченка,"вул. Б. Грінченка (вул. Творча, 48) ",,
31,Вулиця Гринченка,"вул. Б. Грінченка (вул. Творча, 48) ",,
41,Вулиця Гринченка,"вул. Б. Грінченка (вул. Творча, 48) ",,
51,Вулиця Гринченка,"вул. Б. Грінченка (вул. Творча, 48) ",,
13,Вулиця Д. Карбишева,вул. Д. Карбишева 6А,,
16,Вулиця Д. Карбишева,вул. Д. Карбишева 6А,,
26,Вулиця Д. Карбишева,вул. Д. Карбишева 6А,,
27,Вулиця Д. Карбишева,вул. Д. Карбишева 6А,,
30,Вулиця Д. Карбишева,вул. Д. Карбишева 6А,,
35,Вулиця Д. Карбишева,вул. Д. Карбишева 6А,,
2А,Вулиця Д. Яворницького,вул. Любінська 96,,
16,Вулиця Д. Яворницького,вул. Любінська 96,,
25,Вулиця Д. Яворницького,вул. Любінська 96,,
7,Вулиця Демнянська,вул. Хуторівка 8,,
7,Вулиця Демнянська,вул. Хуторівка 49,,
11,Вулиця Демнянська,вул. Хуторівка 8,,
11,Вулиця Демнянська,вул. Хуторівка 49,,
14,Вулиця Демнянська,вул. Хуторівка 8,,
14,Вулиця Демнянська,вул. Хуторівка 49,,
23,Вулиця Демнянська,вул. Хуторівка 8,,
23,Вулиця Демнянська,вул. Хуторівка 49,,
32,Вулиця Демнянська,вул. Хуторівка 8,,
32,Вулиця Демнянська,вул. Хуторівка 49,,
38,Вулиця Демнянська,вул. Хуторівка 8,,
38,Вулиця Демнянська,вул. Хуторівка 49,,
40,Вулиця Демнянська,вул. Хуторівка 8,,
40,Вулиця Демнянська,вул. Хуторівка 49,,
41,Вулиця Демнянська,вул. Хуторівка 8,,
41,Вулиця Демнянська,вул. Хуторівка 49,,
15,Вулиця Джорджа Вашингтона,"вул. Дж. Вашингтона (вул. Зелена, 147) ",,
19,Вулиця Джорджа Вашингтона,"вул. Дж. Вашингтона (навпроти вул. Зелена, 147) ",,
19,Вулиця Джорджа Вашингтона,"вул. Дж. Вашингтона (вул. Зелена, 147) ",,
23,Вулиця Джорджа Вашингтона,"вул. Дж. Вашингтона (навпроти вул. Зелена, 147) ",,
23,Вулиця Джорджа Вашингтона,"вул. Дж. Вашингтона (вул. Зелена, 147) ",,
24,Вулиця Джорджа Вашингтона,"вул. Дж. Вашингтона (навпроти вул. Зелена, 147) ",,
27,Вулиця Джорджа Вашингтона,"вул. Дж. Вашингтона (навпроти вул. Зелена, 147) ",,
27,Вулиця Джорджа Вашингтона,"вул. Дж. Вашингтона (вул. Зелена, 147) ",,
40,Вулиця Джорджа Вашингтона,"вул. Дж. Вашингтона (навпроти вул. Зелена, 147) ",,
40,Вулиця Джорджа Вашингтона,"вул. Дж. Вашингтона (вул. Зелена, 147) ",,
44,Вулиця Джорджа Вашингтона,"вул. Дж. Вашингтона (навпроти вул. Зелена, 147) ",,
44,Вулиця Джорджа Вашингтона,"вул. Дж. Вашингтона (вул. Зелена, 147) ",,
47А,Вулиця Джорджа Вашингтона,"вул. Дж. Вашингтона (навпроти вул. Зелена, 147) ",,
47А,Вулиця Джорджа Вашингтона,"вул. Дж. Вашингтона (вул. Зелена, 147) ",,
50,Вулиця Джорджа Вашингтона,"вул. Дж. Вашингтона (вул. Зелена, 147) ",,
15,Вулиця Дністерська,вул. Зелена 150,,
24,Вулиця Дністерська,вул. Зелена 131,,
37,Вулиця Дністерська,вул. Зелена 131,,
37,Вулиця Дністерська,вул. Зелена 150,,
43,Вулиця Дністерська,вул. Зелена 131,,
43,Вулиця Дністерська,вул. Зелена 150,,
44,Вулиця Дністерська,вул. Зелена 131,,
44,Вулиця Дністерська,вул. Зелена 150,,
46,Вулиця Дністерська,вул. Зелена 131,,
46,Вулиця Дністерська,вул. Зелена 150,,
5А,Вулиця Дріжджова,вул. Личаківська 281,,
5А,Вулиця Дріжджова,вул. Личаківська (навпроти № 283) ,,
36,Вулиця Дріжджова,вул. Личаківська 281,,
36,Вулиця Дріжджова,вул. Личаківська (навпроти № 283) ,,
40,Вулиця Дріжджова,вул. Личаківська 281,,
40,Вулиця Дріжджова,вул. Личаківська (навпроти № 283) ,,
43,Вулиця Дунайська,вул. Дністерська 17,,
43,Вулиця Дунайська,вул. Дністерська 16А,,
11,Вулиця Естонська,вул. Левандівська 3,,
11,Вулиця Естонська,вул. Левандівська 3,,
17,Вулиця Естонська,вул. Левандівська 3,,
17,Вулиця Естонська,вул. Левандівська 3,,
17,Вулиця Є. Олесницького,вул. Повітряна 20,,
17,Вулиця Є. Олесницького,вул. Повітряна 31,,
2А,Вулиця Є. Патона,вул. Є. Патона 2,,
2А,Вулиця Є. Патона,вул. Є. Патона 31,,
14,Вулиця Є. Патона,вул. Є. Патона 2,,
14,Вулиця Є. Патона,вул. Є. Патона 31,,
21,Вулиця Є. Патона,вул. Є. Патона 2,,
21,Вулиця Є. Патона,вул. Є. Патона 31,,
27,Вулиця Є. Патона,вул. Є. Патона 2,,
27,Вулиця Є. Патона,вул. Є. Патона 31,,
15,Вулиця Є. Ярошинської,"вул. Пасічна (вул. Є. Ярошинської, 2) ",,
19,Вулиця Є. Ярошинської,"вул. Пасічна (вул. Є. Ярошинської, 2) ",,
19,Вулиця Є. Ярошинської,"вул. Пасічна (навпроти вул. Є.Ярошинської, 2) ",,
23,Вулиця Є. Ярошинської,"вул. Пасічна (вул. Є. Ярошинської, 2) ",,
23,Вулиця Є. Ярошинської,"вул. Пасічна (навпроти вул. Є.Ярошинської, 2) ",,
24,Вулиця Є. Ярошинської,"вул. Пасічна (навпроти вул. Є.Ярошинської, 2) ",,
27,Вулиця Є. Ярошинської,"вул. Пасічна (вул. Є. Ярошинської, 2) ",,
27,Вулиця Є. Ярошинської,"вул. Пасічна (навпроти вул. Є.Ярошинської, 2) ",,
40,Вулиця Є. Ярошинської,"вул. Пасічна (вул. Є. Ярошинської, 2) ",,
40,Вулиця Є. Ярошинської,"вул. Пасічна (навпроти вул. Є.Ярошинської, 2) ",,
44,Вулиця Є. Ярошинської,"вул. Пасічна (вул. Є. Ярошинської, 2) ",,
44,Вулиця Є. Ярошинської,"вул. Пасічна (навпроти вул. Є.Ярошинської, 2) ",,
47А,Вулиця Є. Ярошинської,"вул. Пасічна (вул. Є. Ярошинської, 2) ",,
47А,Вулиця Є. Ярошинської,"вул. Пасічна (навпроти вул. Є.Ярошинської, 2) ",,
50,Вулиця Є. Ярошинської,"вул. Пасічна (вул. Є. Ярошинської, 2) ",,
50,Вулиця Є. Ярошинської,"вул. Пасічна (навпроти вул. Є.Ярошинської, 2) ",,
25,Вулиця Заклинських,вул. М. Кордуби  5,,
25,Вулиця Заклинських,вул. М. Кордуби  12,,
1А,Вулиця Замарстинівська,вул. В. Липинського 26,,
1А,Вулиця Замарстинівська,"вул. В. Липинського (вул. Покутська, 1) ",,
7,Вулиця Замарстинівська,просп. В. Чорновола (вул. Волошкова 213) ,,
7,Вулиця Замарстинівська,вул. Замарстинівська  172,,
8,Вулиця Замарстинівська,просп. В. Чорновола (вул. Волошкова 213) ,,
12,Вулиця Замарстинівська,вул. В. Липинського 26,,
12,Вулиця Замарстинівська,"вул. В. Липинського (вул. Покутська, 1) ",,
22,Вулиця Замарстинівська,просп. В. Чорновола (вул. Волошкова 213) ,,
25,Вулиця Замарстинівська,вул. В. Липинського 26,,
25,Вулиця Замарстинівська,"вул. В. Липинського (вул. Покутська, 1) ",,
26,Вулиця Замарстинівська,"вул. В. Липинського (вул. Покутська, 1) ",,
31,Вулиця Замарстинівська,просп. В. Чорновола (вул. Волошкова 213) ,,
31,Вулиця Замарстинівська,вул. Замарстинівська  172,,
34,Вулиця Замарстинівська,вул. В. Липинського 26,,
34,Вулиця Замарстинівська,вул. Замарстинівська  172,,
35,Вулиця Замарстинівська,вул. В. Липинського 26,,
35,Вулиця Замарстинівська,"вул. В. Липинського (вул. Покутська, 1) ",,
39,Вулиця Замарстинівська,"вул. В. Липинського (вул. Покутська, 1) ",,
41,Вулиця Замарстинівська,просп. В. Чорновола (вул. Волошкова 213) ,,
41,Вулиця Замарстинівська,вул. Замарстинівська  172,,
46,Вулиця Замарстинівська,просп. В. Чорновола (вул. Волошкова 213) ,,
46,Вулиця Замарстинівська,вул. Замарстинівська  172,,
51,Вулиця Замарстинівська,просп. В. Чорновола (вул. Волошкова 213) ,,
51,Вулиця Замарстинівська,вул. Замарстинівська  172,,
53,Вулиця Замарстинівська,вул. В. Липинського 26,,
53,Вулиця Замарстинівська,"вул. В. Липинського (вул. Покутська, 1) ",,
14,Вулиця Збиральна,"вул. Збиральна (вул. Городоцька, 300) ",,
7,Вулиця Зернова,вул. Зернова (просп. В. Чорновола 7) ,,
17,Вулиця Зернова,вул. Зернова (просп. В. Чорновола 7) ,,
28,Вулиця Зернова,вул. Зернова (просп. В. Чорновола 7) ,,
41,Вулиця Зернова,вул. Зернова (просп. В. Чорновола 7) ,,
51,Вулиця Зернова,вул. Зернова (просп. В. Чорновола 7) ,,
2А,Вулиця Зоряна,"вул. Любінська (вул. Зоряна, 4) ",,
16,Вулиця Зоряна,"вул. Любінська (вул. Зоряна, 4) ",,
25,Вулиця Зоряна,"вул. Любінська (вул. Зоряна, 4) ",,
33,Вулиця Зоряна,"вул. Любінська (вул. Зоряна, 4) ",,
51,Вулиця Зоряна,"вул. Любінська (вул. Зоряна, 4) ",,
13,Вулиця Зубрівська,вул. Зелена 261,,
13,Вулиця Зубрівська,вул. Зелена 266,,
19,Вулиця Зубрівська,вул. Зелена 261,,
19,Вулиця Зубрівська,вул. Зелена 266,,
23,Вулиця Зубрівська,вул. Зелена 261,,
23,Вулиця Зубрівська,вул. Зелена 266,,
37,Вулиця Зубрівська,вул. Зелена 261,,
37,Вулиця Зубрівська,вул. Зелена 266,,
40,Вулиця Зубрівська,вул. Зелена 261,,
40,Вулиця Зубрівська,вул. Зелена 266,,
46,Вулиця Зубрівська,вул. Зелена 261,,
46,Вулиця Зубрівська,вул. Зелена 266,,
47А,Вулиця Зубрівська,вул. Зелена 261,,
47А,Вулиця Зубрівська,вул. Зелена 266,,
15,Вулиця Йосипа Сліпого,вул. Зелена 54,,
37,Вулиця Йосипа Сліпого,вул. Зелена 54,,
43,Вулиця Йосипа Сліпого,вул. Зелена 54,,
44,Вулиця Йосипа Сліпого,вул. Зелена 54,,
46,Вулиця Йосипа Сліпого,вул. Зелена 54,,
6А,Вулиця І. Біберовича,вул. Т. Шевченка 241,,
6А,Вулиця І. Біберовича,вул. Т. Шевченка 292,,
11,Вулиця І. Біберовича,вул. Т. Шевченка 241,,
11,Вулиця І. Біберовича,вул. Т. Шевченка 292,,
12,Вулиця І. Біберовича,вул. Т. Шевченка 241,,
12,Вулиця І. Біберовича,вул. Т. Шевченка 292,,
30,Вулиця І. Біберовича,вул. Т. Шевченка 241,,
30,Вулиця І. Біберовича,вул. Т. Шевченка 292,,
49,Вулиця І. Біберовича,вул. Т. Шевченка 241,,
49,Вулиця І. Біберовича,вул. Т. Шевченка 292,,
50,Вулиця І. Біберовича,вул. Т. Шевченка 241,,
50,Вулиця І. Біберовича,вул. Т. Шевченка 292,,
6А,Вулиця І. Величковського,вул. І. Величковського 42,,
6А,Вулиця І. Величковського,вул. І. Величковського (навпроти № 40) ,,
11,Вулиця І. Величковського,вул. І. Величковського 42,,
11,Вулиця І. Величковського,вул. І. Величковського (навпроти № 40) ,,
12,Вулиця І. Величковського,вул. І. Величковського 42,,
12,Вулиця І. Величковського,вул. І. Величковського (навпроти № 40) ,,
30,Вулиця І. Величковського,вул. І. Величковського 42,,
30,Вулиця І. Величковського,вул. І. Величковського (навпроти № 40) ,,
49,Вулиця І. Величковського,вул. І. Величковського 42,,
49,Вулиця І. Величковського,вул. І. Величковського (навпроти № 40) ,,
50,Вулиця І. Величковського,вул. І. Величковського 42,,
50,Вулиця І. Величковського,вул. І. Величковського (навпроти № 40) ,,
2А,Вулиця І. Виговського,вул. Любінська 101,,
16,Вулиця І. Виговського,вул. Любінська 101,,
25,Вулиця І. Виговського,вул. Любінська 101,,
48,Вулиця І. Виговського,вул. Любінська 144,,
21,Вулиця І. Горбачевського,вул. Княгині Ольги 1,,
21,Вулиця І. Горбачевського,вул. Княгині Ольги (перехресті з вул. А.Сахарова) ,,
41,Вулиця І. Горбачевського,вул. Генерала Чупринки 55А,,
41,Вулиця І. Горбачевського,вул. Княгині Ольги 1,,
41,Вулиця І. Горбачевського,вул. Княгині Ольги (перехресті з вул. А.Сахарова) ,,
45,Вулиця І. Горбачевського,вул. Княгині Ольги 1,,
45,Вулиця І. Горбачевського,вул. Княгині Ольги (перехресті з вул. А.Сахарова) ,,
48,Вулиця І. Горбачевського,вул. Княгині Ольги 1,,
48,Вулиця І. Горбачевського,вул. Княгині Ольги (перехресті з вул. А.Сахарова) ,,
34,Вулиця І. Лаврівського,вул. Білогорща 57,,
34,Вулиця І. Лаврівського,вул. Білогорща 144,,
5А,Вулиця І. Мечникова - Шевченківський гай,вул. Личаківська 74,,
5А,Вулиця І. Мечникова - Шевченківський Гай,вул. Личаківська 113,,
15,Вулиця І. Мечникова - Шевченківський Гай,вул. Личаківська 113,,
18,Вулиця І. Мечникова - Шевченківський гай,вул. Личаківська 74,,
18,Вулиця І. Мечникова - Шевченківський Гай,вул. Личаківська 113,,
24,Вулиця І. Мечникова - Шевченківський гай,вул. Личаківська 74,,
29,Вулиця І. Мечникова - Шевченківський гай,вул. Личаківська 74,,
29,Вулиця І. Мечникова - Шевченківський Гай,вул. Личаківська 113,,
36,Вулиця І. Мечникова - Шевченківський гай,вул. Личаківська 74,,
36,Вулиця І. Мечникова - Шевченківський Гай,вул. Личаківська 113,,
39,Вулиця І. Мечникова - Шевченківський гай,вул. Личаківська 74,,
39,Вулиця І. Мечникова - Шевченківський Гай,вул. Личаківська 113,,
47А,Вулиця І. Мечникова - Шевченківський гай,вул. Личаківська 74,,
47А,Вулиця І. Мечникова - Шевченківський Гай,вул. Личаківська 113,,
50,Вулиця І. Мечникова - Шевченківський гай,вул. Личаківська 74,,
50,Вулиця І. Мечникова - Шевченківський Гай,вул. Личаківська 113,,
12,Вулиця І. Миколайчука,вул. І. Миколайчука (навпроти № 28) ,,
17,Вулиця І. Миколайчука,вул. І. Миколайчука (навпроти № 28) ,,
19,Вулиця І. Миколайчука,вул. І. Миколайчука (навпроти № 28) ,,
26,Вулиця І. Миколайчука,вул. І. Миколайчука (навпроти № 28) ,,
39,Вулиця І. Миколайчука,вул. В. Липинського (навпроти № 65) ,,
39,Вулиця І. Миколайчука,вул. І. Миколайчука ,,
46,Вулиця І. Миколайчука,вул. І. Миколайчука (навпроти № 28) ,,
7,Вулиця І. Пулюя,вул. Наукова 64А,,
10,Вулиця І. Пулюя,вул. Наукова 64А,,
14,Вулиця І. Пулюя,вул. Наукова 64А,,
23,Вулиця І. Пулюя,вул. Наукова 64А,,
25,Вулиця І. Пулюя,вул. Наукова 64А,,
27,Вулиця І. Пулюя,вул. Наукова 64А,,
32,Вулиця І. Пулюя,вул. Наукова 64А,,
44,Вулиця І. Пулюя,вул. Наукова 64А,,
45,Вулиця І. Пулюя,вул. І. Пулюя  34А,,
45,Вулиця І. Пулюя,вул. Наукова 64А,,
51,Вулиця І. Пулюя,вул. Наукова 64А,,
13,Вулиця Івана Кавалерідзе,вул. І. Кавалерідзе 2,,
13,Вулиця Івана Кавалерідзе,вул. І. Кавалерідзе 9,,
13,Вулиця Івана Кавалерідзе,вул. Сихівська 5,,
14,Вулиця Івана Кавалерідзе,вул. І. Кавалерідзе 2,,
14,Вулиця Івана Кавалерідзе,вул. І. Кавалерідзе 9,,
14,Вулиця Івана Кавалерідзе,вул. Сихівська 20,,
16,Вулиця Івана Кавалерідзе,вул. Сихівська 5,,
16,Вулиця Івана Кавалерідзе,вул. Сихівська 18,,
19,Вулиця Івана Кавалерідзе,вул. Сихівська 5,,
19,Вулиця Івана Кавалерідзе,вул. Сихівська 20,,
23,Вулиця Івана Кавалерідзе,вул. Сихівська 5,,
23,Вулиця Івана Кавалерідзе,вул. Сихівська 20,,
26,Вулиця Івана Кавалерідзе,вул. І. Кавалерідзе 2,,
26,Вулиця Івана Кавалерідзе,вул. І. Кавалерідзе 9,,
26,Вулиця Івана Кавалерідзе,вул. Сихівська 20,,
35,Вулиця Івана Кавалерідзе,вул. І. Кавалерідзе 2,,
35,Вулиця Івана Кавалерідзе,вул. І. Кавалерідзе 9,,
35,Вулиця Івана Кавалерідзе,вул. Сихівська 20,,
37,Вулиця Івана Кавалерідзе,вул. Сихівська 5,,
37,Вулиця Івана Кавалерідзе,вул. Сихівська 20,,
38,Вулиця Івана Кавалерідзе,вул. Сихівська 5,,
38,Вулиця Івана Кавалерідзе,вул. Сихівська 20,,
40,Вулиця Івана Кавалерідзе,вул. Сихівська 5,,
40,Вулиця Івана Кавалерідзе,вул. Сихівська 20,,
41,Вулиця Івана Кавалерідзе,вул. Сихівська 5,,
41,Вулиця Івана Кавалерідзе,вул. Сихівська 20,,
46,Вулиця Івана Кавалерідзе,вул. І. Кавалерідзе 2,,
46,Вулиця Івана Кавалерідзе,вул. І. Кавалерідзе 9,,
46,Вулиця Івана Кавалерідзе,вул. Сихівська 5,,
47А,Вулиця Івана Кавалерідзе,вул. І. Кавалерідзе 9,,
47А,Вулиця Івана Кавалерідзе,вул. Сихівська 5,,
47А,Вулиця Івана Кавалерідзе,вул. Сихівська 20,,
9,Вулиця Івана Рубчака,вул. І. Рубчака 2,,
11,Вулиця Івана Рубчака,вул. І. Рубчака 2,,
9,Вулиця Івана Франка,вул. Івана Франка (с. Муроване) ?,,
9,Вулиця Івана Франка,вул. Івана Франка (с. Муроване) ?,,
35,Вулиця К. Трильовського,вул. К. Трильовського 21,,
35,Вулиця К. Трильовського - Коломийська,вул. К. Трильовського 1,,
35,Вулиця К. Трильовського - Коломийська,вул. К. Трильовського (навпроти № 1) ,,
15,Вулиця Каштанова,вул. Медової Печери 30,,
15,Вулиця Каштанова,вул. Медової Печери 45,,
24,Вулиця Каштанова,вул. Медової Печери 30,,
24,Вулиця Каштанова,вул. Медової Печери 45,,
44,Вулиця Каштанова,вул. Медової Печери 30,,
44,Вулиця Каштанова,вул. Медової Печери 45,,
13,Вулиця Кибальчича,вул. П. Мирного 26,,
13,Вулиця Кибальчича,вул. П. Мирного 37,,
16,Вулиця Кибальчича,вул. П. Мирного 26,,
16,Вулиця Кибальчича,вул. П. Мирного 37,,
27,Вулиця Кибальчича,вул. П. Мирного 26,,
27,Вулиця Кибальчича,вул. П. Мирного 37,,
30,Вулиця Кибальчича,вул. П. Мирного 26,,
30,Вулиця Кибальчича,вул. П. Мирного 37,,
35,Вулиця Кибальчича,вул. П. Мирного 26,,
35,Вулиця Кибальчича,вул. П. Мирного 37,,
41,Вулиця Київська,вул. Генерала Чупринки 27,,
41,Вулиця Київська,вул. Генерала Чупринки 36,,
7,Вулиця Княгині Ольги,вул. Наукова 30,,
10,Вулиця Княгині Ольги,вул. Наукова 30,,
14,Вулиця Княгині Ольги,вул. Наукова 30,,
23,Вулиця Княгині Ольги,вул. Наукова 30,,
25,Вулиця Княгині Ольги,вул. Наукова 30,,
27,Вулиця Княгині Ольги,вул. Наукова 30,,
32,Вулиця Княгині Ольги,вул. Наукова 30,,
38,Вулиця Княгині Ольги,вул. Наукова 30,,
41,Вулиця Княгині Ольги,вул. Наукова 30,,
42,Вулиця Княгині Ольги,вул. Академіка А.Сахарова 17,,
42,Вулиця Княгині Ольги,вул. Академіка А.Сахарова 56,,
45,Вулиця Княгині Ольги,вул. Наукова 30,,
51,Вулиця Княгині Ольги,вул. Наукова 30,,
3А,Вулиця Князя Романа,вул. Князя Романа 26,,
4А,Вулиця Князя Романа,вул. Князя Романа 26,,
53,Вулиця Князя Романа,вул. Князя Романа 26,,
19,Вулиця Ковельська,"вул. Ковельська (вул. Пластова, 2) ",,
19,Вулиця Ковельська,вул. Пластова 4,,
20,Вулиця Ковельська,вул. Ковельська (навпроти № 63) ,,
20,Вулиця Ковельська,вул. Пластова 4,,
13,Вулиця Козельницька,вул. Козельницька 4,,
13,Вулиця Козельницька,вул. П. Мирного 4,,
16,Вулиця Козельницька,вул. Козельницька 4,,
16,Вулиця Козельницька,вул. П. Мирного 4,,
27,Вулиця Козельницька,вул. Козельницька 4,,
27,Вулиця Козельницька,вул. П. Мирного 4,,
30,Вулиця Козельницька,вул. І. Франка 159,,
30,Вулиця Козельницька,вул. П. Мирного 4,,
35,Вулиця Козельницька,вул. Козельницька 4,,
35,Вулиця Козельницька,вул. П. Мирного 4,,
42,Вулиця Козельницька,вул. Луганська ,,
38,Вулиця Колодязна,вул. Зелена 306,,
4А,Вулиця Коломийська,просп. Червоної Калини 97,,
7,Вулиця Коломийська,просп. Червоної Калини 97,,
11,Вулиця Коломийська,просп. Червоної Калини 97,,
13,Вулиця Коломийська,вул. Коломийська 7,,
13,Вулиця Коломийська,просп. Червоної Калини 97,,
14,Вулиця Коломийська,вул. Коломийська 7,,
14,Вулиця Коломийська,просп. Червоної Калини 97,,
19,Вулиця Коломийська,просп. Червоної Калини 97,,
32,Вулиця Коломийська,просп. Червоної Калини 97,,
42,Вулиця Коломийська,просп. Червоної Калини 97,,
46,Вулиця Коломийська,вул. Коломийська 7,,
46,Вулиця Коломийська,просп. Червоної Калини 97,,
47А,Вулиця Коломийська,просп. Червоної Калини 97,,
53,Вулиця Коломийська,просп. Червоної Калини 97,,
13,Вулиця Коломийська - К. Трильовського,вул. Коломийська 9,,
13,Вулиця Коломийська - К. Трильовського,вул. Коломийська (навпроти № 9) ,,
14,Вулиця Коломийська - К. Трильовського,вул. Коломийська 9,,
14,Вулиця Коломийська - К. Трильовського,вул. Коломийська (навпроти № 9) ,,
46,Вулиця Коломийська - К. Трильовського,вул. Коломийська 9,,
46,Вулиця Коломийська - К. Трильовського,вул. Коломийська (навпроти № 9) ,,
47А,Вулиця Коломийська - К. Трильовського,вул. Коломийська (навпроти № 9) ,,
15,Вулиця Коновальця,вул. С. Бандери 53,,
24,Вулиця Коновальця,вул. С. Бандери 26,,
24,Вулиця Коновальця,вул. С. Бандери 53,,
30,Вулиця Коновальця,вул. С. Бандери 26,,
41,Вулиця Коновальця,вул. С. Бандери 26,,
41,Вулиця Коновальця,вул. С. Бандери 53,,
42,Вулиця Коновальця,вул. С. Бандери 26,,
42,Вулиця Коновальця,вул. С. Бандери 53,,
43,Вулиця Коновальця,вул. С. Бандери 26,,
43,Вулиця Коновальця,вул. С. Бандери 53,,
15,Вулиця Кримська,вул. Зелена (навпроти № 109) ,,
24,Вулиця Кримська,вул. Зелена 107,,
37,Вулиця Кримська,вул. Зелена (навпроти № 109) ,,
37,Вулиця Кримська,вул. Зелена 107,,
43,Вулиця Кримська,вул. Зелена (навпроти № 109) ,,
43,Вулиця Кримська,вул. Зелена 107,,
44,Вулиця Кримська,вул. Зелена (навпроти № 109) ,,
44,Вулиця Кримська,вул. Зелена 107,,
46,Вулиця Кримська,вул. Зелена (навпроти № 109) ,,
46,Вулиця Кримська,вул. Зелена 107,,
20,Вулиця Кукурудзяна,вул. Кукурудзяна (перехрестя з вул. Ковельською) ,,
20,Вулиця Кукурудзяна,вул. Кукурудзяна (перехрестя з вул. Ковельською) ,,
7,Вулиця Кульпарківська,вул. Кульпарківська 66,,
9,Вулиця Кульпарківська,вул. Кульпарківська 66,,
10,Вулиця Кульпарківська,вул. Городоцька 128,,
10,Вулиця Кульпарківська,вул. І. Виговського 89,,
10,Вулиця Кульпарківська,вул. І. Виговського (навпроти № 89) ,,
10,Вулиця Кульпарківська,вул. Городоцька 189,,
11,Вулиця Кульпарківська,вул. І. Виговського 89,,
11,Вулиця Кульпарківська,вул. І. Виговського (навпроти № 89) ,,
13,Вулиця Кульпарківська,вул. І. Виговського 89,,
13,Вулиця Кульпарківська,вул. І. Виговського (навпроти № 89) ,,
14,Вулиця Кульпарківська,вул. І. Виговського 89,,
14,Вулиця Кульпарківська,вул. І. Виговського (навпроти № 89) ,,
16,Вулиця Кульпарківська,вул. Городоцька 128,,
16,Вулиця Кульпарківська,вул. І. Виговського 89,,
16,Вулиця Кульпарківська,вул. І. Виговського (навпроти № 89) ,,
16,Вулиця Кульпарківська,вул. Городоцька 189,,
18,Вулиця Кульпарківська,вул. І. Виговського 89,,
18,Вулиця Кульпарківська,вул. І. Виговського (навпроти № 89) ,,
20,Вулиця Кульпарківська,вул. Городоцька 128,,
20,Вулиця Кульпарківська,вул. Городоцька 189,,
21,Вулиця Кульпарківська,вул. І. Виговського 89,,
21,Вулиця Кульпарківська,вул. І. Виговського (навпроти № 89) ,,
23,Вулиця Кульпарківська,вул. І. Виговського 89,,
23,Вулиця Кульпарківська,вул. І. Виговського (навпроти № 89) ,,
25,Вулиця Кульпарківська,вул. І. Виговського 89,,
25,Вулиця Кульпарківська,вул. І. Виговського (навпроти № 89) ,,
27,Вулиця Кульпарківська,вул. І. Виговського 89,,
27,Вулиця Кульпарківська,вул. І. Виговського (навпроти № 89) ,,
28,Вулиця Кульпарківська,вул. Городоцька 128,,
28,Вулиця Кульпарківська,вул. Городоцька 189,,
32,Вулиця Кульпарківська,вул. Городоцька 128,,
32,Вулиця Кульпарківська,вул. І. Виговського 89,,
32,Вулиця Кульпарківська,вул. І. Виговського (навпроти № 89) ,,
32,Вулиця Кульпарківська,вул. Городоцька 189,,
34,Вулиця Кульпарківська,вул. Городоцька 128,,
34,Вулиця Кульпарківська,вул. Городоцька 189,,
38,Вулиця Кульпарківська,вул. Кульпарківська 66,,
43,Вулиця Кульпарківська,вул. Городоцька 128,,
43,Вулиця Кульпарківська,вул. Городоцька 189,,
48,Вулиця Кульпарківська,вул. І. Виговського 89,,
48,Вулиця Кульпарківська,вул. І. Виговського (навпроти № 89) ,,
51,Вулиця Кульпарківська,вул. І. Виговського 89,,
51,Вулиця Кульпарківська,вул. І. Виговського (навпроти № 89) ,,
9,Вулиця Кульпарківська-Городоцька,вул. Кульпарківська 3,,
9,Вулиця Кульпарківська-Городоцька,вул. Любінська 4,,
25,Вулиця Кульпарківська-Городоцька,вул. Кульпарківська 3,,
25,Вулиця Кульпарківська-Городоцька,вул. Любінська 4,,
51,Вулиця Кульпарківська-Городоцька,вул. Кульпарківська 3,,
51,Вулиця Кульпарківська-Городоцька,вул. Любінська 4,,
8,Вулиця Курортна,"вул. Курортна (вул. Львівська, 23) ",,
8,Вулиця Курортна,вул. Львівська 20,,
22,Вулиця Курортна,"вул. Курортна (вул. Львівська, 21) ",,
22,Вулиця Курортна,"вул. Курортна (вул. Львівська, 23) ",,
1А,Вулиця Л. Бетховена,вул. В. Липинського 44,,
1А,Вулиця Л. Бетховена,вул. В. Липинського (навпроти № 36) ,,
12,Вулиця Л. Бетховена,вул. В. Липинського 44,,
12,Вулиця Л. Бетховена,вул. В. Липинського (навпроти № 36) ,,
25,Вулиця Л. Бетховена,вул. В. Липинського 44,,
25,Вулиця Л. Бетховена,вул. В. Липинського (навпроти № 36) ,,
34,Вулиця Л. Бетховена,вул. В. Липинського 44,,
35,Вулиця Л. Бетховена,вул. В. Липинського 44,,
35,Вулиця Л. Бетховена,вул. В. Липинського (навпроти № 36) ,,
53,Вулиця Л. Бетховена,вул. В. Липинського 44,,
53,Вулиця Л. Бетховена,вул. В. Липинського (навпроти № 36) ,,
34,Вулиця Л. Гайовської,вул. Білогорща 50,,
34,Вулиця Л. Гайовської,вул. Білогорща (навпроти № 50) ,,
11,Вулиця Левандівська,вул. Левандівська 1,,
11,Вулиця Левандівська,вул. Левандівська 10,,
17,Вулиця Левандівська,вул. Левандівська 1,,
17,Вулиця Левандівська,вул. Левандівська 10,,
28,Вулиця Лесі Українки,вул. Г. Мазепи (перехрестя з вул. Л.Українки) ,,
28,Вулиця Лесі Українки,вул. Т. Шевченка (перехрестя з вул. Л.Українки) ,,
15,Вулиця Липова Алея,вул. Зелена 130,,
37,Вулиця Липова Алея,вул. Зелена 130,,
43,Вулиця Липова Алея,вул. Зелена 130,,
44,Вулиця Липова Алея,вул. Зелена 130,,
46,Вулиця Липова Алея,вул. Зелена 130,,
15,Вулиця Листопадового Чину,вул. Листопадового Чину 10,,
33,Вулиця Листопадового Чину,вул. Листопадового Чину 10,,
38,Вулиця Листопадового Чину,вул. Листопадового Чину 10,,
13,Вулиця Литвиненка,вул. С. Литвиненка 19,,
16,Вулиця Литвиненка,вул. С. Литвиненка 19,,
26,Вулиця Литвиненка,вул. С. Литвиненка 19,,
27,Вулиця Литвиненка,вул. С. Литвиненка 19,,
30,Вулиця Литвиненка,вул. С. Литвиненка 19,,
35,Вулиця Литвиненка,вул. С. Литвиненка 19,,
13,Вулиця Луганська,вул. Зелена 238,,
13,Вулиця Луганська,вул. Луганська 3,,
13,Вулиця Луганська,вул. Луганська 6,,
19,Вулиця Луганська,вул. Зелена 238,,
23,Вулиця Луганська,вул. Зелена 238,,
37,Вулиця Луганська,вул. Зелена 238,,
40,Вулиця Луганська,вул. Зелена 238,,
46,Вулиця Луганська,вул. Зелена 238,,
47А,Вулиця Луганська,вул. Зелена 238,,
10,Вулиця Любинська,вул. І. Виговського 41,,
11,Вулиця Любинська,вул. І. Виговського 41,,
13,Вулиця Любинська,вул. І. Виговського 41,,
14,Вулиця Любинська,вул. І. Виговського 41,,
16,Вулиця Любинська,вул. І. Виговського 41,,
18,Вулиця Любинська,вул. І. Виговського 41,,
21,Вулиця Любинська,вул. І. Виговського 41,,
23,Вулиця Любинська,вул. І. Виговського 41,,
25,Вулиця Любинська,вул. І. Виговського 41,,
27,Вулиця Любинська,вул. І. Виговського 41,,
32,Вулиця Любинська,вул. І. Виговського 41,,
48,Вулиця Любинська,вул. І. Виговського 41,,
51,Вулиця Любинська,вул. І. Виговського 41,,
10,Вулиця Любінська,"вул. І. Виговського (вул. Чуваська, 12) ",,
11,Вулиця Любінська,"вул. І. Виговського (вул. Чуваська, 12) ",,
13,Вулиця Любінська,"вул. І. Виговського (вул. Чуваська, 12) ",,
14,Вулиця Любінська,"вул. І. Виговського (вул. Чуваська, 12) ",,
16,Вулиця Любінська,"вул. І. Виговського (вул. Чуваська, 12) ",,
18,Вулиця Любінська,"вул. І. Виговського (вул. Чуваська, 12) ",,
21,Вулиця Любінська,"вул. І. Виговського (вул. Чуваська, 12) ",,
23,Вулиця Любінська,"вул. І. Виговського (вул. Чуваська, 12) ",,
25,Вулиця Любінська,"вул. І. Виговського (вул. Чуваська, 12) ",,
27,Вулиця Любінська,"вул. І. Виговського (вул. Чуваська, 12) ",,
32,Вулиця Любінська,"вул. І. Виговського (вул. Чуваська, 12) ",,
48,Вулиця Любінська,"вул. І. Виговського (вул. Чуваська, 12) ",,
21,Вулиця М. Аркаса,вул. Княгині Ольги 11,,
21,Вулиця М. Аркаса,вул. Княгині Ольги 74А,,
41,Вулиця М. Аркаса,вул. Княгині Ольги 11,,
41,Вулиця М. Аркаса,вул. Княгині Ольги 74А,,
45,Вулиця М. Аркаса,вул. Княгині Ольги 11,,
45,Вулиця М. Аркаса,вул. Княгині Ольги 74А,,
48,Вулиця М. Аркаса,вул. Княгині Ольги 11,,
48,Вулиця М. Аркаса,вул. Княгині Ольги 74А,,
21,Вулиця М. Бойчука,вул. Княгині Ольги 55,,
21,Вулиця М. Бойчука,вул. Княгині Ольги 104,,
41,Вулиця М. Бойчука,вул. Княгині Ольги 55,,
41,Вулиця М. Бойчука,вул. Княгині Ольги 104,,
45,Вулиця М. Бойчука,вул. Княгині Ольги 55,,
45,Вулиця М. Бойчука,вул. Княгині Ольги 104,,
48,Вулиця М. Бойчука,вул. Княгині Ольги 55,,
48,Вулиця М. Бойчука,вул. Княгині Ольги 104,,
25,Вулиця М. Кордуби,вул. М. Кордуби  ,,
25,Вулиця М. Кордуби,вул. М. Кордуби  ,,
2А,Вулиця М. Кричевського,вул. Є. Патона 7,,
2А,Вулиця М. Кричевського,вул. Є. Патона 2/2,,
14,Вулиця М. Кричевського,вул. Є. Патона 7,,
14,Вулиця М. Кричевського,вул. Є. Патона 2/2,,
21,Вулиця М. Кричевського,вул. Є. Патона 7,,
21,Вулиця М. Кричевського,вул. Є. Патона 2/2,,
27,Вулиця М. Кричевського,вул. Є. Патона 7,,
27,Вулиця М. Кричевського,вул. Є. Патона 2/2,,
48,Вулиця М. Кричевського,вул. Любінська 160,,
48,Вулиця М. Кричевського,вул. Любінська 171,,
7,Вулиця М. Скрипника,вул. М. Скрипника 39,,
6А,Вулиця М. Стельмаха,вул. Т. Шевченка 384,,
6А,Вулиця М. Стельмаха,вул. Т. Шевченка (навпроти № 384) ,,
11,Вулиця М. Стельмаха,вул. Т. Шевченка 384,,
11,Вулиця М. Стельмаха,вул. Т. Шевченка (навпроти № 384) ,,
12,Вулиця М. Стельмаха,вул. Т. Шевченка 384,,
12,Вулиця М. Стельмаха,вул. Т. Шевченка (навпроти № 384) ,,
30,Вулиця М. Стельмаха,вул. Т. Шевченка 384,,
30,Вулиця М. Стельмаха,вул. Т. Шевченка (навпроти № 384) ,,
49,Вулиця М. Стельмаха,вул. Т. Шевченка 384,,
49,Вулиця М. Стельмаха,вул. Т. Шевченка (навпроти № 384) ,,
50,Вулиця М. Стельмаха,вул. Т. Шевченка 384,,
50,Вулиця М. Стельмаха,вул. Т. Шевченка (навпроти № 384) ,,
2А,Вулиця М. Устияновича,вул. М. Устияновича 5,,
33,Вулиця М. Устияновича,вул. М. Устияновича 5,,
38,Вулиця М. Устияновича,вул. М. Устияновича 5,,
26,Вулиця М. Хвильового,"вул. М. Хвильового (вул. Миколайчука, 65) ",,
15,Вулиця Майорівка,вул. Медової Печери 67,,
24,Вулиця Майорівка,вул. Медової Печери 67,,
44,Вулиця Майорівка,вул. Медової Печери 67,,
2А,Вулиця Максима Залізняка,вул. В. Антоновича 77,,
7,Вулиця Максима Залізняка,вул. В. Антоновича 77,,
33,Вулиця Максима Залізняка,вул. В. Антоновича 77,,
38,Вулиця Максима Залізняка,вул. В. Антоновича 77,,
15,Вулиця Медової Печери,вул. Медової Печери 1,,
15,Вулиця Медової Печери,вул. Пасічна 59,,
19,Вулиця Медової Печери,вул. Пасічна 59,,
19,Вулиця Медової Печери,вул. Пасічна 70,,
20,Вулиця Медової Печери,вул. Пасічна 70,,
23,Вулиця Медової Печери,вул. Пасічна 59,,
23,Вулиця Медової Печери,вул. Пасічна 70,,
24,Вулиця Медової Печери,вул. Медової Печери 1,,
24,Вулиця Медової Печери,вул. Медової Печери (навпроти № 1) ,,
24,Вулиця Медової Печери,вул. Пасічна 70,,
27,Вулиця Медової Печери,вул. Пасічна 59,,
27,Вулиця Медової Печери,вул. Пасічна 70,,
40,Вулиця Медової Печери,вул. Пасічна 59,,
44,Вулиця Медової Печери,вул. Медової Печери 1,,
44,Вулиця Медової Печери,вул. Пасічна 59,,
44,Вулиця Медової Печери,вул. Пасічна 70,,
47А,Вулиця Медової Печери,вул. Пасічна 59,,
47А,Вулиця Медової Печери,вул. Пасічна 70,,
50,Вулиця Медової Печери,вул. Пасічна 59,,
50,Вулиця Медової Печери,вул. Пасічна 70,,
19,Вулиця Милятинська,вул. Ковельська 41,,
19,Вулиця Милятинська,вул. Ковельська 50,,
3А,Вулиця Михайла Максимовича,вул. Стрийська 71,,
3А,Вулиця Михайла Максимовича,вул. Стрийська 264,,
9,Вулиця Михайла Максимовича,вул. М. Максимовича 9,,
9,Вулиця Михайла Максимовича,вул. Стрийська 71,,
9,Вулиця Михайла Максимовича,вул. Стрийська 264,,
10,Вулиця Михайла Максимовича,вул. Стрийська 71,,
10,Вулиця Михайла Максимовича,вул. Стрийська 264,,
25,Вулиця Михайла Максимовича,вул. Стрийська 71,,
25,Вулиця Михайла Максимовича,вул. Стрийська 264,,
40,Вулиця Михайла Максимовича,вул. Стрийська 71,,
40,Вулиця Михайла Максимовича,вул. Стрийська 264,,
28,Вулиця Нагірних,вул. Т. Шевченка 54,,
38,Вулиця Надійна,вул. Зелена 308,,
38,Вулиця Надійна,вул. Зелена 405,,
10,Вулиця Народна,вул. Городоцька 134,,
10,Вулиця Народна,вул. Городоцька 207,,
16,Вулиця Народна,вул. Городоцька 134,,
16,Вулиця Народна,вул. Городоцька 207,,
20,Вулиця Народна,вул. Городоцька 134,,
20,Вулиця Народна,вул. Городоцька 207,,
28,Вулиця Народна,вул. Городоцька 134,,
28,Вулиця Народна,вул. Городоцька 207,,
32,Вулиця Народна,вул. Городоцька 134,,
32,Вулиця Народна,вул. Городоцька 207,,
34,Вулиця Народна,вул. Городоцька 134,,
34,Вулиця Народна,вул. Городоцька 207,,
43,Вулиця Народна,вул. Городоцька 134,,
43,Вулиця Народна,вул. Городоцька 207,,
7,Вулиця Наукова,"вул. Наукова (вул. Кульпарківська, 141) ",,
10,Вулиця Наукова,"вул. Наукова (вул. Кульпарківська, 141) ",,
14,Вулиця Наукова,"вул. Наукова (вул. Кульпарківська, 141) ",,
23,Вулиця Наукова,"вул. Наукова (вул. Кульпарківська, 141) ",,
25,Вулиця Наукова,"вул. Наукова (вул. Кульпарківська, 141) ",,
27,Вулиця Наукова,"вул. Наукова (вул. Кульпарківська, 141) ",,
32,Вулиця Наукова,"вул. Наукова (вул. Кульпарківська, 141) ",,
7,Вулиця Наукова-Стрийська,вул. Наукова (перехрестя з вул. Стрийська) ,,
10,Вулиця Наукова-Стрийська,вул. Наукова (перехрестя з вул. Стрийська) ,,
14,Вулиця Наукова-Стрийська,вул. Наукова (перехрестя з вул. Стрийська) ,,
23,Вулиця Наукова-Стрийська,вул. Наукова (перехрестя з вул. Стрийська) ,,
25,Вулиця Наукова-Стрийська,вул. Наукова (перехрестя з вул. Стрийська) ,,
27,Вулиця Наукова-Стрийська,вул. Наукова (перехрестя з вул. Стрийська) ,,
32,Вулиця Наукова-Стрийська,вул. Наукова (перехрестя з вул. Стрийська) ,,
38,Вулиця Наукова-Стрийська,вул. Наукова (перехрестя з вул. Стрийська) ,,
40,Вулиця Наукова-Стрийська,вул. Наукова (перехрестя з вул. Стрийська) ,,
41,Вулиця Наукова-Стрийська,вул. Наукова (перехрестя з вул. Стрийська) ,,
8,Вулиця Незалежності України,вул. Курортна (перехрестя з вул. Незалежності України) ,,
22,Вулиця Незалежності України,вул. Курортна (перехрестя з вул. Незалежності України) ,,
22,Вулиця Незалежності України,"вул. Незалежності України (вул. В. Івасюка, 1) ",,
22,Вулиця Незалежності України,вул. Незалежності України (перехрестя з вул. Курортна) ,,
13,Вулиця Низинна,вул. Широка 44,,
18,Вулиця Низинна,вул. Широка 44,,
20,Вулиця Низинна,вул. Широка 44,,
23,Вулиця Низинна,вул. Широка 44,,
34,Вулиця Низинна,вул. Широка 44,,
43,Вулиця Низинна,вул. Широка 44,,
9,Вулиця Нова,вул. Нова ?,,
9,Вулиця Нова,вул. Нова ?,,
9,Вулиця Новознесенська,вул. Б. Хмельницького 122,,
9,Вулиця Новознесенська,вул. Б. Хмельницького 173,,
19,Вулиця Новознесенська,"вул. Механічна (вул. Б.Хмельницького, 122) ",,
20,Вулиця Новознесенська,вул. Б. Хмельницького 122,,
20,Вулиця Новознесенська,вул. Б. Хмельницького 173,,
25,Вулиця Новознесенська,вул. Б. Хмельницького 122,,
25,Вулиця Новознесенська,вул. Б. Хмельницького 173,,
35,Вулиця Новознесенська,"вул. Механічна (вул. Б.Хмельницького, 122) ",,
5А,Вулиця О. Бахматюка,вул. Личаківська 259,,
5А,Вулиця О. Бахматюка,вул. Личаківська (навпроти № 261) ,,
36,Вулиця О. Бахматюка,вул. Личаківська 259,,
36,Вулиця О. Бахматюка,вул. Личаківська (навпроти № 261) ,,
40,Вулиця О. Бахматюка,вул. Личаківська 259,,
40,Вулиця О. Бахматюка,вул. Личаківська (навпроти № 261) ,,
10,Вулиця О. Кульчицької,вул. І. Виговського 47,,
10,Вулиця О. Кульчицької,вул. І. Виговського (навпроти № 45А) ,,
11,Вулиця О. Кульчицької,вул. І. Виговського 47,,
11,Вулиця О. Кульчицької,вул. І. Виговського (навпроти № 45А) ,,
13,Вулиця О. Кульчицької,вул. І. Виговського 47,,
13,Вулиця О. Кульчицької,вул. І. Виговського (навпроти № 45А) ,,
14,Вулиця О. Кульчицької,вул. І. Виговського 47,,
14,Вулиця О. Кульчицької,вул. І. Виговського (навпроти № 45А) ,,
16,Вулиця О. Кульчицької,вул. І. Виговського 47,,
16,Вулиця О. Кульчицької,вул. І. Виговського (навпроти № 45А) ,,
18,Вулиця О. Кульчицької,вул. І. Виговського 47,,
18,Вулиця О. Кульчицької,вул. І. Виговського (навпроти № 45А) ,,
21,Вулиця О. Кульчицької,вул. І. Виговського 47,,
21,Вулиця О. Кульчицької,вул. І. Виговського (навпроти № 45А) ,,
23,Вулиця О. Кульчицької,вул. І. Виговського 47,,
23,Вулиця О. Кульчицької,вул. І. Виговського (навпроти № 45А) ,,
25,Вулиця О. Кульчицької,вул. І. Виговського 47,,
25,Вулиця О. Кульчицької,вул. І. Виговського (навпроти № 45А) ,,
27,Вулиця О. Кульчицької,вул. І. Виговського 47,,
27,Вулиця О. Кульчицької,вул. І. Виговського (навпроти № 45А) ,,
32,Вулиця О. Кульчицької,вул. І. Виговського 47,,
32,Вулиця О. Кульчицької,вул. І. Виговського (навпроти № 45А) ,,
48,Вулиця О. Кульчицької,вул. І. Виговського 47,,
48,Вулиця О. Кульчицької,вул. І. Виговського (навпроти № 45А) ,,
51,Вулиця О. Кульчицької,вул. І. Виговського 47,,
6А,Вулиця О. Турянського,вул. Т. Шевченка 53,,
6А,Вулиця О. Турянського,вул. Т. Шевченка 94,,
17,Вулиця О. Турянського,вул. Т. Шевченка 53,,
17,Вулиця О. Турянського,вул. Т. Шевченка 94,,
30,Вулиця О. Турянського,вул. Т. Шевченка 53,,
30,Вулиця О. Турянського,вул. Т. Шевченка 94,,
49,Вулиця О. Турянського,вул. Т. Шевченка 53,,
49,Вулиця О. Турянського,вул. Т. Шевченка 94,,
21,Вулиця О. Шумського,вул. Княгині Ольги 3,,
21,Вулиця О. Шумського,вул. Княгині Ольги 32,,
41,Вулиця О. Шумського,вул. Княгині Ольги 3,,
41,Вулиця О. Шумського,вул. Княгині Ольги 32,,
45,Вулиця О. Шумського,вул. Княгині Ольги 3,,
45,Вулиця О. Шумського,вул. Княгині Ольги 32,,
48,Вулиця О. Шумського,вул. Княгині Ольги 3,,
48,Вулиця О. Шумського,вул. Княгині Ольги 32,,
2А,Вулиця Окружна,вул. Любінська 60,,
2А,Вулиця Окружна,вул. Окружна 56,,
10,Вулиця Окружна,вул. Городоцька (навпроти № 225) ,,
10,Вулиця Окружна,вул. Городоцька 223,,
16,Вулиця Окружна,вул. Городоцька 223,,
16,Вулиця Окружна,вул. Любінська 60,,
25,Вулиця Окружна,вул. Любінська 60,,
25,Вулиця Окружна,вул. Окружна 56,,
28,Вулиця Окружна,вул. Городоцька (навпроти № 225) ,,
28,Вулиця Окружна,вул. Городоцька 223,,
32,Вулиця Окружна,вул. Городоцька (навпроти № 225) ,,
32,Вулиця Окружна,вул. Городоцька 223,,
33,Вулиця Окружна,вул. Любінська 60,,
33,Вулиця Окружна,вул. Окружна 56,,
51,Вулиця Окружна,вул. Любінська 60,,
51,Вулиця Окружна,вул. Окружна 56,,
13,Вулиця Олешківська,"вул. Широка (вул. Доробок, 36А) ",,
18,Вулиця Олешківська,"вул. Широка (вул. Доробок, 36А) ",,
20,Вулиця Олешківська,"вул. Широка (вул. Доробок, 36А) ",,
23,Вулиця Олешківська,"вул. Широка (вул. Доробок, 36А) ",,
34,Вулиця Олешківська,"вул. Широка (вул. Доробок, 36А) ",,
43,Вулиця Олешківська,"вул. Широка (вул. Доробок, 36А) ",,
39,Вулиця П. Ніщинського,вул. П. Ніщинського 25,,
39,Вулиця П. Ніщинського,вул. П. Ніщинського 28,,
26,Вулиця П. Тичини,вул. П. Тичини 14,,
26,Вулиця П. Тичини,вул. П. Тичини 17,,
24,Вулиця П.Саксаганського,"вул. І. Франка (вул. П. Саксаганського, 13) ",,
43,Вулиця П.Саксаганського,"вул. І. Франка (вул. П. Саксаганського, 13) ",,
45,Вулиця П.Саксаганського,"вул. І. Франка (вул. П. Саксаганського, 13) ",,
48,Вулиця П.Саксаганського,"вул. І. Франка (вул. П. Саксаганського, 13) ",,
6А,Вулиця Панаса Сотника,вул. Т. Шевченка 321,,
6А,Вулиця Панаса Сотника,вул. Т. Шевченка (навпроти № 321) ,,
11,Вулиця Панаса Сотника,вул. Т. Шевченка 321,,
11,Вулиця Панаса Сотника,вул. Т. Шевченка (навпроти № 321) ,,
12,Вулиця Панаса Сотника,вул. Т. Шевченка 321,,
12,Вулиця Панаса Сотника,вул. Т. Шевченка (навпроти № 321) ,,
30,Вулиця Панаса Сотника,вул. Т. Шевченка 321,,
30,Вулиця Панаса Сотника,вул. Т. Шевченка (навпроти № 321) ,,
49,Вулиця Панаса Сотника,вул. Т. Шевченка 321,,
49,Вулиця Панаса Сотника,вул. Т. Шевченка (навпроти № 321) ,,
50,Вулиця Панаса Сотника,вул. Т. Шевченка 321,,
50,Вулиця Панаса Сотника,вул. Т. Шевченка (навпроти № 321) ,,
7,Вулиця Пантелеймона Куліша,вул. П. Куліша 45,,
9,Вулиця Пантелеймона Куліша,вул. П. Куліша 45,,
17,Вулиця Пантелеймона Куліша,вул. П. Куліша 45,,
20,Вулиця Пантелеймона Куліша,вул. П. Куліша 45,,
25,Вулиця Пантелеймона Куліша,вул. П. Куліша 45,,
28,Вулиця Пантелеймона Куліша,вул. П. Куліша 45,,
31,Вулиця Пантелеймона Куліша,вул. П. Куліша 45,,
34,Вулиця Пантелеймона Куліша,вул. П. Куліша 45,,
41,Вулиця Пантелеймона Куліша,вул. П. Куліша 45,,
51,Вулиця Пантелеймона Куліша,вул. П. Куліша 45,,
13,Вулиця Пасічна,вул. Зелена 251,,
19,Вулиця Пасічна,вул. Пасічна (навпроти № 11) ,,
19,Вулиця Пасічна,вул. Зелена 251,,
23,Вулиця Пасічна,вул. Пасічна (навпроти № 11) ,,
23,Вулиця Пасічна,вул. Зелена 251,,
24,Вулиця Пасічна,вул. Пасічна (навпроти № 11) ,,
27,Вулиця Пасічна,вул. Пасічна (навпроти № 11) ,,
37,Вулиця Пасічна,вул. Зелена 251,,
40,Вулиця Пасічна,вул. Пасічна (навпроти № 11) ,,
40,Вулиця Пасічна,вул. Зелена 251,,
46,Вулиця Пасічна,вул. Зелена 251,,
47А,Вулиця Пасічна,вул. Пасічна (навпроти № 11) ,,
47А,Вулиця Пасічна,вул. Зелена 251,,
50,Вулиця Пасічна,вул. Пасічна (навпроти № 11) ,,
10,Вулиця Патона,вул. І. Виговського 29,,
11,Вулиця Патона,вул. І. Виговського 29,,
13,Вулиця Патона,вул. І. Виговського 29,,
18,Вулиця Патона,вул. І. Виговського 29,,
23,Вулиця Патона,вул. І. Виговського 29,,
32,Вулиця Патона,вул. І. Виговського 29,,
7,Вулиця Пилипа Орлика,вул. Гетьмана Мазепи 12,,
7,Вулиця Пилипа Орлика,вул. Гетьмана Мазепи 13Б,,
17,Вулиця Пилипа Орлика,вул. Гетьмана Мазепи 12,,
17,Вулиця Пилипа Орлика,вул. Гетьмана Мазепи 13Б,,
31,Вулиця Пилипа Орлика,вул. Гетьмана Мазепи 12,,
31,Вулиця Пилипа Орлика,вул. Гетьмана Мазепи 13Б,,
34,Вулиця Пилипа Орлика,вул. Гетьмана Мазепи 13Б,,
41,Вулиця Пилипа Орлика,вул. Гетьмана Мазепи 12,,
41,Вулиця Пилипа Орлика,вул. Гетьмана Мазепи 13Б,,
46,Вулиця Пилипа Орлика,вул. Гетьмана Мазепи 12,,
46,Вулиця Пилипа Орлика,вул. Гетьмана Мазепи 13Б,,
46,Вулиця Пилипа Орлика,вул. П. Орлика 8,,
51,Вулиця Пилипа Орлика,вул. Гетьмана Мазепи 12,,
51,Вулиця Пилипа Орлика,вул. Гетьмана Мазепи 13Б,,
37,Вулиця Під Голоском,вул. Під Голоском 21,,
37,Вулиця Під Голоском,вул. Під Голоском (навпроти № 25) ,,
9,Вулиця Під Дубом,вул. Під Дубом 1,,
9,Вулиця Під Дубом,вул. Під Дубом 2,,
20,Вулиця Під Дубом,вул. Під Дубом 1,,
20,Вулиця Під Дубом,вул. Під Дубом 2,,
1А,Вулиця Підвальна,вул. Підвальна 2,,
3А,Вулиця Підвальна,вул. Підвальна 2,,
4А,Вулиця Підвальна,вул. Підвальна 2,,
5А,Вулиця Підвальна,вул. Підвальна 2,,
6А,Вулиця Підвальна,вул. Підвальна 2,,
15,Вулиця Підвальна,вул. Підвальна 2,,
26,Вулиця Підвальна,вул. Підвальна 2,,
26,Вулиця Підвальна,вул. Підвальна 13,,
29,Вулиця Підвальна,вул. Підвальна 2,,
29,Вулиця Підвальна,вул. Підвальна 13,,
30,Вулиця Підвальна,вул. Підвальна 13,,
35,Вулиця Підвальна,вул. Підвальна 2,,
35,Вулиця Підвальна,вул. Підвальна 13,,
36,Вулиця Підвальна,вул. Підвальна 2,,
36,Вулиця Підвальна,вул. Підвальна 13,,
37,Вулиця Підвальна,вул. Підвальна 2,,
37,Вулиця Підвальна,вул. Підвальна 13,,
39,Вулиця Підвальна,вул. Підвальна 2,,
39,Вулиця Підвальна,вул. Підвальна 13,,
46,Вулиця Підвальна,вул. Підвальна 2,,
46,Вулиця Підвальна,вул. Підвальна 13,,
47А,Вулиця Підвальна,вул. Підвальна 2,,
50,Вулиця Підвальна,вул. Підвальна 2,,
50,Вулиця Підвальна,вул. Підвальна 13,,
53,Вулиця Підвальна,вул. Підвальна 2,,
17,Вулиця Пілотів,вул. Повітряна 65,,
17,Вулиця Пілотів,вул. Повітряна 66,,
7,Вулиця Плугова,вул. Гетьмана Мазепи 27,,
7,Вулиця Плугова,вул. Гетьмана Мазепи 32,,
12,Вулиця Плугова,вул. Гетьмана Мазепи 27,,
12,Вулиця Плугова,вул. Гетьмана Мазепи 32,,
19,Вулиця Плугова,вул. Гетьмана Мазепи 27,,
19,Вулиця Плугова,вул. Гетьмана Мазепи 32,,
31,Вулиця Плугова,вул. Гетьмана Мазепи 27,,
31,Вулиця Плугова,вул. Гетьмана Мазепи 32,,
34,Вулиця Плугова,вул. Гетьмана Мазепи 27,,
41,Вулиця Плугова,вул. Гетьмана Мазепи 27,,
41,Вулиця Плугова,вул. Гетьмана Мазепи 32,,
51,Вулиця Плугова,вул. Гетьмана Мазепи 27,,
51,Вулиця Плугова,вул. Гетьмана Мазепи 32,,
8,Вулиця Пляжна,вул. Курортна 20,,
8,Вулиця Пляжна,вул. Курортна (перехрестя з вул. Пляжна) ,,
22,Вулиця Пляжна,вул. Курортна 20,,
22,Вулиця Пляжна,вул. Курортна (перехрестя з вул. Пляжна) ,,
20,Вулиця Польова,вул. Польова 42,,
35,Вулиця Польова,вул. Польова 42,,
6А,Вулиця Порічкова,вул. Т. Шевченка 277,,
6А,Вулиця Порічкова,вул. Т. Шевченка 318,,
11,Вулиця Порічкова,вул. Т. Шевченка 277,,
11,Вулиця Порічкова,вул. Т. Шевченка 318,,
12,Вулиця Порічкова,вул. Т. Шевченка 277,,
12,Вулиця Порічкова,вул. Т. Шевченка 318,,
30,Вулиця Порічкова,вул. Т. Шевченка 277,,
30,Вулиця Порічкова,вул. Т. Шевченка 318,,
49,Вулиця Порічкова,вул. Т. Шевченка 277,,
49,Вулиця Порічкова,вул. Т. Шевченка 318,,
50,Вулиця Порічкова,вул. Т. Шевченка 277,,
50,Вулиця Порічкова,вул. Т. Шевченка 318,,
9,Вулиця Промислова,вул. Б. Хмельницького 106,,
20,Вулиця Промислова,вул. Б. Хмельницького 106,,
25,Вулиця Промислова,"вул. Опришківська (вул. Б.Хмельницького, 102) ",,
25,Вулиця Промислова,вул. Б. Хмельницького 106,,
7,Вулиця Рахівська,просп. Червоної Калини 22,,
11,Вулиця Рахівська,просп. Червоної Калини 22,,
14,Вулиця Рахівська,просп. Червоної Калини 22,,
23,Вулиця Рахівська,просп. Червоної Калини 22,,
32,Вулиця Рахівська,просп. Червоної Калини 22,,
38,Вулиця Рахівська,просп. Червоної Калини 22,,
40,Вулиця Рахівська,просп. Червоної Калини 22,,
41,Вулиця Рахівська,просп. Червоної Калини 22,,
34,Вулиця Роксоляни,"вул. Роксоляни (вул. Широка, 94) ",,
34,Вулиця Роксоляни,вул. Роксоляни (перехрестя з вул. Білогорща) ,,
15,Вулиця Русових,вул. С. Бандери 73,,
24,Вулиця Русових,вул. С. Бандери 73,,
41,Вулиця Русових,вул. С. Бандери 73,,
42,Вулиця Русових,вул. С. Бандери 73,,
43,Вулиця Русових,вул. С. Бандери 73,,
2А,Вулиця Ряшівська,вул. Ряшівська 1,,
2А,Вулиця Ряшівська,"вул. Ряшівська (Городоцька, 309) ",,
14,Вулиця Ряшівська,вул. Ряшівська 1,,
14,Вулиця Ряшівська,"вул. Ряшівська (Городоцька, 309) ",,
21,Вулиця Ряшівська,вул. Ряшівська 1,,
21,Вулиця Ряшівська,"вул. Ряшівська (Городоцька, 309) ",,
27,Вулиця Ряшівська,вул. Ряшівська 1,,
27,Вулиця Ряшівська,"вул. Ряшівська (Городоцька, 309) ",,
19,Вулиця С. Гайдучка,вул. Богданівська (навпроти № 100) ,,
19,Вулиця С. Гайдучка,вул. Богданівська (перехрестя з вул. С.Гайдучка) ,,
39,Вулиця С. Гайдучка,вул. Богданівська (навпроти № 100) ,,
39,Вулиця С. Гайдучка,вул. Богданівська (перехрестя з вул. С.Гайдучка) ,,
13,Вулиця С. Литвиненка,вул. Угорська 14,,
16,Вулиця С. Литвиненка,вул. Угорська 14,,
26,Вулиця С. Литвиненка,"вул. В. Стуса (вул. Д. Карбишева, 8) ",,
26,Вулиця С. Литвиненка,вул. Угорська 14,,
27,Вулиця С. Литвиненка,вул. Угорська 14,,
30,Вулиця С. Литвиненка,"вул. В. Стуса (вул. Д. Карбишева, 8) ",,
35,Вулиця С. Литвиненка,вул. Угорська 14,,
2А,Вулиця С. Смаль-Стоцького,вул. Героїв УПА 76,,
7,Вулиця С. Смаль-Стоцького,вул. Героїв УПА 76,,
33,Вулиця С. Смаль-Стоцького,вул. Героїв УПА 76,,
38,Вулиця С. Смаль-Стоцького,вул. Героїв УПА 76,,
33,Вулиця Садова,вул. С. Петлюри 2,,
51,Вулиця Садова,вул. С. Петлюри 2,,
6А,Вулиця Северина Наливайка,вул. Городоцька 27,,
7,Вулиця Северина Наливайка,вул. Городоцька 27,,
9,Вулиця Северина Наливайка,вул. Городоцька 27,,
17,Вулиця Северина Наливайка,вул. Городоцька 27,,
20,Вулиця Северина Наливайка,вул. Городоцька 27,,
25,Вулиця Северина Наливайка,вул. Городоцька 27,,
28,Вулиця Северина Наливайка,вул. Городоцька 27,,
29,Вулиця Северина Наливайка,вул. Городоцька 27,,
30,Вулиця Северина Наливайка,вул. Городоцька 27,,
31,Вулиця Северина Наливайка,вул. Городоцька 27,,
34,Вулиця Северина Наливайка,вул. Городоцька 27,,
36,Вулиця Северина Наливайка,вул. Городоцька 27,,
41,Вулиця Северина Наливайка,вул. Городоцька 27,,
51,Вулиця Северина Наливайка,вул. Городоцька 27,,
33,Вулиця Симона Петлюри,вул. С. Петлюри 30,,
33,Вулиця Симона Петлюри,вул. С. Петлюри 37,,
51,Вулиця Симона Петлюри,вул. С. Петлюри 30,,
51,Вулиця Симона Петлюри,вул. С. Петлюри 37,,
13,Вулиця Сихівська,вул. Зелена 278,,
13,Вулиця Сихівська,вул. Зелена 309,,
19,Вулиця Сихівська,вул. Зелена 278,,
19,Вулиця Сихівська,вул. Зелена 309,,
23,Вулиця Сихівська,вул. Зелена 278,,
23,Вулиця Сихівська,вул. Зелена 309,,
37,Вулиця Сихівська,вул. Зелена 278,,
37,Вулиця Сихівська,вул. Зелена 309,,
38,Вулиця Сихівська,вул. Зелена 278,,
38,Вулиця Сихівська,вул. Зелена 309,,
38,Вулиця Сихівська,вул. Зелена (навпроти № 309) ,,
40,Вулиця Сихівська,вул. Зелена 278,,
40,Вулиця Сихівська,вул. Зелена 309,,
46,Вулиця Сихівська,вул. Зелена 278,,
46,Вулиця Сихівська,вул. Зелена 309,,
47А,Вулиця Сихівська,вул. Зелена 278,,
47А,Вулиця Сихівська,вул. Зелена 309,,
33,Вулиця Січових Стрільців,вул. Січових Стрільців 17,,
38,Вулиця Січових Стрільців,вул. Січових Стрільців 17,,
3А,Вулиця Сокільницька,вул. Стрийська 197,,
3А,Вулиця Сокільницька,вул. Стрийська 338,,
10,Вулиця Сокільницька,вул. Стрийська 197,,
10,Вулиця Сокільницька,вул. Стрийська 338,,
25,Вулиця Сокільницька,вул. Стрийська 197,,
25,Вулиця Сокільницька,вул. Стрийська 338,,
40,Вулиця Сокільницька,вул. Стрийська 197,,
40,Вулиця Сокільницька,вул. Стрийська 338,,
14,Вулиця Станційна,вул. Городоцька 282,,
14,Вулиця Станційна,вул. Городоцька 355,,
21,Вулиця Станційна,вул. Городоцька 282,,
21,Вулиця Станційна,вул. Городоцька 355,,
28,Вулиця Станційна,вул. Городоцька 282,,
28,Вулиця Станційна,вул. Городоцька 355,,
19,Вулиця Старознесенська,"вул. Богданівська (вул. Старознесенська, 161) ",,
19,Вулиця Старознесенська,"вул. Богданівська (вул. Старознесенська, 192) ",,
39,Вулиця Старознесенська,"вул. Богданівська (вул. Старознесенська, 161) ",,
39,Вулиця Старознесенська,"вул. Богданівська (вул. Старознесенська, 192) ",,
2А,Вулиця Степана Бандери,вул. Мітрополіта Андрея ,,
2А,Вулиця Степана Бандери,вул. В. Антоновича 7,,
7,Вулиця Степана Бандери,вул. В. Антоновича 7,,
33,Вулиця Степана Бандери,вул. Мітрополіта Андрея ,,
33,Вулиця Степана Бандери,вул. В. Антоновича 7,,
38,Вулиця Степана Бандери,вул. Мітрополіта Андрея ,,
38,Вулиця Степана Бандери,вул. В. Антоновича 7,,
3А,Вулиця Стрийська - Наукова,вул. Стрийська ,,
9,Вулиця Стрийська - Наукова,вул. Стрийська ,,
10,Вулиця Стрийська - Наукова,вул. Стрийська ,,
25,Вулиця Стрийська - Наукова,вул. Стрийська ,,
40,Вулиця Стрийська - Наукова,вул. Стрийська ,,
3А,Вулиця Стрийська - Хуторівка,вул. Стрийська ,,
9,Вулиця Стрийська - Хуторівка,вул. Стрийська ,,
11,Вулиця Стрийська - Хуторівка,вул. Стрийська ,,
27,Вулиця Стрийська - Хуторівка,вул. Стрийська ,,
12,Вулиця Струмок,вул. Варшавська 44,,
12,Вулиця Струмок,"вул. Варшавська (вул. Алчевської, 2) ",,
28,Вулиця Струмок,вул. Варшавська 44,,
13,Вулиця Суботівська,вул. Суботівська 13,,
20,Вулиця Суботівська,вул. Суботівська 13,,
23,Вулиця Суботівська,вул. Суботівська 13,,
43,Вулиця Суботівська,вул. Суботівська 13,,
11,Вулиця Сяйво,вул. Сяйво  10,,
11,Вулиця Сяйво,вул. Сяйво  23,,
12,Вулиця Сяйво,вул. Сяйво  10,,
12,Вулиця Сяйво,вул. Сяйво  23,,
13,Вулиця Сяйво,вул. Сяйво  10,,
13,Вулиця Сяйво,вул. Сяйво  23,,
18,Вулиця Сяйво,вул. Сяйво  10,,
18,Вулиця Сяйво,вул. Сяйво  23,,
20,Вулиця Сяйво,вул. Сяйво  10,,
20,Вулиця Сяйво,вул. Сяйво  23,,
23,Вулиця Сяйво,вул. Сяйво  10,,
23,Вулиця Сяйво,вул. Сяйво  23,,
34,Вулиця Сяйво,вул. Сяйво  10,,
34,Вулиця Сяйво,вул. Сяйво  23,,
43,Вулиця Сяйво,вул. Сяйво  10,,
43,Вулиця Сяйво,вул. Сяйво  23,,
2А,Вулиця Т. Копистинського,вул. Героїв УПА 80,,
7,Вулиця Т. Копистинського,вул. Героїв УПА 80,,
33,Вулиця Т. Копистинського,вул. Героїв УПА 80,,
38,Вулиця Т. Копистинського,вул. Героїв УПА 80,,
12,Вулиця Т. Окуневського,вул. В. Липинського 5,,
28,Вулиця Т. Окуневського,вул. В. Липинського 5,,
6А,Вулиця Т. Шевченка,вул. Т. Шевченка 209,,
6А,Вулиця Т. Шевченка,вул. Т. Шевченка 264,,
11,Вулиця Т. Шевченка,вул. Т. Шевченка 209,,
11,Вулиця Т. Шевченка,вул. Т. Шевченка 264,,
12,Вулиця Т. Шевченка,вул. Т. Шевченка 209,,
12,Вулиця Т. Шевченка,вул. Т. Шевченка 264,,
30,Вулиця Т. Шевченка,вул. Т. Шевченка 209,,
30,Вулиця Т. Шевченка,вул. Т. Шевченка 264,,
49,Вулиця Т. Шевченка,вул. Т. Шевченка 209,,
49,Вулиця Т. Шевченка,вул. Т. Шевченка 264,,
50,Вулиця Т. Шевченка,вул. Т. Шевченка 209,,
50,Вулиця Т. Шевченка,вул. Т. Шевченка 264,,
15,Вулиця Таджицька,вул. Пасічна 39,,
19,Вулиця Таджицька,вул. Пасічна 39,,
19,Вулиця Таджицька,вул. Пасічна 42,,
23,Вулиця Таджицька,вул. Пасічна 39,,
23,Вулиця Таджицька,вул. Пасічна 42,,
24,Вулиця Таджицька,вул. Пасічна 42,,
27,Вулиця Таджицька,вул. Пасічна 39,,
27,Вулиця Таджицька,вул. Пасічна 42,,
40,Вулиця Таджицька,вул. Пасічна 39,,
40,Вулиця Таджицька,вул. Пасічна 42,,
47А,Вулиця Таджицька,вул. Пасічна 39,,
47А,Вулиця Таджицька,вул. Пасічна 42,,
50,Вулиця Таджицька,вул. Пасічна 39,,
50,Вулиця Таджицька,вул. Пасічна 42,,
12,Вулиця Татарбунарська,вул. Винниця ?,,
12,Вулиця Татарбунарська,"вул. Винниця (вул. Т. Шевченка, 154) ",,
50,Вулиця Татарбунарська,вул. Винниця ?,,
50,Вулиця Татарбунарська,"вул. Винниця (вул. Т. Шевченка, 154) ",,
1А,Вулиця Театральна,площа Князя Ярослава Осмомисла ,,
3А,Вулиця Театральна,площа Князя Ярослава Осмомисла ,,
4А,Вулиця Театральна,площа Князя Ярослава Осмомисла ,,
5А,Вулиця Театральна,площа Князя Ярослава Осмомисла ,,
6А,Вулиця Театральна,площа Князя Ярослава Осмомисла ,,
15,Вулиця Театральна,площа Князя Ярослава Осмомисла ,,
26,Вулиця Театральна,площа Князя Ярослава Осмомисла ,,
29,Вулиця Театральна,площа Князя Ярослава Осмомисла ,,
35,Вулиця Театральна,площа Князя Ярослава Осмомисла ,,
36,Вулиця Театральна,площа Князя Ярослава Осмомисла ,,
37,Вулиця Театральна,площа Князя Ярослава Осмомисла ,,
39,Вулиця Театральна,площа Князя Ярослава Осмомисла ,,
46,Вулиця Театральна,площа Князя Ярослава Осмомисла ,,
47А,Вулиця Театральна,площа Князя Ярослава Осмомисла ,,
50,Вулиця Театральна,площа Князя Ярослава Осмомисла ,,
53,Вулиця Театральна,площа Князя Ярослава Осмомисла ,,
26,Вулиця Тернопільська,вул. В. Стуса (перехрестя з вул. Тернопільською) ,,
30,Вулиця Тернопільська,вул. В. Стуса (перехрестя з вул. Тернопільською) ,,
7,Вулиця Торф'яна,просп. В. Чорновола 67,,
7,Вулиця Торф'яна,просп. В. Чорновола (напроти № 93) ,,
8,Вулиця Торф'яна,просп. В. Чорновола 67,,
8,Вулиця Торф'яна,просп. В. Чорновола (напроти № 93) ,,
17,Вулиця Торф'яна,просп. В. Чорновола 67,,
17,Вулиця Торф'яна,просп. В. Чорновола (напроти № 93) ,,
22,Вулиця Торф'яна,просп. В. Чорновола 67,,
22,Вулиця Торф'яна,просп. В. Чорновола (напроти № 93) ,,
26,Вулиця Торф'яна,вул. Замарстинівська  122,,
26,Вулиця Торф'яна,вул. Замарстинівська  132,,
28,Вулиця Торф'яна,просп. В. Чорновола 67,,
31,Вулиця Торф'яна,просп. В. Чорновола 67,,
31,Вулиця Торф'яна,просп. В. Чорновола (напроти № 93) ,,
34,Вулиця Торф'яна,просп. В. Чорновола 67,,
37,Вулиця Торф'яна,просп. В. Чорновола 67,,
37,Вулиця Торф'яна,просп. В. Чорновола (напроти № 93) ,,
39,Вулиця Торф'яна,вул. Замарстинівська  122,,
39,Вулиця Торф'яна,вул. Замарстинівська  132,,
41,Вулиця Торф'яна,просп. В. Чорновола 67,,
41,Вулиця Торф'яна,просп. В. Чорновола (напроти № 93) ,,
46,Вулиця Торф'яна,просп. В. Чорновола 67,,
46,Вулиця Торф'яна,просп. В. Чорновола (напроти № 93) ,,
50,Вулиця Торф'яна,просп. В. Чорновола 67,,
50,Вулиця Торф'яна,просп. В. Чорновола (напроти № 93) ,,
51,Вулиця Торф'яна,просп. В. Чорновола 67,,
51,Вулиця Торф'яна,просп. В. Чорновола (напроти № 93) ,,
7,Вулиця Тролейбусна,вул. Наукова 5,,
7,Вулиця Тролейбусна,вул. Наукова 12,,
9,Вулиця Тролейбусна,вул. Тролейбусна 1,,
10,Вулиця Тролейбусна,вул. Наукова 5,,
10,Вулиця Тролейбусна,вул. Наукова 12,,
11,Вулиця Тролейбусна,вул. Тролейбусна 1,,
14,Вулиця Тролейбусна,вул. Наукова 5,,
14,Вулиця Тролейбусна,вул. Наукова 12,,
23,Вулиця Тролейбусна,вул. Наукова 5,,
23,Вулиця Тролейбусна,вул. Наукова 12,,
25,Вулиця Тролейбусна,вул. Наукова 5,,
25,Вулиця Тролейбусна,вул. Наукова 12,,
27,Вулиця Тролейбусна,вул. Наукова 5,,
27,Вулиця Тролейбусна,вул. Наукова 12,,
32,Вулиця Тролейбусна,вул. Наукова 5,,
32,Вулиця Тролейбусна,вул. Наукова 12,,
38,Вулиця Тролейбусна,вул. Наукова 5,,
38,Вулиця Тролейбусна,вул. Наукова 12,,
41,Вулиця Тролейбусна,вул. Наукова 5,,
41,Вулиця Тролейбусна,вул. Наукова 12,,
5А,Вулиця У. Кармелюка - Медичний університет,вул. Личаківська 52,,
5А,Вулиця У. Кармелюка - Медичний університет,вул. Личаківська 67,,
15,Вулиця У. Кармелюка - Медичний університет,вул. Личаківська 67,,
18,Вулиця У. Кармелюка - Медичний університет,вул. Личаківська 52,,
18,Вулиця У. Кармелюка - Медичний університет,вул. Личаківська 67,,
24,Вулиця У. Кармелюка - Медичний університет,вул. Личаківська 52,,
29,Вулиця У. Кармелюка - Медичний університет,вул. Личаківська 52,,
29,Вулиця У. Кармелюка - Медичний університет,вул. Личаківська 67,,
36,Вулиця У. Кармелюка - Медичний університет,вул. Личаківська 52,,
36,Вулиця У. Кармелюка - Медичний університет,вул. Личаківська 67,,
39,Вулиця У. Кармелюка - Медичний університет,вул. Личаківська 52,,
39,Вулиця У. Кармелюка - Медичний університет,вул. Личаківська 67,,
47А,Вулиця У. Кармелюка - Медичний університет,вул. Личаківська 52,,
47А,Вулиця У. Кармелюка - Медичний університет,вул. Личаківська 67,,
50,Вулиця У. Кармелюка - Медичний університет,вул. Личаківська 52,,
50,Вулиця У. Кармелюка - Медичний університет,вул. Личаківська 67,,
4А,Вулиця Угорська,просп. Червоної Калини 1,,
4А,Вулиця Угорська,"просп. Червоної Калини (вул. Угорська, 27) ",,
13,Вулиця Угорська,вул. Угорська 27,,
16,Вулиця Угорська,вул. Угорська 27,,
26,Вулиця Угорська,вул. Угорська 27,,
27,Вулиця Угорська,вул. Угорська 27,,
35,Вулиця Угорська,вул. Угорська 27,,
53,Вулиця Угорська,просп. Червоної Калини 1,,
53,Вулиця Угорська,"просп. Червоної Калини (вул. Угорська, 27) ",,
3А,Вулиця Ф. Скорини,вул. Стрийська 57,,
3А,Вулиця Ф. Скорини,вул. Стрийська 202,,
9,Вулиця Ф. Скорини,вул. Стрийська 57,,
9,Вулиця Ф. Скорини,вул. Стрийська 202,,
10,Вулиця Ф. Скорини,вул. Стрийська 57,,
10,Вулиця Ф. Скорини,вул. Стрийська 202,,
25,Вулиця Ф. Скорини,вул. Стрийська 57,,
25,Вулиця Ф. Скорини,вул. Стрийська 202,,
40,Вулиця Ф. Скорини,вул. Стрийська 57,,
40,Вулиця Ф. Скорини,вул. Стрийська 202,,
1А,Вулиця Хімічна,просп. В. Чорновола 43,,
1А,Вулиця Хімічна,просп. В. Чорновола (вул. Хімічна 22) ,,
7,Вулиця Хімічна,просп. В. Чорновола 43,,
7,Вулиця Хімічна,просп. В. Чорновола (вул. Хімічна 22) ,,
8,Вулиця Хімічна,просп. В. Чорновола 43,,
8,Вулиця Хімічна,просп. В. Чорновола (вул. Хімічна 22) ,,
17,Вулиця Хімічна,просп. В. Чорновола 43,,
17,Вулиця Хімічна,просп. В. Чорновола (вул. Хімічна 22) ,,
22,Вулиця Хімічна,просп. В. Чорновола 43,,
22,Вулиця Хімічна,просп. В. Чорновола (вул. Хімічна 22) ,,
25,Вулиця Хімічна,просп. В. Чорновола 43,,
25,Вулиця Хімічна,просп. В. Чорновола (вул. Хімічна 22) ,,
26,Вулиця Хімічна,просп. В. Чорновола 43,,
26,Вулиця Хімічна,просп. В. Чорновола (вул. Хімічна 22) ,,
28,Вулиця Хімічна,просп. В. Чорновола 43,,
28,Вулиця Хімічна,просп. В. Чорновола (вул. Хімічна 22) ,,
31,Вулиця Хімічна,просп. В. Чорновола 43,,
31,Вулиця Хімічна,просп. В. Чорновола (вул. Хімічна 22) ,,
34,Вулиця Хімічна,просп. В. Чорновола 43,,
34,Вулиця Хімічна,просп. В. Чорновола (вул. Хімічна 22) ,,
35,Вулиця Хімічна,просп. В. Чорновола 43,,
35,Вулиця Хімічна,просп. В. Чорновола (вул. Хімічна 22) ,,
37,Вулиця Хімічна,просп. В. Чорновола 43,,
37,Вулиця Хімічна,просп. В. Чорновола (вул. Хімічна 22) ,,
39,Вулиця Хімічна,просп. В. Чорновола 43,,
39,Вулиця Хімічна,просп. В. Чорновола (вул. Хімічна 22) ,,
41,Вулиця Хімічна,просп. В. Чорновола 43,,
41,Вулиця Хімічна,просп. В. Чорновола (вул. Хімічна 22) ,,
46,Вулиця Хімічна,просп. В. Чорновола 43,,
46,Вулиця Хімічна,просп. В. Чорновола (вул. Хімічна 22) ,,
50,Вулиця Хімічна,просп. В. Чорновола 43,,
50,Вулиця Хімічна,просп. В. Чорновола (вул. Хімічна 22) ,,
51,Вулиця Хімічна,просп. В. Чорновола 43,,
51,Вулиця Хімічна,просп. В. Чорновола (вул. Хімічна 22) ,,
53,Вулиця Хімічна,просп. В. Чорновола 43,,
53,Вулиця Хімічна,просп. В. Чорновола (вул. Хімічна 22) ,,
7,Вулиця Хуторівка-Стрийська,"вул. Хуторівка (вул. Стрийська, 47) ",,
11,Вулиця Хуторівка-Стрийська,"вул. Хуторівка (вул. Стрийська, 47) ",,
14,Вулиця Хуторівка-Стрийська,"вул. Хуторівка (вул. Стрийська, 47) ",,
23,Вулиця Хуторівка-Стрийська,"вул. Хуторівка (вул. Стрийська, 47) ",,
32,Вулиця Хуторівка-Стрийська,"вул. Хуторівка (вул. Стрийська, 47) ",,
38,Вулиця Хуторівка-Стрийська,"вул. Хуторівка (вул. Стрийська, 47) ",,
40,Вулиця Хуторівка-Стрийська,"вул. Хуторівка (вул. Стрийська, 47) ",,
41,Вулиця Хуторівка-Стрийська,"вул. Хуторівка (вул. Стрийська, 47) ",,
7,Вулиця Чигиринська,вул. Б. Грінченка 2А,,
7,Вулиця Чигиринська,"вул. Б. Грінченка (вул. Б.Хмельницького, 255) ",,
12,Вулиця Чигиринська,вул. Б. Грінченка 2А,,
12,Вулиця Чигиринська,"вул. Б. Грінченка (вул. Б.Хмельницького, 255) ",,
19,Вулиця Чигиринська,вул. Б. Грінченка 2А,,
19,Вулиця Чигиринська,"вул. Б. Грінченка (вул. Б.Хмельницького, 255) ",,
31,Вулиця Чигиринська,вул. Б. Грінченка 2А,,
31,Вулиця Чигиринська,"вул. Б. Грінченка (вул. Б.Хмельницького, 255) ",,
34,Вулиця Чигиринська,вул. Б. Грінченка 2А,,
39,Вулиця Чигиринська,вул. Б. Грінченка 2А,,
39,Вулиця Чигиринська,"вул. Б. Грінченка (вул. Б.Хмельницького, 255) ",,
41,Вулиця Чигиринська,вул. Б. Грінченка 2А,,
41,Вулиця Чигиринська,"вул. Б. Грінченка (вул. Б.Хмельницького, 255) ",,
51,Вулиця Чигиринська,вул. Б. Грінченка 2А,,
51,Вулиця Чигиринська,"вул. Б. Грінченка (вул. Б.Хмельницького, 255) ",,
11,Вулиця Широка,вул. Левандівська 25,,
11,Вулиця Широка,вул. Сяйво  91,,
12,Вулиця Широка,вул. Сяйво  91,,
13,Вулиця Широка,вул. Сяйво  91,,
13,Вулиця Широка,"вул. Широка (вул. Сяйво, 99) ",,
18,Вулиця Широка,вул. Сяйво  91,,
18,Вулиця Широка,"вул. Широка (вул. Сяйво, 99) ",,
20,Вулиця Широка,вул. Сяйво  91,,
20,Вулиця Широка,"вул. Широка (вул. Сяйво, 99) ",,
23,Вулиця Широка,вул. Сяйво  91,,
23,Вулиця Широка,"вул. Широка (вул. Сяйво, 99) ",,
34,Вулиця Широка,вул. Сяйво  91,,
34,Вулиця Широка,"вул. Широка (вул. Сяйво, 99) ",,
43,Вулиця Широка,вул. Сяйво  91,,
43,Вулиця Широка,"вул. Широка (вул. Сяйво, 99) ",,
3А,Вулиця Шота Руставелі,вул. Шота Руставелі 2,,
3А,Вулиця Шота Руставелі,вул. Шота Руставелі (навпроти № 4) ,,
4А,Вулиця Шота Руставелі,вул. Шота Руставелі 2,,
4А,Вулиця Шота Руставелі,вул. Шота Руставелі (навпроти № 4) ,,
15,Вулиця Шота Руставелі,вул. Зелена 8,,
18,Вулиця Шота Руставелі,вул. Шота Руставелі 2,,
18,Вулиця Шота Руставелі,вул. Шота Руставелі (навпроти № 4) ,,
24,Вулиця Шота Руставелі,вул. Зелена 9,,
26,Вулиця Шота Руставелі,вул. Шота Руставелі 2,,
26,Вулиця Шота Руставелі,вул. Шота Руставелі (навпроти № 4) ,,
30,Вулиця Шота Руставелі,вул. Шота Руставелі 2,,
35,Вулиця Шота Руставелі,вул. Шота Руставелі 2,,
35,Вулиця Шота Руставелі,вул. Шота Руставелі (навпроти № 4) ,,
37,Вулиця Шота Руставелі,вул. Зелена 8,,
37,Вулиця Шота Руставелі,вул. Зелена 9,,
43,Вулиця Шота Руставелі,вул. Зелена 8,,
43,Вулиця Шота Руставелі,вул. Зелена 9,,
44,Вулиця Шота Руставелі,вул. Шота Руставелі 2,,
44,Вулиця Шота Руставелі,вул. Шота Руставелі (навпроти № 4) ,,
46,Вулиця Шота Руставелі,вул. Зелена 8,,
46,Вулиця Шота Руставелі,вул. Зелена 9,,
53,Вулиця Шота Руставелі,вул. Шота Руставелі 2,,
7,Вулиця Щирецька,вул. Кульпарківська 212,,
7,Вулиця Щирецька,вул. Кульпарківська 123,,
10,Вулиця Щирецька,вул. Кульпарківська 212,,
10,Вулиця Щирецька,вул. Кульпарківська 123,,
14,Вулиця Щирецька,вул. Кульпарківська 212,,
14,Вулиця Щирецька,вул. Кульпарківська 123,,
23,Вулиця Щирецька,вул. Кульпарківська 212,,
23,Вулиця Щирецька,вул. Кульпарківська 123,,
25,Вулиця Щирецька,вул. Кульпарківська 212,,
25,Вулиця Щирецька,вул. Кульпарківська 123,,
27,Вулиця Щирецька,вул. Кульпарківська 212,,
27,Вулиця Щирецька,вул. Кульпарківська 123,,
32,Вулиця Щирецька,вул. Кульпарківська 212,,
32,Вулиця Щирецька,вул. Кульпарківська 123,,
8,Вулиця Ягідна,вул. В. Івасюка 32,,
8,Вулиця Ягідна,вул. В. Івасюка 45,,
9,Вулиця Якова Остряниці,вул. Б. Хмельницького 80,,
9,Вулиця Якова Остряниці,вул. Б. Хмельницького 127,,
20,Вулиця Якова Остряниці,вул. Б. Хмельницького 80,,
20,Вулиця Якова Остряниці,вул. Б. Хмельницького 127,,
5А,Вулиця Яловець,вул. Личаківська 162,,
5А,Вулиця Яловець,вул. Личаківська 223,,
36,Вулиця Яловець,вул. Личаківська 162,,
36,Вулиця Яловець,вул. Личаківська 223,,
40,Вулиця Яловець,вул. Личаківська 162,,
40,Вулиця Яловець,вул. Личаківська 223,,
7,Вулиця Янева,вул. Володимира Великого 21,,
11,Вулиця Янева,вул. Володимира Великого 21,,
13,Вулиця Янева,вул. Володимира Великого 21,,
16,Вулиця Янева,вул. Володимира Великого 21,,
18,Вулиця Янева,вул. Володимира Великого 21,,
44,Вулиця Янева,вул. Володимира Великого 21,,
3А,Вулиця Ярослава Гашека,вул. Стрийська 61,,
3А,Вулиця Ярослава Гашека,вул. Стрийська 244,,
9,Вулиця Ярослава Гашека,вул. Стрийська 61,,
9,Вулиця Ярослава Гашека,вул. Стрийська 244,,
10,Вулиця Ярослава Гашека,вул. Стрийська 61,,
10,Вулиця Ярослава Гашека,вул. Стрийська 244,,
25,Вулиця Ярослава Гашека,вул. Стрийська 61,,
25,Вулиця Ярослава Гашека,вул. Стрийська 244,,
40,Вулиця Ярослава Гашека,вул. Стрийська 61,,
40,Вулиця Ярослава Гашека,вул. Стрийська 244,,
6А,Вулиця Ярослава Мудрого,вул. Т. Шевченка 3А,,
6А,Вулиця Ярослава Мудрого,вул. Т. Шевченка 52,,
17,Вулиця Ярослава Мудрого,вул. Т. Шевченка 3А,,
17,Вулиця Ярослава Мудрого,вул. Т. Шевченка 52,,
30,Вулиця Ярослава Мудрого,вул. Т. Шевченка 3А,,
30,Вулиця Ярослава Мудрого,вул. Т. Шевченка 52,,
49,Вулиця Ярослава Мудрого,вул. Т. Шевченка 3А,,
49,Вулиця Ярослава Мудрого,вул. Т. Шевченка 52,,
5А,Галицька лікарня,вул. Галицька 1,,
5А,Галицька лікарня,вул. Галицька 12,,
36,Галицька лікарня,вул. Галицька 1,,
36,Галицька лікарня,вул. Галицька 12,,
40,Галицька лікарня,вул. Галицька 1,,
40,Галицька лікарня,вул. Галицька 12,,
15,Головна пошта,"вул. М. Коперника (вул. В. Стефаника, 2) ",,
21,Головна пошта,вул. П. Дорошенка 43,,
24,Головна пошта,"вул. М. Коперника (вул. В. Стефаника, 2) ",,
43,Головна пошта,"вул. М. Коперника (вул. В. Стефаника, 2) ",,
45,Головна пошта,"вул. М. Коперника (вул. В. Стефаника, 2) ",,
10,Головний залізничний вокзал,вул. Чернівецька 11,,
16,Головний залізничний вокзал,вул. Чернівецька 11,,
29,Головний залізничний вокзал,вул. Чернівецька 11,,
31,Головний залізничний вокзал,вул. Чернівецька 11,,
32,Головний залізничний вокзал,вул. Чернівецька 11,,
48,"Готель ""Тустань"" - на вимогу",вул. Любінська 168А,,
3А,Державна податкова адміністрація,вул. Стрийська 35,,
3А,Державна податкова адміністрація,"вул. Стрийська (вул. Академіка Лазаренка, 2) ",,
13,Державна податкова адміністрація,вул. І. Чмоли 1,,
13,Державна податкова адміністрація,вул. І. Чмоли 2,,
16,Державна податкова адміністрація,вул. І. Чмоли 1,,
16,Державна податкова адміністрація,вул. І. Чмоли 2,,
18,Державна податкова адміністрація,вул. Стрийська 35,,
18,Державна податкова адміністрація,"вул. Стрийська (вул. Академіка Лазаренка, 2) ",,
27,Державна податкова адміністрація,вул. І. Чмоли 1,,
27,Державна податкова адміністрація,вул. І. Чмоли 2,,
35,Державна податкова адміністрація,вул. І. Чмоли 2,,
35,Державна податкова адміністрація,вул. Стрийська 35,,
35,Державна податкова адміністрація,"вул. Стрийська (вул. Академіка Лазаренка, 2) ",,
42,Державна податкова адміністрація,вул. Стрийська 35,,
42,Державна податкова адміністрація,"вул. Стрийська (вул. Академіка Лазаренка, 2) ",,
44,Державна податкова адміністрація,вул. Стрийська 35,,
44,Державна податкова адміністрація,"вул. Стрийська (вул. Академіка Лазаренка, 2) ",,
8,Джерело,вул. Львівська ?,,
8,Джерело,вул. Львівська ?,,
3А,Дитяча залізниця,вул. Стрийська (вхід в парк) ,,
3А,Дитяча залізниця,вул. Стрийська 72,,
18,Дитяча залізниця,вул. Стрийська (вхід в парк) ,,
18,Дитяча залізниця,вул. Стрийська 72,,
35,Дитяча залізниця,вул. Стрийська (вхід в парк) ,,
35,Дитяча залізниця,вул. Стрийська 72,,
44,Дитяча залізниця,вул. Стрийська (вхід в парк) ,,
44,Дитяча залізниця,вул. Стрийська 72,,
46,Дитяча клінічна лікарня,вул. П. Орлика 8,,
4А,Дитяча поліклініка № 4,просп. Червоної Калини 46,,
4А,Дитяча поліклініка № 4,просп. Червоної Калини 59,,
7,Дитяча поліклініка № 4,просп. Червоної Калини 46,,
7,Дитяча поліклініка № 4,просп. Червоної Калини 59,,
11,Дитяча поліклініка № 4,просп. Червоної Калини 46,,
11,Дитяча поліклініка № 4,просп. Червоної Калини 59,,
14,Дитяча поліклініка № 4,просп. Червоної Калини 46,,
14,Дитяча поліклініка № 4,просп. Червоної Калини 59,,
16,Дитяча поліклініка № 4,просп. Червоної Калини 46,,
16,Дитяча поліклініка № 4,просп. Червоної Калини 59,,
23,Дитяча поліклініка № 4,просп. Червоної Калини 46,,
23,Дитяча поліклініка № 4,просп. Червоної Калини 59,,
26,Дитяча поліклініка № 4,просп. Червоної Калини 46,,
26,Дитяча поліклініка № 4,просп. Червоної Калини 59,,
32,Дитяча поліклініка № 4,просп. Червоної Калини 46,,
32,Дитяча поліклініка № 4,просп. Червоної Калини 59,,
35,Дитяча поліклініка № 4,просп. Червоної Калини 46,,
35,Дитяча поліклініка № 4,просп. Червоної Калини 59,,
37,Дитяча поліклініка № 4,просп. Червоної Калини 46,,
37,Дитяча поліклініка № 4,просп. Червоної Калини 59,,
38,Дитяча поліклініка № 4,просп. Червоної Калини 46,,
38,Дитяча поліклініка № 4,просп. Червоної Калини 59,,
40,Дитяча поліклініка № 4,просп. Червоної Калини 46,,
40,Дитяча поліклініка № 4,просп. Червоної Калини 59,,
41,Дитяча поліклініка № 4,просп. Червоної Калини 46,,
41,Дитяча поліклініка № 4,просп. Червоної Калини 59,,
42,Дитяча поліклініка № 4,просп. Червоної Калини 46,,
42,Дитяча поліклініка № 4,просп. Червоної Калини 59,,
53,Дитяча поліклініка № 4,просп. Червоної Калини 46,,
53,Дитяча поліклініка № 4,просп. Червоної Калини 59,,
8,Дитячий диспансер,вул. Замарстинівська  265,,
8,Дитячий диспансер,вул. Замарстинівська  274,,
22,Дитячий диспансер,вул. Замарстинівська  265,,
22,Дитячий диспансер,вул. Замарстинівська  274,,
7,Духовна семінарія,вул. Хуторівка 4,,
7,Духовна семінарія,вул. Хуторівка 35,,
11,Духовна семінарія,вул. Хуторівка 4,,
11,Духовна семінарія,вул. Хуторівка 35,,
14,Духовна семінарія,вул. Хуторівка 4,,
14,Духовна семінарія,вул. Хуторівка 35,,
23,Духовна семінарія,вул. Хуторівка 4,,
23,Духовна семінарія,вул. Хуторівка 35,,
32,Духовна семінарія,вул. Хуторівка 4,,
32,Духовна семінарія,вул. Хуторівка 35,,
38,Духовна семінарія,вул. Хуторівка 4,,
38,Духовна семінарія,вул. Хуторівка 35,,
40,Духовна семінарія,вул. Хуторівка 4,,
40,Духовна семінарія,вул. Хуторівка 35,,
41,Духовна семінарія,вул. Хуторівка 4,,
41,Духовна семінарія,вул. Хуторівка 35,,
21,Епіцентр, Кільцева дорога ,,
21,Епіцентр, Кільцева дорога ,,
28,Епіцентр, Кільцева дорога ,,
28,Епіцентр, Кільцева дорога ,,
2А,"Завод ""ЛОРТА""",вул. Ряшівська 7,,
2А,"Завод ""ЛОРТА""","вул. Ряшівська (вул. Є. Патона, 6) ",,
14,"Завод ""ЛОРТА""",вул. Ряшівська 7,,
14,"Завод ""ЛОРТА""","вул. Ряшівська (вул. Є. Патона, 6) ",,
21,"Завод ""ЛОРТА""",вул. Ряшівська 7,,
21,"Завод ""ЛОРТА""","вул. Ряшівська (вул. Є. Патона, 6) ",,
27,"Завод ""ЛОРТА""",вул. Ряшівська 7,,
27,"Завод ""ЛОРТА""","вул. Ряшівська (вул. Є. Патона, 6) ",,
13,Залізнична поліклініка,вул. Суботівська 2,,
13,Залізнична поліклініка,"вул. Суботівська (вул. Повітряна, 88) ",,
17,Залізнична поліклініка,вул. Повітряна 99,,
17,Залізнична поліклініка,вул. Суботівська 2,,
20,Залізнична поліклініка,вул. Суботівська 2,,
20,Залізнична поліклініка,"вул. Суботівська (вул. Повітряна, 88) ",,
23,Залізнична поліклініка,вул. Суботівська 2,,
23,Залізнична поліклініка,"вул. Суботівська (вул. Повітряна, 88) ",,
43,Залізнична поліклініка,вул. Суботівська 2,,
43,Залізнична поліклініка,"вул. Суботівська (вул. Повітряна, 88) ",,
8,Замарстинів,вул. Замарстинівська  178,,
8,Замарстинів,вул. Замарстинівська  223А,,
22,Замарстинів,вул. Замарстинівська  178,,
22,Замарстинів,вул. Замарстинівська  223А,,
3А,Іподром,вул. Стрийська 179,,
10,Іподром,вул. Стрийська 179,,
25,Іподром,вул. Стрийська 179,,
40,Іподром,вул. Стрийська 179,,
9,Кардіологічний центр,вул. Кульпарківська 35,,
25,Кардіологічний центр,вул. Кульпарківська 35,,
51,Кардіологічний центр,вул. Кульпарківська 35,,
21,Кільцева дорога,вул. Городоцька 367,,
28,Кільцева дорога,вул. Городоцька 367,,
4А,Кінотеатр імені О. Довженка,просп. Червоної Калини 81,,
7,Кінотеатр імені О. Довженка,просп. Червоної Калини 81,,
11,Кінотеатр імені О. Довженка,просп. Червоної Калини 81,,
14,Кінотеатр імені О. Довженка,вул. Сихівська 13,,
14,Кінотеатр імені О. Довженка,просп. Червоної Калини 81,,
16,Кінотеатр імені О. Довженка,вул. Сихівська 13,,
16,Кінотеатр імені О. Довженка,просп. Червоної Калини 81,,
19,Кінотеатр імені О. Довженка,вул. Сихівська 13,,
19,Кінотеатр імені О. Довженка,просп. Червоної Калини 81,,
23,Кінотеатр імені О. Довженка,вул. Сихівська 13,,
23,Кінотеатр імені О. Довженка,просп. Червоної Калини 81,,
26,Кінотеатр імені О. Довженка,вул. Сихівська 13,,
26,Кінотеатр імені О. Довженка,просп. Червоної Калини 81,,
32,Кінотеатр імені О. Довженка,просп. Червоної Калини 81,,
35,Кінотеатр імені О. Довженка,вул. Сихівська 13,,
35,Кінотеатр імені О. Довженка,просп. Червоної Калини 81,,
37,Кінотеатр імені О. Довженка,вул. Сихівська 13,,
37,Кінотеатр імені О. Довженка,просп. Червоної Калини 81,,
38,Кінотеатр імені О. Довженка,вул. Сихівська 13,,
38,Кінотеатр імені О. Довженка,просп. Червоної Калини 81,,
40,Кінотеатр імені О. Довженка,вул. Сихівська 13,,
40,Кінотеатр імені О. Довженка,просп. Червоної Калини 81,,
41,Кінотеатр імені О. Довженка,вул. Сихівська 13,,
41,Кінотеатр імені О. Довженка,просп. Червоної Калини 81,,
42,Кінотеатр імені О. Довженка,просп. Червоної Калини 81,,
47А,Кінотеатр імені О. Довженка,просп. Червоної Калини 81,,
53,Кінотеатр імені О. Довженка,просп. Червоної Калини 81,,
23,Кладовище,вул. Глинянський Тракт 136,,
23,Кладовище,вул. Глинянський Тракт 141,,
29,Кладовище,вул. Глинянський Тракт 136,,
29,Кладовище,вул. Глинянський Тракт 141,,
9,Коледж зв'язку,вул. Володимира Великого 12,,
11,Коледж зв'язку,вул. Володимира Великого 12,,
13,Коледж зв'язку,вул. Володимира Великого 12,,
16,Коледж зв'язку,вул. Володимира Великого 12,,
18,Коледж зв'язку,вул. Володимира Великого 12,,
44,Коледж зв'язку,вул. Володимира Великого 12,,
42,Кредобанк,вул. Академіка А.Сахарова 78,,
39,Кривчиці,вул. Кривчицька Дорога 46,,
39,Кривчиці,вул. Кривчицька Дорога 53,,
6А,Крупзавод,вул. Т. Шевченка 113,,
6А,Крупзавод,вул. Т. Шевченка 132,,
11,Крупзавод,вул. Т. Шевченка 113,,
11,Крупзавод,вул. Т. Шевченка 132,,
30,Крупзавод,вул. Т. Шевченка 113,,
30,Крупзавод,вул. Т. Шевченка 132,,
49,Крупзавод,вул. Т. Шевченка 113,,
49,Крупзавод,вул. Т. Шевченка 132,,
7,Кульпарків,вул. Кульпарківська 118,,
7,Кульпарків,вул. Кульпарківська 95,,
9,Кульпарків,вул. Кульпарківська 95,,
38,Кульпарків,вул. Кульпарківська 118,,
38,Кульпарків,вул. Кульпарківська 95,,
17,Левандівське озеро,вул. Повітряна 1А,,
17,Левандівське озеро,вул. Повітряна 2Б,,
27,Лікарня № 8,вул. В. Навроцького 4,,
27,Лікарня № 8,вул. В. Навроцького 21,,
43,Лікарня № 8,вул. Дністерська 22,,
12,Лікарня швидкої допомоги,вул. І. Миколайчука 11,,
12,Лікарня швидкої допомоги,вул. І. Миколайчука 12,,
17,Лікарня швидкої допомоги,вул. І. Миколайчука 11,,
17,Лікарня швидкої допомоги,вул. І. Миколайчука 12,,
19,Лікарня швидкої допомоги,вул. І. Миколайчука 11,,
19,Лікарня швидкої допомоги,вул. І. Миколайчука 12,,
26,Лікарня швидкої допомоги,вул. І. Миколайчука 11,,
26,Лікарня швидкої допомоги,вул. І. Миколайчука 12,,
46,Лікарня швидкої допомоги,вул. І. Миколайчука 11,,
46,Лікарня швидкої допомоги,вул. І. Миколайчука 12,,
24,Львівводоканал,вул. Зелена 77,,
37,Львівводоканал,вул. Зелена 77,,
43,Львівводоканал,вул. Зелена 77,,
44,Львівводоканал,вул. Зелена 77,,
46,Львівводоканал,вул. Зелена 77,,
15,Львівська політехніка,вул. С. Бандери 15,,
41,Львівська політехніка,вул. Генрала Чупринки 4,,
41,Львівська політехніка,"вул. Генрала Чупринки (вул. С. Бандери, 11) ",,
42,Львівська політехніка,"вул. Генрала Чупринки (вул. С. Бандери, 11) ",,
42,Львівська політехніка,вул. С. Бандери 12,,
42,Львівська політехніка,вул. С. Бандери 15,,
43,Львівська політехніка,вул. С. Бандери 12,,
43,Львівська політехніка,вул. С. Бандери 15,,
9,Магазин,вул. Івана Франка (с. Муроване) ?,,
9,Магазин,вул. Івана Франка (с. Муроване) ?,,
9,"Магазин ""Океан""",вул. Володимира Великого 26,,
9,"Магазин ""Океан""","вул. Володимира Великого (вул. Кн.Ольги, 106) ",,
11,"Магазин ""Океан""",вул. Володимира Великого 26,,
11,"Магазин ""Океан""","вул. Володимира Великого (вул. Кн.Ольги, 106) ",,
13,"Магазин ""Океан""",вул. Володимира Великого 26,,
13,"Магазин ""Океан""","вул. Володимира Великого (вул. Кн.Ольги, 106) ",,
16,"Магазин ""Океан""",вул. Володимира Великого 26,,
16,"Магазин ""Океан""","вул. Володимира Великого (вул. Кн.Ольги, 106) ",,
18,"Магазин ""Океан""",вул. Володимира Великого 26,,
18,"Магазин ""Океан""","вул. Володимира Великого (вул. Кн.Ольги, 106) ",,
21,"Магазин ""Океан""",вул. Володимира Великого 26,,
21,"Магазин ""Океан""","вул. Володимира Великого (вул. Кн.Ольги, 106) ",,
38,"Магазин ""Океан""",вул. Володимира Великого 26,,
38,"Магазин ""Океан""","вул. Володимира Великого (вул. Кн.Ольги, 106) ",,
44,"Магазин ""Океан""","вул. Володимира Великого (вул. Кн.Ольги, 106) ",,
48,"Магазин ""Океан""",вул. Володимира Великого 26,,
48,"Магазин ""Океан""","вул. Володимира Великого (вул. Кн.Ольги, 106) ",,
51,"Магазин ""Океан""",вул. Володимира Великого 26,,
51,"Магазин ""Океан""","вул. Володимира Великого (вул. Кн.Ольги, 106) ",,
10,Мотозавод,вул. Городоцька 249,,
10,Мотозавод,вул. І. Виговського 4,,
11,Мотозавод,вул. Городоцька 249,,
11,Мотозавод,вул. І. Виговського 4,,
13,Мотозавод,вул. Городоцька 249,,
13,Мотозавод,вул. І. Виговського 4,,
18,Мотозавод,вул. Городоцька 249,,
18,Мотозавод,вул. І. Виговського 4,,
23,Мотозавод,вул. Городоцька 249,,
23,Мотозавод,вул. І. Виговського 4,,
28,Мотозавод,вул. Городоцька 174,,
28,Мотозавод,вул. Городоцька 249,,
32,Мотозавод,вул. Городоцька 249,,
32,Мотозавод,вул. І. Виговського 4,,
30,Музей Івана Франка,вул. І. Франка 150,,
28,Народний дім,вул. Володимира Великого 9А,,
1А,Палац культури імені Гната Хоткевича,просп. В. Чорновола (вул. С. Кушевича 1) ,,
7,Палац культури імені Гната Хоткевича,просп. В. Чорновола (вул. С. Кушевича 1) ,,
8,Палац культури імені Гната Хоткевича,просп. В. Чорновола (вул. С. Кушевича 1) ,,
9,Палац культури імені Гната Хоткевича,вул. Замарстинівська  25,,
17,Палац культури імені Гната Хоткевича,просп. В. Чорновола (вул. С. Кушевича 1) ,,
20,Палац культури імені Гната Хоткевича,вул. Замарстинівська  25,,
22,Палац культури імені Гната Хоткевича,просп. В. Чорновола (вул. С. Кушевича 1) ,,
25,Палац культури імені Гната Хоткевича,просп. В. Чорновола (вул. С. Кушевича 1) ,,
26,Палац культури імені Гната Хоткевича,просп. В. Чорновола (вул. С. Кушевича 1) ,,
28,Палац культури імені Гната Хоткевича,просп. В. Чорновола (вул. С. Кушевича 1) ,,
31,Палац культури імені Гната Хоткевича,просп. В. Чорновола (вул. С. Кушевича 1) ,,
34,Палац культури імені Гната Хоткевича,просп. В. Чорновола (вул. С. Кушевича 1) ,,
35,Палац культури імені Гната Хоткевича,просп. В. Чорновола (вул. С. Кушевича 1) ,,
37,Палац культури імені Гната Хоткевича,просп. В. Чорновола (вул. С. Кушевича 1) ,,
39,Палац культури імені Гната Хоткевича,просп. В. Чорновола (вул. С. Кушевича 1) ,,
41,Палац культури імені Гната Хоткевича,просп. В. Чорновола (вул. С. Кушевича 1) ,,
46,Палац культури імені Гната Хоткевича,просп. В. Чорновола (вул. С. Кушевича 1) ,,
50,Палац культури імені Гната Хоткевича,просп. В. Чорновола (вул. С. Кушевича 1) ,,
51,Палац культури імені Гната Хоткевича,просп. В. Чорновола (вул. С. Кушевича 1) ,,
53,Палац культури імені Гната Хоткевича,просп. В. Чорновола (вул. С. Кушевича 1) ,,
8,"Пансіонат ""Львів""",вул. Курортна 10,,
8,"Пансіонат ""Львів""",вул. Курортна (перехрестя з вул. Лікарська) ,,
22,"Пансіонат ""Львів""",вул. Курортна 10,,
22,"Пансіонат ""Львів""",вул. Курортна (перехрестя з вул. Лікарська) ,,
3А,Парк культури,вул. Стрийська (монумент слави) ,,
3А,Парк культури,"вул. Стрийська (вул. Героїв Майдану, 32) ",,
18,Парк культури,вул. Стрийська (монумент слави) ,,
18,Парк культури,"вул. Стрийська (вул. Героїв Майдану, 32) ",,
24,Парк культури,вул. Д. Вітовського (навпроти № 41) ,,
25,Парк культури,вул. Стрийська (монумент слави) ,,
30,Парк культури,вул. Д. Вітовського (навпроти № 41) ,,
35,Парк культури,"вул. Стрийська (вул. Героїв Майдану, 32) ",,
43,Парк культури,вул. Д. Вітовського (навпроти № 41) ,,
44,Парк культури,вул. Стрийська (монумент слави) ,,
44,Парк культури,"вул. Стрийська (вул. Героїв Майдану, 32) ",,
45,Парк культури,вул. Д. Вітовського (навпроти № 41) ,,
48,Парк культури,вул. Д. Вітовського (навпроти № 41) ,,
38,Пасіки Зубрицькі,"вул. Зелена (навпроти ТОВ ""Блюм Україна) ",,
38,Пасіки Зубрицькі,"вул. Зелена (ТОВ ""Блюм Україна) ",,
15,Перинатальний центр,вул. Дж. Вашингтона  6,,
19,Перинатальний центр,вул. Дж. Вашингтона  5А,,
19,Перинатальний центр,вул. Дж. Вашингтона  6,,
23,Перинатальний центр,вул. Дж. Вашингтона  5А,,
23,Перинатальний центр,вул. Дж. Вашингтона  6,,
24,Перинатальний центр,вул. Дж. Вашингтона  5А,,
27,Перинатальний центр,вул. Дж. Вашингтона  5А,,
27,Перинатальний центр,вул. Дж. Вашингтона  6,,
40,Перинатальний центр,вул. Дж. Вашингтона  5А,,
40,Перинатальний центр,вул. Дж. Вашингтона  6,,
44,Перинатальний центр,вул. Дж. Вашингтона  5А,,
44,Перинатальний центр,вул. Дж. Вашингтона  6,,
47А,Перинатальний центр,вул. Дж. Вашингтона  5А,,
47А,Перинатальний центр,вул. Дж. Вашингтона  6,,
50,Перинатальний центр,вул. Дж. Вашингтона  5А,,
50,Перинатальний центр,вул. Дж. Вашингтона  6,,
1А,Площа 700-річчя Львова,"просп. В. Чорновола (вул. П.Куліша, 44) ",,
8,Площа 700-річчя Львова,"просп. В. Чорновола (вул. П.Куліша, 44) ",,
22,Площа 700-річчя Львова,"просп. В. Чорновола (вул. П.Куліша, 44) ",,
26,Площа 700-річчя Львова,"просп. В. Чорновола (вул. П.Куліша, 44) ",,
35,Площа 700-річчя Львова,"просп. В. Чорновола (вул. П.Куліша, 44) ",,
37,Площа 700-річчя Львова,"просп. В. Чорновола (вул. П.Куліша, 44) ",,
39,Площа 700-річчя Львова,"просп. В. Чорновола (вул. П.Куліша, 44) ",,
46,Площа 700-річчя Львова,"просп. В. Чорновола (вул. П.Куліша, 44) ",,
50,Площа 700-річчя Львова,"просп. В. Чорновола (вул. П.Куліша, 44) ",,
53,Площа 700-річчя Львова,"просп. В. Чорновола (вул. П.Куліша, 44) ",,
1А,Площа Галицька,площа Галицька 14,,
5А,Площа Галицька,площа Галицька 14,,
6А,Площа Галицька,площа Галицька 14,,
24,Площа Галицька,площа Галицька 14,,
47А,Площа Галицька,площа Галицька 14,,
24,Площа Івана Франка,вул. І. Франка 66,,
43,Площа Івана Франка,вул. І. Франка 66,,
45,Площа Івана Франка,вул. І. Франка 66,,
48,Площа Івана Франка,вул. І. Франка 66,,
2А,Площа Липнева,вул. Героїв УПА 30,,
7,Площа Липнева,вул. Героїв УПА 30,,
33,Площа Липнева,вул. Героїв УПА 30,,
38,Площа Липнева,вул. Героїв УПА 30,,
7,Площа М. Кропивницького,вул. Городоцька (навпроти № 98) ,,
9,Площа М. Кропивницького,вул. Городоцька (навпроти № 98) ,,
9,Площа М. Кропивницького,вул. Городоцька 94,,
15,Площа М. Кропивницького,площа М. Кропивницького 3,,
20,Площа М. Кропивницького,вул. Городоцька (навпроти № 98) ,,
20,Площа М. Кропивницького,вул. Городоцька 94,,
25,Площа М. Кропивницького,вул. Городоцька (навпроти № 98) ,,
25,Площа М. Кропивницького,вул. Городоцька 94,,
28,Площа М. Кропивницького,вул. Городоцька (навпроти № 98) ,,
28,Площа М. Кропивницького,вул. Городоцька 94,,
29,Площа М. Кропивницького,вул. Городоцька (навпроти № 98) ,,
29,Площа М. Кропивницького,вул. Городоцька 94,,
30,Площа М. Кропивницького,вул. Городоцька (навпроти № 98) ,,
31,Площа М. Кропивницького,вул. Городоцька (навпроти № 98) ,,
31,Площа М. Кропивницького,вул. Городоцька 94,,
34,Площа М. Кропивницького,вул. Городоцька (навпроти № 98) ,,
34,Площа М. Кропивницького,вул. Городоцька 94,,
36,Площа М. Кропивницького,вул. Городоцька (навпроти № 98) ,,
41,Площа М. Кропивницького,вул. Городоцька (навпроти № 98) ,,
42,Площа М. Кропивницького,площа М. Кропивницького 3,,
42,Площа М. Кропивницького,вул. Шептицьких 45,,
49,Площа М. Кропивницького,вул. Городоцька (навпроти № 98) ,,
49,Площа М. Кропивницького,вул. Городоцька 94,,
51,Площа М. Кропивницького,вул. Городоцька (навпроти № 98) ,,
51,Площа М. Кропивницького,вул. Городоцька 94,,
5А,Площа Митна,вул. Личаківська 7,,
5А,Площа Митна,вул. Личаківська 2,,
15,Площа Митна,вул. Личаківська 7,,
18,Площа Митна,вул. Личаківська 7,,
18,Площа Митна,вул. Личаківська 2,,
24,Площа Митна,вул. Личаківська 2,,
29,Площа Митна,вул. Личаківська 7,,
29,Площа Митна,вул. Личаківська 2,,
36,Площа Митна,вул. Личаківська 7,,
36,Площа Митна,вул. Личаківська 2,,
39,Площа Митна,вул. Личаківська 7,,
39,Площа Митна,вул. Личаківська 2,,
47А,Площа Митна,вул. Личаківська 7,,
47А,Площа Митна,вул. Личаківська 2,,
50,Площа Митна,вул. Личаківська 7,,
50,Площа Митна,вул. Личаківська 2,,
3А,Площа Різні,"площа Різні (вул. Лазнева, 3) ",,
4А,Площа Різні,"площа Різні (вул. Лазнева, 3) ",,
5А,Площа Різні,"площа Різні (вул. Лазнева, 3) ",,
47А,Площа Різні,"площа Різні (вул. Лазнева, 3) ",,
8,Площа Святого Теодора,площа Святого Теодора 9,,
22,Площа Святого Теодора,площа Святого Теодора 9,,
4А,Полікілініка № 4,просп. Червоної Калини 72,,
4А,Полікілініка № 4,просп. Червоної Калини 91,,
7,Полікілініка № 4,просп. Червоної Калини 72,,
7,Полікілініка № 4,просп. Червоної Калини 91,,
11,Полікілініка № 4,просп. Червоної Калини 72,,
11,Полікілініка № 4,просп. Червоної Калини 91,,
13,Полікілініка № 4,просп. Червоної Калини 72,,
14,Полікілініка № 4,просп. Червоної Калини 72,,
19,Полікілініка № 4,просп. Червоної Калини 72,,
19,Полікілініка № 4,просп. Червоної Калини 91,,
32,Полікілініка № 4,просп. Червоної Калини 72,,
32,Полікілініка № 4,просп. Червоної Калини 91,,
42,Полікілініка № 4,просп. Червоної Калини 72,,
42,Полікілініка № 4,просп. Червоної Калини 91,,
46,Полікілініка № 4,просп. Червоної Калини 72,,
47А,Полікілініка № 4,просп. Червоної Калини 72,,
53,Полікілініка № 4,просп. Червоної Калини 72,,
53,Полікілініка № 4,просп. Червоної Калини 91,,
7,Поліклініка № 2,вул. Гетьмана Мазепи 21,,
7,Поліклініка № 2,вул. Гетьмана Мазепи 22,,
17,Поліклініка № 2,вул. Гетьмана Мазепи 21,,
17,Поліклініка № 2,вул. Гетьмана Мазепи 22,,
31,Поліклініка № 2,вул. Гетьмана Мазепи 21,,
31,Поліклініка № 2,вул. Гетьмана Мазепи 22,,
34,Поліклініка № 2,вул. Гетьмана Мазепи 21,,
41,Поліклініка № 2,вул. Гетьмана Мазепи 21,,
41,Поліклініка № 2,вул. Гетьмана Мазепи 22,,
46,Поліклініка № 2,вул. Гетьмана Мазепи 21,,
46,Поліклініка № 2,вул. Гетьмана Мазепи 22,,
51,Поліклініка № 2,вул. Гетьмана Мазепи 21,,
51,Поліклініка № 2,вул. Гетьмана Мазепи 22,,
10,Поліклініка № 5,вул. І. Виговського 17,,
10,Поліклініка № 5,вул. І. Виговського 32,,
11,Поліклініка № 5,вул. І. Виговського 17,,
11,Поліклініка № 5,вул. І. Виговського 32,,
13,Поліклініка № 5,вул. І. Виговського 17,,
13,Поліклініка № 5,вул. І. Виговського 32,,
18,Поліклініка № 5,вул. І. Виговського 17,,
18,Поліклініка № 5,вул. І. Виговського 32,,
23,Поліклініка № 5,вул. І. Виговського 17,,
23,Поліклініка № 5,вул. І. Виговського 32,,
32,Поліклініка № 5,вул. І. Виговського 17,,
32,Поліклініка № 5,вул. І. Виговського 32,,
8,Поліклініка МВС,вул. Замарстинівська  226,,
8,Поліклініка МВС,вул. Замарстинівська  225А,,
22,Поліклініка МВС,вул. Замарстинівська  226,,
22,Поліклініка МВС,вул. Замарстинівська  225А,,
9,Привокзальний ринок,вул. Городоцька (навпроти № 155) ,,
10,Привокзальний ринок,вул. Городоцька (навпроти № 155) ,,
15,Привокзальний ринок,вул. Городоцька (навпроти № 155) ,,
16,Привокзальний ринок,вул. Городоцька (навпроти № 155) ,,
20,Привокзальний ринок,вул. Городоцька (навпроти № 155) ,,
24,Привокзальний ринок,вул. Городоцька (навпроти № 155) ,,
25,Привокзальний ринок,вул. Городоцька (навпроти № 155) ,,
28,Привокзальний ринок,вул. Городоцька (навпроти № 155) ,,
32,Привокзальний ринок,вул. Городоцька (навпроти № 155) ,,
34,Привокзальний ринок,вул. Городоцька (навпроти № 155) ,,
43,Привокзальний ринок,вул. Городоцька (навпроти № 155) ,,
49,Привокзальний ринок,вул. Городоцька (навпроти № 155) ,,
51,Привокзальний ринок,вул. Городоцька (навпроти № 155) ,,
10,Приміський вокзал,вул. Чернівецька 4,,
10,Приміський вокзал,вул. Чернівецька 9,,
15,Приміський вокзал,вул. Городоцька (навпроти № 169) ,,
16,Приміський вокзал,вул. Чернівецька 4,,
16,Приміський вокзал,вул. Чернівецька 9,,
24,Приміський вокзал,вул. Городоцька (навпроти № 169) ,,
29,Приміський вокзал,вул. Чернівецька 4,,
29,Приміський вокзал,вул. Чернівецька 9,,
31,Приміський вокзал,вул. Чернівецька 4,,
31,Приміський вокзал,вул. Чернівецька 9,,
32,Приміський вокзал,вул. Чернівецька 4,,
32,Приміський вокзал,вул. Чернівецька 9,,
49,Приміський вокзал,вул. Городоцька (навпроти № 169) ,,
11,Притулок для неповнолітніх,вул. Левандівська 15,,
11,Притулок для неповнолітніх,вул. Левандівська 18,,
6А,Промисловий ринок,вул. Т. Шевченка (перехрестя з вул. О. Лушпинського) ,,
6А,Промисловий ринок,вул. Т. Шевченка (перехрестя з вул. Професора Ковалика) ,,
11,Промисловий ринок,вул. Т. Шевченка (перехрестя з вул. О. Лушпинського) ,,
11,Промисловий ринок,вул. Т. Шевченка (перехрестя з вул. Професора Ковалика) ,,
12,Промисловий ринок,вул. Т. Шевченка (перехрестя з вул. О. Лушпинського) ,,
12,Промисловий ринок,вул. Т. Шевченка (перехрестя з вул. Професора Ковалика) ,,
30,Промисловий ринок,вул. Т. Шевченка (перехрестя з вул. О. Лушпинського) ,,
30,Промисловий ринок,вул. Т. Шевченка (перехрестя з вул. Професора Ковалика) ,,
49,Промисловий ринок,вул. Т. Шевченка (перехрестя з вул. О. Лушпинського) ,,
49,Промисловий ринок,вул. Т. Шевченка (перехрестя з вул. Професора Ковалика) ,,
50,Промисловий ринок,вул. Т. Шевченка (перехрестя з вул. О. Лушпинського) ,,
50,Промисловий ринок,вул. Т. Шевченка (перехрестя з вул. Професора Ковалика) ,,
1А,Проспект В'ячеслава Чорновола,просп. В. Чорновола (навпроти № 9) ,,
7,Проспект В'ячеслава Чорновола,просп. В. Чорновола (навпроти № 9) ,,
9,Проспект В'ячеслава Чорновола,просп. В. Чорновола (навпроти № 9) ,,
17,Проспект В'ячеслава Чорновола,просп. В. Чорновола (навпроти № 9) ,,
20,Проспект В'ячеслава Чорновола,просп. В. Чорновола (навпроти № 9) ,,
25,Проспект В'ячеслава Чорновола,просп. В. Чорновола (навпроти № 9) ,,
26,Проспект В'ячеслава Чорновола,просп. В. Чорновола (навпроти № 9) ,,
28,Проспект В'ячеслава Чорновола,просп. В. Чорновола (навпроти № 9) ,,
31,Проспект В'ячеслава Чорновола,просп. В. Чорновола (навпроти № 9) ,,
34,Проспект В'ячеслава Чорновола,просп. В. Чорновола (навпроти № 9) ,,
35,Проспект В'ячеслава Чорновола,просп. В. Чорновола (навпроти № 9) ,,
37,Проспект В'ячеслава Чорновола,просп. В. Чорновола (навпроти № 9) ,,
39,Проспект В'ячеслава Чорновола,просп. В. Чорновола (навпроти № 9) ,,
41,Проспект В'ячеслава Чорновола,просп. В. Чорновола (навпроти № 9) ,,
46,Проспект В'ячеслава Чорновола,просп. В. Чорновола (навпроти № 9) ,,
50,Проспект В'ячеслава Чорновола,просп. В. Чорновола (навпроти № 9) ,,
51,Проспект В'ячеслава Чорновола,просп. В. Чорновола (навпроти № 9) ,,
53,Проспект В'ячеслава Чорновола,просп. В. Чорновола (навпроти № 9) ,,
1А,Проспект Свободи,просп. Свободи 7,,
3А,Проспект Свободи,просп. Свободи 7,,
4А,Проспект Свободи,просп. Свободи 7,,
5А,Проспект Свободи,просп. Свободи 7,,
6А,Проспект Свободи,просп. Свободи 7,,
47А,Проспект Свободи,просп. Свободи 7,,
48,Проспект Свободи,просп. Свободи 7,,
53,Проспект Свободи,просп. Свободи 7,,
4А,Проспект Червоної Калини,просп. Червоної Калини 94,,
7,Проспект Червоної Калини,просп. Червоної Калини 94,,
7,Проспект Червоної Калини,просп. Червоної Калини 109,,
11,Проспект Червоної Калини,просп. Червоної Калини 94,,
11,Проспект Червоної Калини,просп. Червоної Калини 109,,
13,Проспект Червоної Калини,просп. Червоної Калини 94,,
13,Проспект Червоної Калини,просп. Червоної Калини 109,,
14,Проспект Червоної Калини,просп. Червоної Калини 94,,
19,Проспект Червоної Калини,просп. Червоної Калини 94,,
19,Проспект Червоної Калини,просп. Червоної Калини 109,,
32,Проспект Червоної Калини,просп. Червоної Калини 94,,
32,Проспект Червоної Калини,просп. Червоної Калини 109,,
42,Проспект Червоної Калини,просп. Червоної Калини 94,,
46,Проспект Червоної Калини,просп. Червоної Калини 94,,
46,Проспект Червоної Калини,просп. Червоної Калини 109,,
47А,Проспект Червоної Калини,просп. Червоної Калини 94,,
47А,Проспект Червоної Калини,просп. Червоної Калини 109,,
53,Проспект Червоної Калини,просп. Червоної Калини 94,,
38,Пульмонологічний центр,вул. Зелена 406,,
30,РАГС,вул. І. Франка (навпроти № 145) ,,
30,РАГС,вул. І. Франка 145,,
1А,"Ринок ""Галицьке Перехрестя""",вул. Б. Хмельницького 273,,
1А,"Ринок ""Галицьке Перехрестя""",вул. Б. Хмельницького ,,
7,"Ринок ""Галицьке Перехрестя""",вул. Б. Хмельницького 273,,
7,"Ринок ""Галицьке Перехрестя""",вул. Б. Хмельницького ?,,
9,"Ринок ""Галицьке Перехрестя""",вул. Б. Хмельницького 273,,
9,"Ринок ""Галицьке Перехрестя""",вул. Б. Хмельницького ?,,
31,"Ринок ""Галицьке Перехрестя""",вул. Б. Хмельницького 273,,
31,"Ринок ""Галицьке Перехрестя""",вул. Б. Хмельницького ?,,
41,"Ринок ""Галицьке Перехрестя""",вул. Б. Хмельницького 273,,
41,"Ринок ""Галицьке Перехрестя""",вул. Б. Хмельницького ?,,
51,"Ринок ""Галицьке Перехрестя""",вул. Б. Хмельницького 273,,
51,"Ринок ""Галицьке Перехрестя""",вул. Б. Хмельницького ?,,
53,"Ринок ""Галицьке Перехрестя""",вул. Б. Хмельницького 273,,
53,"Ринок ""Галицьке Перехрестя""",вул. Б. Хмельницького ?,,
28,Рудно,вул. І. Огієнка 14,,
6А,Рясне 1,вул. Т. Шевченка 358,,
6А,Рясне 1,вул. Т. Шевченка (навпроти № 358А) ,,
11,Рясне 1,вул. Т. Шевченка 358,,
11,Рясне 1,вул. Т. Шевченка (навпроти № 358А) ,,
12,Рясне 1,вул. Т. Шевченка 358,,
12,Рясне 1,вул. Т. Шевченка (навпроти № 358А) ,,
30,Рясне 1,вул. Т. Шевченка 358,,
30,Рясне 1,вул. Т. Шевченка (навпроти № 358А) ,,
49,Рясне 1,вул. Т. Шевченка 358,,
49,Рясне 1,вул. Т. Шевченка (навпроти № 358А) ,,
50,Рясне 1,вул. Т. Шевченка 358,,
50,Рясне 1,вул. Т. Шевченка (навпроти № 358А) ,,
6А,Рясне 2,вул. І. Величковського 2,,
11,Рясне 2,вул. І. Величковського 2,,
12,Рясне 2,вул. І. Величковського 2,,
30,Рясне 2,вул. І. Величковського 2,,
49,Рясне 2,вул. І. Величковського 2,,
50,Рясне 2,вул. І. Величковського 2,,
29,Село Лисиничі, с. Лисиничі ,,
9,Село Муроване,вул. Івана Франка (с. Муроване) ?,,
7,Скнилівок,вул. Кульпарківська 105,,
7,Скнилівок,"вул. Кульпарківська (вул. В.Великого, 58) ",,
9,Скнилівок,"вул. Кульпарківська (вул. В.Великого, 58) ",,
38,Скнилівок,вул. Кульпарківська 105,,
38,Скнилівок,"вул. Кульпарківська (вул. В.Великого, 58) ",,
2А,Собор Святого Юра,площа Святого Юра 3-4,,
15,Собор Святого Юра,площа Святого Юра 3-4,,
33,Собор Святого Юра,площа Святого Юра 3-4,,
38,Собор Святого Юра,площа Святого Юра 3-4,,
4А,"Стадіон ""Україна""",вул. В. Стуса 22А,,
24,"Стадіон ""Україна""",вул. Зелена 113,,
26,"Стадіон ""Україна""",вул. В. Стуса 22А,,
30,"Стадіон ""Україна""",вул. В. Стуса 22А,,
37,"Стадіон ""Україна""",вул. Зелена 113,,
43,"Стадіон ""Україна""",вул. Зелена 113,,
44,"Стадіон ""Україна""",вул. Зелена 113,,
46,"Стадіон ""Україна""",вул. Зелена 113,,
53,"Стадіон ""Україна""",вул. В. Стуса 22А,,
4А,Стадіон Україна,вул. В. Стуса 49,,
26,Стадіон Україна,вул. В. Стуса 49,,
30,Стадіон Україна,вул. В. Стуса 49,,
53,Стадіон Україна,вул. В. Стуса 49,,
42,Станція Персенківка,вул. Луганська ,,
42,Станція Персенківка,вул. Луганська ,,
9,Станція Підзамче,вул. Б. Хмельницького 52,,
9,Станція Підзамче,вул. Б. Хмельницького 87,,
20,Станція Підзамче,вул. Б. Хмельницького 52,,
20,Станція Підзамче,вул. Б. Хмельницького 87,,
38,Станція Сихів,вул. Зелена 308,,
38,Станція Сихів,вул. Зелена 407/2,,
27,Станція Скнилів,вул. Авіаційна 2,,
38,Старий Сихів,вул. Зелена 296,,
38,Старий Сихів,вул. Зелена 367,,
33,Стоматологічна клініка № 3,вул. С. Петлюри 17,,
33,Стоматологічна клініка № 3,вул. С. Петлюри 2А,,
51,Стоматологічна клініка № 3,вул. С. Петлюри 17,,
51,Стоматологічна клініка № 3,вул. С. Петлюри 2А,,
3А,Стрийський ринок,вул. Шота Руставелі  42,,
3А,Стрийський ринок,вул. Шота Руставелі (вул. І. Франка 81) ,,
4А,Стрийський ринок,"вул. Волоська (вул. І. Франка, 81) ",,
4А,Стрийський ринок,"вул. Волоська (вул. Ш. Руставелі, 13) ",,
18,Стрийський ринок,вул. Шота Руставелі  42,,
18,Стрийський ринок,вул. Шота Руставелі (вул. І. Франка 81) ,,
26,Стрийський ринок,"вул. Волоська (вул. І. Франка, 81) ",,
26,Стрийський ринок,"вул. Волоська (вул. Ш. Руставелі, 13) ",,
26,Стрийський ринок,вул. Шота Руставелі  42,,
30,Стрийський ринок,"вул. Волоська (вул. І. Франка, 81) ",,
30,Стрийський ринок,"вул. Волоська (вул. Ш. Руставелі, 13) ",,
35,Стрийський ринок,вул. Шота Руставелі  42,,
35,Стрийський ринок,вул. Шота Руставелі (вул. І. Франка 81) ,,
44,Стрийський ринок,вул. Шота Руставелі  42,,
44,Стрийський ринок,вул. Шота Руставелі (вул. І. Франка 81) ,,
53,Стрийський ринок,"вул. Волоська (вул. І. Франка, 81) ",,
53,Стрийський ринок,"вул. Волоська (вул. Ш. Руставелі, 13) ",,
6А,Театр імені Лесі Українки,вул. Городоцька 67,,
6А,Театр імені Лесі Українки, проїзд між вул. Т.Шевченка - Городоцькою ,,
7,Театр імені Лесі Українки,вул. Городоцька 67,,
7,Театр імені Лесі Українки, проїзд між вул. Т.Шевченка - Городоцькою ,,
9,Театр імені Лесі Українки,вул. Городоцька 67,,
9,Театр імені Лесі Українки, проїзд між вул. Т.Шевченка - Городоцькою ,,
17,Театр імені Лесі Українки,вул. Городоцька 67,,
17,Театр імені Лесі Українки, проїзд між вул. Т.Шевченка - Городоцькою ,,
20,Театр імені Лесі Українки,вул. Городоцька 67,,
20,Театр імені Лесі Українки, проїзд між вул. Т.Шевченка - Городоцькою ,,
25,Театр імені Лесі Українки,вул. Городоцька 67,,
25,Театр імені Лесі Українки, проїзд між вул. Т.Шевченка - Городоцькою ,,
28,Театр імені Лесі Українки,вул. Городоцька 67,,
28,Театр імені Лесі Українки, проїзд між вул. Т.Шевченка - Городоцькою ,,
29,Театр імені Лесі Українки,вул. Городоцька 67,,
29,Театр імені Лесі Українки, проїзд між вул. Т.Шевченка - Городоцькою ,,
30,Театр імені Лесі Українки,вул. Городоцька 67,,
30,Театр імені Лесі Українки, проїзд між вул. Т.Шевченка - Городоцькою ,,
31,Театр імені Лесі Українки,вул. Городоцька 67,,
31,Театр імені Лесі Українки, проїзд між вул. Т.Шевченка - Городоцькою ,,
34,Театр імені Лесі Українки,вул. Городоцька 67,,
34,Театр імені Лесі Українки, проїзд між вул. Т.Шевченка - Городоцькою ,,
36,Театр імені Лесі Українки,вул. Городоцька 67,,
36,Театр імені Лесі Українки, проїзд між вул. Т.Шевченка - Городоцькою ,,
41,Театр імені Лесі Українки,вул. Городоцька 67,,
41,Театр імені Лесі Українки, проїзд між вул. Т.Шевченка - Городоцькою ,,
49,Театр імені Лесі Українки,вул. Городоцька 67,,
49,Театр імені Лесі Українки, проїзд між вул. Т.Шевченка - Городоцькою ,,
51,Театр імені Лесі Українки,вул. Городоцька 67,,
51,Театр імені Лесі Українки, проїзд між вул. Т.Шевченка - Городоцькою ,,
26,Театр ляльок,площа Данила Галицького 1,,
29,Театр ляльок,площа Данила Галицького 1,,
30,Театр ляльок,площа Данила Галицького 1,,
35,Театр ляльок,площа Данила Галицького 1,,
36,Театр ляльок,площа Данила Галицького 1,,
37,Театр ляльок,площа Данила Галицького 1,,
39,Театр ляльок,площа Данила Галицького 1,,
46,Театр ляльок,площа Данила Галицького 1,,
50,Театр ляльок,площа Данила Галицького 1,,
1А,Театр опери та балету,просп. Свободи 49,,
3А,Театр опери та балету,просп. Свободи 49,,
4А,Театр опери та балету,просп. Свободи 49,,
5А,Театр опери та балету,просп. Свободи 49,,
6А,Театр опери та балету,просп. Свободи 49,,
47А,Театр опери та балету,просп. Свободи 49,,
53,Театр опери та балету,просп. Свободи 49,,
45,Технологічний коледж,вул. І. Пулюя  29,,
23,"Товариство ""Провесінь-агроінвест""",вул. Глинянський Тракт 165,,
29,"Товариство ""Провесінь-агроінвест""",вул. Глинянський Тракт 165,,
29,"Товариство ""Провесінь-агроінвест""",вул. Глинянський Тракт (навпроти № 165) ,,
4А,"Торговий комплекс ""Шувар""",просп. Червоної Калини 36,,
4А,"Торговий комплекс ""Шувар""",просп. Червоної Калини 37,,
7,"Торговий комплекс ""Шувар""",просп. Червоної Калини 36,,
7,"Торговий комплекс ""Шувар""",просп. Червоної Калини 37,,
11,"Торговий комплекс ""Шувар""",просп. Червоної Калини 36,,
11,"Торговий комплекс ""Шувар""",просп. Червоної Калини 37,,
14,"Торговий комплекс ""Шувар""",просп. Червоної Калини 36,,
14,"Торговий комплекс ""Шувар""",просп. Червоної Калини 37,,
16,"Торговий комплекс ""Шувар""",просп. Червоної Калини 36,,
16,"Торговий комплекс ""Шувар""",просп. Червоної Калини 37,,
23,"Торговий комплекс ""Шувар""",просп. Червоної Калини 36,,
23,"Торговий комплекс ""Шувар""",просп. Червоної Калини 37,,
26,"Торговий комплекс ""Шувар""",просп. Червоної Калини 36,,
26,"Торговий комплекс ""Шувар""",просп. Червоної Калини 37,,
32,"Торговий комплекс ""Шувар""",просп. Червоної Калини 36,,
32,"Торговий комплекс ""Шувар""",просп. Червоної Калини 37,,
35,"Торговий комплекс ""Шувар""",просп. Червоної Калини 36,,
35,"Торговий комплекс ""Шувар""",просп. Червоної Калини 37,,
37,"Торговий комплекс ""Шувар""",просп. Червоної Калини 36,,
37,"Торговий комплекс ""Шувар""",просп. Червоної Калини 37,,
38,"Торговий комплекс ""Шувар""",просп. Червоної Калини 36,,
38,"Торговий комплекс ""Шувар""",просп. Червоної Калини 37,,
40,"Торговий комплекс ""Шувар""",просп. Червоної Калини 36,,
40,"Торговий комплекс ""Шувар""",просп. Червоної Калини 37,,
41,"Торговий комплекс ""Шувар""",просп. Червоної Калини 36,,
41,"Торговий комплекс ""Шувар""",просп. Червоної Калини 37,,
42,"Торговий комплекс ""Шувар""",просп. Червоної Калини 36,,
42,"Торговий комплекс ""Шувар""",просп. Червоної Калини 37,,
53,"Торговий комплекс ""Шувар""",просп. Червоної Калини 36,,
53,"Торговий комплекс ""Шувар""",просп. Червоної Калини 37,,
9,Торговий центр,вул. Б. Хмельницького 176,,
9,Торговий центр,вул. Б. Хмельницького 217,,
19,Торговий центр,вул. Б. Хмельницького 176,,
19,Торговий центр,вул. Б. Хмельницького 217,,
20,Торговий центр,вул. Б. Хмельницького 176,,
20,Торговий центр,вул. Б. Хмельницького 217,,
25,Торговий центр,вул. Б. Хмельницького 176,,
25,Торговий центр,вул. Б. Хмельницького 217,,
35,Торговий центр,вул. Б. Хмельницького 176,,
35,Торговий центр,вул. Б. Хмельницького 217,,
1А,"Торговий центр ""ВАМ""",вул. Б. Хмельницького 267,,
4А,"Торговий центр ""ВАМ""",просп. Червоної Калини 62,,
7,"Торговий центр ""ВАМ""",просп. Червоної Калини 62,,
7,"Торговий центр ""ВАМ""",вул. Б. Хмельницького 267,,
9,"Торговий центр ""ВАМ""",вул. Б. Хмельницького 267,,
11,"Торговий центр ""ВАМ""",просп. Червоної Калини 62,,
19,"Торговий центр ""ВАМ""",просп. Червоної Калини 62,,
31,"Торговий центр ""ВАМ""",вул. Б. Хмельницького 267,,
32,"Торговий центр ""ВАМ""",просп. Червоної Калини 62,,
41,"Торговий центр ""ВАМ""",вул. Б. Хмельницького 267,,
42,"Торговий центр ""ВАМ""",просп. Червоної Калини 62,,
47А,"Торговий центр ""ВАМ""",просп. Червоної Калини 62,,
51,"Торговий центр ""ВАМ""",вул. Б. Хмельницького 267,,
53,"Торговий центр ""ВАМ""",просп. Червоної Калини 62,,
53,"Торговий центр ""ВАМ""",вул. Б. Хмельницького 267,,
6А,"Торговий центр ""Магнус""",вул. Городоцька 8,,
7,"Торговий центр ""Магнус""",вул. П. Куліша 3,,
7,"Торговий центр ""Магнус""","вул. Шпитальна (вул. Городоцька, 4) ",,
9,"Торговий центр ""Магнус""",вул. П. Куліша 3,,
9,"Торговий центр ""Магнус""","вул. Шпитальна (вул. Городоцька, 4) ",,
15,"Торговий центр ""Магнус""",вул. Городоцька 8,,
17,"Торговий центр ""Магнус""",вул. П. Куліша 3,,
17,"Торговий центр ""Магнус""","вул. Шпитальна (вул. Городоцька, 4) ",,
20,"Торговий центр ""Магнус""",вул. П. Куліша 3,,
20,"Торговий центр ""Магнус""","вул. Шпитальна (вул. Городоцька, 4) ",,
25,"Торговий центр ""Магнус""",вул. П. Куліша 3,,
25,"Торговий центр ""Магнус""","вул. Шпитальна (вул. Городоцька, 4) ",,
28,"Торговий центр ""Магнус""",вул. П. Куліша 3,,
28,"Торговий центр ""Магнус""","вул. Шпитальна (вул. Городоцька, 4) ",,
29,"Торговий центр ""Магнус""",вул. Городоцька 8,,
31,"Торговий центр ""Магнус""",вул. П. Куліша 3,,
34,"Торговий центр ""Магнус""",вул. П. Куліша 3,,
34,"Торговий центр ""Магнус""","вул. Шпитальна (вул. Городоцька, 4) ",,
36,"Торговий центр ""Магнус""",вул. Городоцька 8,,
41,"Торговий центр ""Магнус""",вул. П. Куліша 3,,
41,"Торговий центр ""Магнус""","вул. Шпитальна (вул. Городоцька, 4) ",,
51,"Торговий центр ""Магнус""",вул. П. Куліша 3,,
51,"Торговий центр ""Магнус""","вул. Шпитальна (вул. Городоцька, 4) ",,
14,"Торговий центр ""Метро""",вул. Городоцька 300,,
14,"Торговий центр ""Метро""",вул. Городоцька 359,,
21,"Торговий центр ""Метро""",вул. Городоцька 300,,
21,"Торговий центр ""Метро""",вул. Городоцька 359,,
28,"Торговий центр ""Метро""",вул. Городоцька 300,,
28,"Торговий центр ""Метро""",вул. Городоцька 359,,
15,"Торговий центр ""Метро-2""",вул. Дж. Вашингтона  8,,
19,"Торговий центр ""Метро-2""",вул. Дж. Вашингтона  21,,
19,"Торговий центр ""Метро-2""",вул. Дж. Вашингтона  8,,
23,"Торговий центр ""Метро-2""",вул. Дж. Вашингтона  21,,
23,"Торговий центр ""Метро-2""",вул. Дж. Вашингтона  8,,
24,"Торговий центр ""Метро-2""",вул. Дж. Вашингтона  21,,
27,"Торговий центр ""Метро-2""",вул. Дж. Вашингтона  21,,
27,"Торговий центр ""Метро-2""",вул. Дж. Вашингтона  8,,
40,"Торговий центр ""Метро-2""",вул. Дж. Вашингтона  21,,
40,"Торговий центр ""Метро-2""",вул. Дж. Вашингтона  8,,
44,"Торговий центр ""Метро-2""",вул. Дж. Вашингтона  21,,
44,"Торговий центр ""Метро-2""",вул. Дж. Вашингтона  8,,
47А,"Торговий центр ""Метро-2""",вул. Дж. Вашингтона  21,,
47А,"Торговий центр ""Метро-2""",вул. Дж. Вашингтона  8,,
50,"Торговий центр ""Метро-2""",вул. Дж. Вашингтона  21,,
50,"Торговий центр ""Метро-2""",вул. Дж. Вашингтона  8,,
9,"Торговий центр ""Скриня""",вул. Городоцька (навпроти № 175) ,,
9,"Торговий центр ""Скриня""",вул. Городоцька 175,,
10,"Торговий центр ""Скриня""",вул. Городоцька (навпроти № 175) ,,
10,"Торговий центр ""Скриня""",вул. Городоцька 175,,
16,"Торговий центр ""Скриня""",вул. Городоцька (навпроти № 175) ,,
16,"Торговий центр ""Скриня""",вул. Городоцька 175,,
20,"Торговий центр ""Скриня""",вул. Городоцька (навпроти № 175) ,,
20,"Торговий центр ""Скриня""",вул. Городоцька 175,,
25,"Торговий центр ""Скриня""",вул. Городоцька (навпроти № 175) ,,
25,"Торговий центр ""Скриня""",вул. Городоцька 175,,
28,"Торговий центр ""Скриня""",вул. Городоцька (навпроти № 175) ,,
28,"Торговий центр ""Скриня""",вул. Городоцька 175,,
32,"Торговий центр ""Скриня""",вул. Городоцька (навпроти № 175) ,,
32,"Торговий центр ""Скриня""",вул. Городоцька 175,,
34,"Торговий центр ""Скриня""",вул. Городоцька (навпроти № 175) ,,
34,"Торговий центр ""Скриня""",вул. Городоцька 175,,
43,"Торговий центр ""Скриня""",вул. Городоцька (навпроти № 175) ,,
43,"Торговий центр ""Скриня""",вул. Городоцька 175,,
51,"Торговий центр ""Скриня""",вул. Городоцька (навпроти № 175) ,,
51,"Торговий центр ""Скриня""",вул. Городоцька 175,,
21,"Торговий центр ""Три слони""", Кільцева дорога ,,
14,Торгові центри,вул. Городоцька 284,,
14,Торгові центри,вул. Городоцька 357,,
21,Торгові центри,вул. Городоцька 284,,
21,Торгові центри,вул. Городоцька 357,,
28,Торгові центри,вул. Городоцька 284,,
28,Торгові центри,вул. Городоцька 357,,
10,"Торгово-виробничий комплекс ""Південний""",вул. І. Виговського 69,,
10,"Торгово-виробничий комплекс ""Південний""",вул. І. Виговського ,,
11,"Торгово-виробничий комплекс ""Південний""",вул. І. Виговського 69,,
11,"Торгово-виробничий комплекс ""Південний""",вул. І. Виговського ,,
13,"Торгово-виробничий комплекс ""Південний""",вул. І. Виговського 69,,
13,"Торгово-виробничий комплекс ""Південний""",вул. І. Виговського ,,
14,"Торгово-виробничий комплекс ""Південний""",вул. І. Виговського 69,,
14,"Торгово-виробничий комплекс ""Південний""",вул. І. Виговського ,,
16,"Торгово-виробничий комплекс ""Південний""",вул. І. Виговського 69,,
16,"Торгово-виробничий комплекс ""Південний""",вул. І. Виговського ,,
18,"Торгово-виробничий комплекс ""Південний""",вул. І. Виговського 69,,
18,"Торгово-виробничий комплекс ""Південний""",вул. І. Виговського ,,
21,"Торгово-виробничий комплекс ""Південний""",вул. І. Виговського 69,,
21,"Торгово-виробничий комплекс ""Південний""",вул. І. Виговського ,,
23,"Торгово-виробничий комплекс ""Південний""",вул. І. Виговського 69,,
23,"Торгово-виробничий комплекс ""Південний""",вул. І. Виговського ,,
25,"Торгово-виробничий комплекс ""Південний""",вул. І. Виговського 69,,
25,"Торгово-виробничий комплекс ""Південний""",вул. І. Виговського ,,
27,"Торгово-виробничий комплекс ""Південний""",вул. І. Виговського 69,,
27,"Торгово-виробничий комплекс ""Південний""",вул. І. Виговського ,,
32,"Торгово-виробничий комплекс ""Південний""",вул. І. Виговського 69,,
32,"Торгово-виробничий комплекс ""Південний""",вул. І. Виговського ,,
48,"Торгово-виробничий комплекс ""Південний""",вул. І. Виговського 69,,
48,"Торгово-виробничий комплекс ""Південний""",вул. І. Виговського ,,
51,"Торгово-виробничий комплекс ""Південний""",вул. І. Виговського 69,,
51,"Торгово-виробничий комплекс ""Південний""",вул. І. Виговського ,,
3А,"Торгово-розважальний центр ""Кінг Кросс Леополіс""",вул. Стрийська (с. Сокільники) ,,
10,"Торгово-розважальний центр ""Кінг Кросс Леополіс""",вул. Стрийська (с. Сокільники) ,,
25,"Торгово-розважальний центр ""Кінг Кросс Леополіс""",вул. Стрийська (с. Сокільники) ,,
40,"Торгово-розважальний центр ""Кінг Кросс Леополіс""",вул. Стрийська (с. Сокільники) ,,
21,Трамвайне депо,"вул. Академіка А. Сахарова (вул. Богуна, 12) ",,
42,Трамвайне депо,"вул. Академіка А. Сахарова (вул. Богуна, 12) ",,
45,Трамвайне депо,"вул. Академіка А. Сахарова (вул. Богуна, 12) ",,
48,Трамвайне депо,"вул. Академіка А. Сахарова (вул. Богуна, 12) ",,
2А,Університет імені Івана Франка,вул. Університеська 1,,
7,Центр зайнятості,вул. Наукова 62,,
7,Центр зайнятості,вул. Наукова 35А,,
10,Центр зайнятості,вул. Наукова 62,,
10,Центр зайнятості,вул. Наукова 35А,,
14,Центр зайнятості,вул. Наукова 62,,
14,Центр зайнятості,вул. Наукова 35А,,
23,Центр зайнятості,вул. Наукова 62,,
23,Центр зайнятості,вул. Наукова 35А,,
25,Центр зайнятості,вул. Наукова 62,,
25,Центр зайнятості,вул. Наукова 35А,,
27,Центр зайнятості,вул. Наукова 62,,
27,Центр зайнятості,вул. Наукова 35А,,
32,Центр зайнятості,вул. Наукова 62,,
32,Центр зайнятості,вул. Наукова 35А,,
38,Центр зайнятості,вул. Наукова 35А,,
41,Центр зайнятості,вул. Наукова 35А,,
44,Центр зайнятості,вул. Наукова 62,,
45,Центр зайнятості,вул. Наукова 62,,
45,Центр зайнятості,вул. Наукова 35А,,
51,Центр зайнятості,вул. Наукова 62,,
51,Центр зайнятості,вул. Наукова 35А,,
15,Церква Благовіщення Пресвятої Богородиці,вул. Пасічна 85,,
19,Церква Благовіщення Пресвятої Богородиці,вул. Пасічна 85,,
19,Церква Благовіщення Пресвятої Богородиці,вул. Пасічна 90,,
23,Церква Благовіщення Пресвятої Богородиці,вул. Пасічна 85,,
23,Церква Благовіщення Пресвятої Богородиці,вул. Пасічна 90,,
24,Церква Благовіщення Пресвятої Богородиці,вул. Пасічна 90,,
27,Церква Благовіщення Пресвятої Богородиці,вул. Пасічна 85,,
27,Церква Благовіщення Пресвятої Богородиці,вул. Пасічна 90,,
40,Церква Благовіщення Пресвятої Богородиці,вул. Пасічна 85,,
40,Церква Благовіщення Пресвятої Богородиці,вул. Пасічна 90,,
44,Церква Благовіщення Пресвятої Богородиці,вул. Пасічна 85,,
44,Церква Благовіщення Пресвятої Богородиці,вул. Пасічна 90,,
47А,Церква Благовіщення Пресвятої Богородиці,вул. Пасічна 85,,
47А,Церква Благовіщення Пресвятої Богородиці,вул. Пасічна 90,,
50,Церква Благовіщення Пресвятої Богородиці,вул. Пасічна 85,,
50,Церква Благовіщення Пресвятої Богородиці,вул. Пасічна 90,,
2А,Церква Вознесіння Господнього,вул. Гродоцька 319А,,
13,Церква Вознесіння Господнього,вул. Суботівська 2,,
13,Церква Вознесіння Господнього,вул. Широка 79,,
14,Церква Вознесіння Господнього,вул. Гродоцька 236,,
14,Церква Вознесіння Господнього,вул. Гродоцька 319А,,
17,Церква Вознесіння Господнього,вул. Суботівська 2,,
18,Церква Вознесіння Господнього,вул. Широка 79,,
20,Церква Вознесіння Господнього,вул. Суботівська 2,,
20,Церква Вознесіння Господнього,вул. Широка 79,,
21,Церква Вознесіння Господнього,вул. Гродоцька 236,,
21,Церква Вознесіння Господнього,вул. Гродоцька 319А,,
23,Церква Вознесіння Господнього,вул. Суботівська 2,,
23,Церква Вознесіння Господнього,вул. Широка 79,,
25,Церква Вознесіння Господнього,вул. Старознесінська 23,,
27,Церква Вознесіння Господнього,вул. Гродоцька 236,,
27,Церква Вознесіння Господнього,вул. Гродоцька 319А,,
28,Церква Вознесіння Господнього,вул. Гродоцька 236,,
28,Церква Вознесіння Господнього,вул. Гродоцька 319А,,
34,Церква Вознесіння Господнього,вул. Широка 68,,
34,Церква Вознесіння Господнього,вул. Широка 79,,
43,Церква Вознесіння Господнього,вул. Суботівська 2,,
43,Церква Вознесіння Господнього,вул. Широка 79,,
5А,Церква Покрови Пресвятої Богородиці,вул. Личаківська 175,,
15,Церква Покрови Пресвятої Богородиці,вул. Личаківська 175,,
18,Церква Покрови Пресвятої Богородиці,вул. Личаківська 175,,
29,Церква Покрови Пресвятої Богородиці,вул. Личаківська 175,,
36,Церква Покрови Пресвятої Богородиці,вул. Личаківська 175,,
39,Церква Покрови Пресвятої Богородиці,вул. Личаківська 175,,
47А,Церква Покрови Пресвятої Богородиці,вул. Личаківська 175,,
50,Церква Покрови Пресвятої Богородиці,вул. Личаківська 175,,
19,Церква Пресвятої Богородиці,вул. Новознесенська 34,,
19,Церква Пресвятої Богородиці,вул. Новознесенська 67,,
35,Церква Пресвятої Богородиці,вул. Новознесенська 34,,
35,Церква Пресвятої Богородиці,вул. Новознесенська 67,,
13,Церква Святих Кирила і Мефодія,вул. Угорська 4,,
16,Церква Святих Кирила і Мефодія,вул. Угорська 4,,
26,Церква Святих Кирила і Мефодія,вул. Угорська 4,,
27,Церква Святих Кирила і Мефодія,вул. Угорська 4,,
30,Церква Святих Кирила і Мефодія,вул. Угорська 4,,
35,Церква Святих Кирила і Мефодія,вул. Угорська 4,,
7,Церква Святих Ольги та Єлизавети,площа М. Кропивницького (біля церкви) ,,
7,Церква Святих Ольги та Єлизавети,площа Кропивницького 8,,
15,Церква Святих Ольги та Єлизавети,площа Кропивницького 8,,
24,Церква Святих Ольги та Єлизавети,площа М. Кропивницького (біля церкви) ,,
24,Церква Святих Ольги та Єлизавети,площа Кропивницького 8,,
30,Церква Святих Ольги та Єлизавети,площа М. Кропивницького (біля церкви) ,,
36,Церква Святих Ольги та Єлизавети,площа М. Кропивницького (біля церкви) ,,
41,Церква Святих Ольги та Єлизавети,площа М. Кропивницького (біля церкви) ,,
41,Церква Святих Ольги та Єлизавети,площа Кропивницького 8,,
42,Церква Святих Ольги та Єлизавети,площа Кропивницького 8,,
43,Церква Святих Ольги та Єлизавети,площа М. Кропивницького (біля церкви) ,,
43,Церква Святих Ольги та Єлизавети,площа Кропивницького 8,,
6А,Церква Святої Анни,вул. Т. Шевченка 16,,
17,Церква Святої Анни,вул. Т. Шевченка 16,,
30,Церква Святої Анни,вул. Т. Шевченка 16,,
49,Церква Святої Анни,вул. Т. Шевченка 16,,
7,Цирк,вул. Городоцька 44,,
7,Цирк,вул. Городоцька (навпроти № 44) ,,
9,Цирк,вул. Городоцька 44,,
9,Цирк,вул. Городоцька (навпроти № 44) ,,
20,Цирк,вул. Городоцька 44,,
20,Цирк,вул. Городоцька (навпроти № 44) ,,
25,Цирк,вул. Городоцька 44,,
25,Цирк,вул. Городоцька (навпроти № 44) ,,
28,Цирк,вул. Городоцька 44,,
28,Цирк,вул. Городоцька (навпроти № 44) ,,
29,Цирк,вул. Городоцька 44,,
29,Цирк,вул. Городоцька (навпроти № 44) ,,
30,Цирк,вул. Городоцька (навпроти № 44) ,,
31,Цирк,вул. Городоцька 44,,
31,Цирк,вул. Городоцька (навпроти № 44) ,,
34,Цирк,вул. Городоцька (навпроти № 44) ,,
36,Цирк,вул. Городоцька 44,,
36,Цирк,вул. Городоцька (навпроти № 44) ,,
41,Цирк,вул. Городоцька 44,,
41,Цирк,вул. Городоцька (навпроти № 44) ,,
49,Цирк,вул. Городоцька 44,,
49,Цирк,вул. Городоцька (навпроти № 44) ,,
51,Цирк,вул. Городоцька 44,,
51,Цирк,вул. Городоцька (навпроти № 44) ,,
1А,Шевченківська районна адміністрація,вул. В. Липинського 12,,
1А,Шевченківська районна адміністрація,просп. В. Чорновола 57,,
7,Шевченківська районна адміністрація,просп. В. Чорновола 57,,
7,Шевченківська районна адміністрація,просп. В. Чорновола 61,,
7,Шевченківська районна адміністрація,"просп. В. Чорновола (вул. А.Могильницького, 18) ",,
8,Шевченківська районна адміністрація,просп. В. Чорновола 57,,
8,Шевченківська районна адміністрація,просп. В. Чорновола 61,,
8,Шевченківська районна адміністрація,"просп. В. Чорновола (вул. А.Могильницького, 18) ",,
12,Шевченківська районна адміністрація,вул. В. Липинського 12,,
17,Шевченківська районна адміністрація,просп. В. Чорновола 57,,
17,Шевченківська районна адміністрація,просп. В. Чорновола 61,,
17,Шевченківська районна адміністрація,"просп. В. Чорновола (вул. А.Могильницького, 18) ",,
22,Шевченківська районна адміністрація,просп. В. Чорновола 57,,
22,Шевченківська районна адміністрація,просп. В. Чорновола 61,,
22,Шевченківська районна адміністрація,"просп. В. Чорновола (вул. А.Могильницького, 18) ",,
25,Шевченківська районна адміністрація,вул. В. Липинського 12,,
25,Шевченківська районна адміністрація,просп. В. Чорновола 57,,
26,Шевченківська районна адміністрація,вул. В. Липинського 12,,
26,Шевченківська районна адміністрація,просп. В. Чорновола 57,,
28,Шевченківська районна адміністрація,просп. В. Чорновола 57,,
28,Шевченківська районна адміністрація,просп. В. Чорновола 61,,
31,Шевченківська районна адміністрація,просп. В. Чорновола 57,,
31,Шевченківська районна адміністрація,просп. В. Чорновола 61,,
31,Шевченківська районна адміністрація,"просп. В. Чорновола (вул. А.Могильницького, 18) ",,
34,Шевченківська районна адміністрація,вул. В. Липинського 12,,
34,Шевченківська районна адміністрація,просп. В. Чорновола 57,,
34,Шевченківська районна адміністрація,просп. В. Чорновола 61,,
35,Шевченківська районна адміністрація,вул. В. Липинського 12,,
35,Шевченківська районна адміністрація,просп. В. Чорновола 57,,
37,Шевченківська районна адміністрація,просп. В. Чорновола 57,,
37,Шевченківська районна адміністрація,просп. В. Чорновола 61,,
37,Шевченківська районна адміністрація,"просп. В. Чорновола (вул. А.Могильницького, 18) ",,
39,Шевченківська районна адміністрація,вул. В. Липинського 12,,
39,Шевченківська районна адміністрація,просп. В. Чорновола 57,,
41,Шевченківська районна адміністрація,просп. В. Чорновола 57,,
41,Шевченківська районна адміністрація,просп. В. Чорновола 61,,
41,Шевченківська районна адміністрація,"просп. В. Чорновола (вул. А.Могильницького, 18) ",,
46,Шевченківська районна адміністрація,просп. В. Чорновола 57,,
46,Шевченківська районна адміністрація,просп. В. Чорновола 61,,
46,Шевченківська районна адміністрація,"просп. В. Чорновола (вул. А.Могильницького, 18) ",,
50,Шевченківська районна адміністрація,просп. В. Чорновола 57,,
50,Шевченківська районна адміністрація,просп. В. Чорновола 61,,
50,Шевченківська районна адміністрація,"просп. В. Чорновола (вул. А.Могильницького, 18) ",,
51,Шевченківська районна адміністрація,просп. В. Чорновола 57,,
51,Шевченківська районна адміністрація,просп. В. Чорновола 61,,
51,Шевченківська районна адміністрація,"просп. В. Чорновола (вул. А.Могильницького, 18) ",,
53,Шевченківська районна адміністрація,вул. В. Липинського 12,,
53,Шевченківська районна адміністрація,просп. В. Чорновола 57,,
39,Шевченківський гай,вул. Кривчицька Дорога 16,,
39,Шевченківський гай,вул. Кривчицька Дорога 19А,,
28,Школа № 23,вул. Варшавська 126,,
50,Школа № 23,вул. Варшавська 126,,
50,Школа № 23,вул. Варшавська 155,,
6А,Янівське Кладовище,вул. Т. Шевченка ,,
6А,Янівське кладовище,вул. Т. Шевченка ,,
11,Янівське Кладовище,вул. Т. Шевченка ,,
11,Янівське кладовище,вул. Т. Шевченка ,,
30,Янівське Кладовище,вул. Т. Шевченка ,,
30,Янівське кладовище,вул. Т. Шевченка ,,
49,Янівське Кладовище,вул. Т. Шевченка ,,
49,Янівське кладовище,вул. Т. Шевченка ,,